{"type":"FeatureCollection","features":[{"type":"Feature","properties":{"NAMOBJ":"Gadung","KODE_KAB":7204},"geometry":{"type":"MultiPolygon","coordinates":[[[[121.7518,1.07242],[121.75162,1.0719],[121.75229,1.06978],[121.75194,1.06887],[121.75233,1.06832],[121.75146,1.06736],[121.75099,1.06387],[121.75396,1.06195],[121.7555,1.06008],[121.75676,1.05953],[121.75699,1.05849],[121.76002,1.05315],[121.76354,1.04905],[121.7683,1.04749],[121.76847,1.04587],[121.76993,1.04494],[121.77255,1.04092],[121.77277,1.03646],[121.77196,1.03401],[121.77289,1.03254],[121.77417,1.03188],[121.77437,1.02798],[121.7761,1.02527],[121.77756,1.02377],[121.77854,1.02357],[121.78058,1.02433],[121.78237,1.02421],[121.78455,1.02182],[121.78652,1.02115],[121.78684,1.02014],[121.78643,1.01849],[121.78807,1.01416],[121.79003,1.01223],[121.79243,1.0112],[121.79503,1.00763],[121.79495,1.00406],[121.79454,1.00325],[121.79546,1.0001],[121.79918,0.99729],[121.79997,0.99392],[121.80365,0.98905],[121.80368,0.98493],[121.80592,0.98111],[121.8072,0.97714],[121.80737,0.97402],[121.80679,0.97223],[121.80713,0.9702],[121.80508,0.96513],[121.80408,0.95996],[121.80492,0.95891],[121.80506,0.9566],[121.80695,0.95441],[121.80657,0.95195],[121.8068,0.95093],[121.80055,0.94893],[121.7984,0.94929],[121.79452,0.9488],[121.7912,0.94465],[121.78966,0.94366],[121.78698,0.94062],[121.78558,0.93973],[121.78003,0.93942],[121.7766,0.93811],[121.77391,0.93608],[121.77152,0.9367],[121.76923,0.93567],[121.76764,0.93566],[121.76713,0.93513],[121.76522,0.93461],[121.76241,0.93243],[121.75942,0.93306],[121.75521,0.9317],[121.7538,0.93163],[121.75287,0.93219],[121.751,0.93154],[121.74596,0.93157],[121.74066,0.93101],[121.73538,0.92967],[121.72875,0.92483],[121.72375,0.92338],[121.72059,0.92096],[121.71654,0.91918],[121.71051,0.91798],[121.70671,0.91555],[121.70429,0.91836],[121.70422,0.91952],[121.7032,0.92058],[121.70421,0.92456],[121.70551,0.92658],[121.70424,0.932],[121.70259,0.93225],[121.70168,0.93458],[121.69801,0.93706],[121.6962,0.93747],[121.69395,0.93911],[121.69275,0.93916],[121.69184,0.93874],[121.68919,0.94032],[121.68577,0.94351],[121.68474,0.94578],[121.68108,0.94933],[121.67827,0.9502],[121.67752,0.95165],[121.67643,0.9559],[121.67514,0.95731],[121.67547,0.95959],[121.67432,0.96175],[121.67333,0.96243],[121.67298,0.96343],[121.67173,0.96383],[121.671,0.96568],[121.66801,0.9684],[121.66985,0.96831],[121.67026,0.96972],[121.67111,0.97073],[121.67241,0.97057],[121.67788,0.97158],[121.67855,0.97074],[121.67894,0.9709],[121.67936,0.97556],[121.67782,0.98026],[121.67767,0.98187],[121.67789,0.98324],[121.67922,0.98459],[121.68178,0.98532],[121.68065,0.99002],[121.6817,0.99511],[121.68021,0.99753],[121.67982,1.0003],[121.68021,1.00228],[121.67887,1.00305],[121.6781,1.00517],[121.67684,1.00546],[121.6766,1.00714],[121.67563,1.00794],[121.67626,1.01023],[121.67599,1.01076],[121.67393,1.01095],[121.67299,1.01367],[121.67175,1.01313],[121.67053,1.01316],[121.66876,1.01636],[121.66667,1.01706],[121.66597,1.0178],[121.66616,1.02134],[121.6666,1.02263],[121.66886,1.025],[121.66908,1.02785],[121.66874,1.0287],[121.66631,1.03039],[121.66485,1.02997],[121.6637,1.0303],[121.6635,1.03365],[121.66221,1.03413],[121.6611,1.03515],[121.66022,1.03387],[121.6595,1.03404],[121.65831,1.03626],[121.6557,1.03843],[121.65414,1.04042],[121.65497,1.04206],[121.6567,1.04252],[121.65512,1.04355],[121.6549,1.04495],[121.65621,1.04656],[121.65658,1.04839],[121.65735,1.04869],[121.65624,1.04918],[121.65672,1.05104],[121.65652,1.05182],[121.65696,1.05171],[121.65713,1.05314],[121.65926,1.05539],[121.66007,1.05697],[121.65949,1.05678],[121.65864,1.05733],[121.65638,1.05743],[121.65557,1.05672],[121.65577,1.05615],[121.65503,1.05529],[121.65233,1.05458],[121.65039,1.05577],[121.65006,1.05749],[121.65145,1.05764],[121.65091,1.05908],[121.65104,1.06055],[121.65197,1.06136],[121.65432,1.06103],[121.6543,1.06227],[121.65505,1.06265],[121.65529,1.06234],[121.65581,1.0634],[121.66018,1.06428],[121.66125,1.06413],[121.66202,1.06489],[121.66268,1.06488],[121.66266,1.06589],[121.66377,1.06631],[121.66448,1.0665],[121.66541,1.06557],[121.66518,1.06706],[121.66564,1.06736],[121.66526,1.0679],[121.66572,1.06828],[121.66756,1.06862],[121.6694,1.06955],[121.67082,1.06943],[121.67189,1.06907],[121.67368,1.06604],[121.67744,1.06511],[121.68152,1.06638],[121.6827,1.06772],[121.68355,1.06772],[121.68396,1.06817],[121.68414,1.06876],[121.68368,1.06932],[121.68464,1.07083],[121.68611,1.07068],[121.68614,1.07023],[121.68566,1.07013],[121.68764,1.06964],[121.68845,1.06781],[121.68994,1.06748],[121.68997,1.06538],[121.69093,1.06529],[121.69152,1.06458],[121.69208,1.06485],[121.69186,1.06368],[121.69327,1.0643],[121.6935,1.06172],[121.69206,1.06045],[121.69315,1.05992],[121.69311,1.0607],[121.69412,1.06098],[121.69454,1.06051],[121.69392,1.05944],[121.69493,1.06028],[121.69548,1.05987],[121.69512,1.05892],[121.69441,1.05869],[121.69532,1.0587],[121.69532,1.05806],[121.69459,1.05744],[121.69512,1.05638],[121.69552,1.05606],[121.69585,1.05658],[121.6963,1.05652],[121.69746,1.05493],[121.69842,1.05519],[121.69844,1.05558],[121.69804,1.0556],[121.69827,1.0558],[121.6998,1.05558],[121.70156,1.05379],[121.70321,1.0533],[121.70486,1.05381],[121.70601,1.05301],[121.70791,1.05052],[121.70652,1.04965],[121.70435,1.04731],[121.70302,1.0467],[121.70391,1.0463],[121.70677,1.0461],[121.70662,1.0434],[121.70722,1.04286],[121.70732,1.04202],[121.7067,1.04082],[121.70585,1.04018],[121.70581,1.03819],[121.70484,1.0378],[121.70549,1.0376],[121.70744,1.03939],[121.70781,1.03934],[121.70785,1.03868],[121.70829,1.0386],[121.70965,1.03923],[121.71097,1.03892],[121.71111,1.03942],[121.71228,1.03981],[121.7155,1.03911],[121.71575,1.03948],[121.71531,1.04045],[121.71592,1.04107],[121.71685,1.04112],[121.717,1.04219],[121.71828,1.04387],[121.71832,1.04498],[121.71897,1.04595],[121.71556,1.04724],[121.71486,1.04859],[121.71316,1.04776],[121.71173,1.04791],[121.71075,1.05024],[121.70995,1.05084],[121.70871,1.05472],[121.70852,1.05657],[121.70943,1.05821],[121.70937,1.05901],[121.70601,1.06418],[121.70562,1.06562],[121.70617,1.06661],[121.70576,1.06663],[121.70524,1.06586],[121.70357,1.06818],[121.70397,1.06843],[121.70322,1.06981],[121.70327,1.07053],[121.7051,1.07185],[121.70491,1.07211],[121.7054,1.07271],[121.7062,1.07241],[121.70626,1.07326],[121.70717,1.07354],[121.70704,1.07423],[121.70629,1.07475],[121.70618,1.07611],[121.70649,1.07652],[121.70786,1.07585],[121.70787,1.07626],[121.70691,1.07674],[121.70681,1.07722],[121.7072,1.07769],[121.7082,1.07764],[121.70811,1.07878],[121.70856,1.07942],[121.71106,1.08067],[121.71388,1.0805],[121.71469,1.08014],[121.71561,1.07861],[121.71929,1.07658],[121.72111,1.0751],[121.72545,1.07461],[121.72798,1.0757],[121.72818,1.07508],[121.72977,1.07515],[121.73293,1.07171],[121.73377,1.06851],[121.73497,1.06645],[121.73951,1.06397],[121.74016,1.06181],[121.74111,1.0612],[121.74164,1.06196],[121.74166,1.06413],[121.74333,1.06489],[121.74301,1.0657],[121.74387,1.06542],[121.74443,1.06632],[121.74263,1.06976],[121.74379,1.07213],[121.75013,1.07181],[121.7518,1.07242]]]]}},{"type":"Feature","properties":{"NAMOBJ":"Paleleh","KODE_KAB":7204},"geometry":{"type":"MultiPolygon","coordinates":[[[[121.96153,1.04991],[121.96118,1.04997],[121.96126,1.05106],[121.96168,1.05123],[121.96207,1.05075],[121.96153,1.04991]]],[[[122.12524,1.05342],[122.12593,1.05331],[122.12637,1.05249],[122.12787,1.05173],[122.12824,1.05075],[122.12464,1.05165],[122.12429,1.05282],[122.12467,1.05338],[122.12524,1.05342]]],[[[121.95919,1.05972],[121.95916,1.05972],[121.95911,1.05972],[121.95906,1.05974],[121.95903,1.05977],[121.95901,1.05982],[121.95901,1.05988],[121.95902,1.05992],[121.95905,1.05995],[121.95908,1.05996],[121.95912,1.05995],[121.95916,1.05994],[121.9592,1.05989],[121.95922,1.05983],[121.95923,1.05977],[121.95923,1.05974],[121.95919,1.05972]]],[[[122.11399,1.06169],[122.1137,1.06197],[122.11442,1.06241],[122.1144,1.06185],[122.11399,1.06169]]],[[[121.97944,1.0676],[121.97918,1.06775],[121.97963,1.0679],[121.97944,1.0676]]],[[[121.97192,1.07125],[121.97285,1.07127],[121.97377,1.07044],[121.97387,1.06956],[121.97554,1.06802],[121.97654,1.06632],[121.97481,1.0632],[121.9749,1.06143],[121.97374,1.06082],[121.9724,1.05722],[121.971,1.0563],[121.96954,1.05446],[121.96595,1.0526],[121.96372,1.05093],[121.9636,1.05145],[121.96457,1.05274],[121.96438,1.05453],[121.96838,1.05842],[121.96816,1.06169],[121.96966,1.06242],[121.97078,1.06366],[121.97282,1.06381],[121.97113,1.06635],[121.97181,1.06908],[121.97121,1.07103],[121.97192,1.07125]]],[[[121.93734,1.07691],[121.94166,1.07571],[121.94279,1.07632],[121.94663,1.06972],[121.94939,1.06762],[121.94882,1.06568],[121.95,1.06279],[121.94896,1.06103],[121.94898,1.05861],[121.94799,1.05794],[121.948,1.05707],[121.9484,1.05764],[121.95,1.05566],[121.95214,1.05506],[121.95369,1.05565],[121.95469,1.0582],[121.95657,1.05953],[121.95691,1.06028],[121.959,1.05954],[121.95831,1.05824],[121.95838,1.05739],[121.9562,1.05295],[121.95599,1.05033],[121.95449,1.04961],[121.95356,1.04836],[121.95329,1.04605],[121.95166,1.0454],[121.95243,1.0451],[121.95266,1.04402],[121.95235,1.04217],[121.9515,1.04186],[121.95194,1.0417],[121.95283,1.03961],[121.95339,1.03968],[121.95314,1.04073],[121.95515,1.03785],[121.95711,1.0362],[121.96282,1.03345],[121.96272,1.03267],[121.96221,1.03257],[121.96143,1.03362],[121.96081,1.03374],[121.9619,1.03235],[121.9636,1.03216],[121.96505,1.03258],[121.97069,1.02845],[121.97209,1.02691],[121.97522,1.02738],[121.97794,1.02525],[121.97963,1.02463],[121.98086,1.02307],[121.98344,1.02203],[121.98534,1.02196],[121.98751,1.02262],[121.99235,1.02539],[121.99407,1.0268],[121.9981,1.027],[122.00117,1.02803],[122.00112,1.02957],[122.00205,1.03413],[122.00357,1.0358],[122.01096,1.03433],[122.01275,1.03539],[122.01238,1.0368],[122.0149,1.03783],[122.01574,1.03899],[122.01905,1.04012],[122.02236,1.03937],[122.02375,1.03951],[122.02658,1.04213],[122.02818,1.04281],[122.02796,1.04336],[122.02872,1.04415],[122.0294,1.04412],[122.02936,1.0434],[122.02987,1.0432],[122.03248,1.04308],[122.03549,1.0461],[122.03773,1.04645],[122.03909,1.04714],[122.04019,1.04647],[122.04185,1.04644],[122.04245,1.04715],[122.04242,1.04805],[122.0434,1.04813],[122.04437,1.04885],[122.04566,1.05113],[122.04982,1.05232],[122.05194,1.05462],[122.05196,1.05647],[122.05271,1.05978],[122.05155,1.06101],[122.05388,1.06528],[122.05446,1.0652],[122.05484,1.06408],[122.05731,1.06474],[122.05805,1.06375],[122.05974,1.06343],[122.05989,1.06508],[122.06056,1.06672],[122.0604,1.06845],[122.05637,1.07019],[122.05612,1.07074],[122.05653,1.07235],[122.05812,1.07234],[122.05927,1.07278],[122.06023,1.07251],[122.06173,1.07293],[122.06235,1.07267],[122.06577,1.07359],[122.06637,1.07288],[122.06854,1.07208],[122.06963,1.0712],[122.07044,1.0694],[122.06928,1.06884],[122.06728,1.0691],[122.06418,1.06532],[122.06397,1.06477],[122.06427,1.06405],[122.06695,1.06327],[122.07162,1.06331],[122.07431,1.06155],[122.07479,1.06027],[122.07574,1.05943],[122.07755,1.06005],[122.07941,1.06164],[122.07888,1.0633],[122.07916,1.06418],[122.08248,1.06437],[122.08357,1.06485],[122.08342,1.06543],[122.08379,1.06561],[122.08434,1.06463],[122.08609,1.06479],[122.08751,1.0643],[122.08955,1.06467],[122.09221,1.06602],[122.09269,1.06654],[122.09238,1.06698],[122.09262,1.06753],[122.0937,1.06823],[122.09575,1.06798],[122.09822,1.06895],[122.1002,1.06797],[122.10091,1.0686],[122.10199,1.0687],[122.10344,1.06814],[122.10389,1.06713],[122.10585,1.06682],[122.109,1.06767],[122.10971,1.06663],[122.10967,1.06544],[122.10621,1.06234],[122.1066,1.06124],[122.10816,1.05949],[122.10797,1.05833],[122.10888,1.05719],[122.1085,1.05602],[122.10984,1.05694],[122.11106,1.05854],[122.11099,1.05768],[122.11213,1.05581],[122.11621,1.05583],[122.11882,1.05533],[122.11872,1.05407],[122.11699,1.05287],[122.1169,1.05068],[122.11734,1.05026],[122.11894,1.0502],[122.11952,1.04879],[122.11896,1.04793],[122.11911,1.04669],[122.11993,1.04561],[122.12271,1.04559],[122.12313,1.0442],[122.12432,1.04421],[122.12521,1.04299],[122.12587,1.04319],[122.12619,1.04428],[122.12688,1.04374],[122.12598,1.04628],[122.12696,1.0494],[122.1301,1.04849],[122.13051,1.04894],[122.13101,1.04885],[122.13077,1.04931],[122.12855,1.05046],[122.12944,1.0508],[122.12856,1.05268],[122.1303,1.05354],[122.13317,1.05262],[122.13706,1.0498],[122.13958,1.04988],[122.14021,1.04869],[122.14019,1.04707],[122.14064,1.04627],[122.14168,1.04545],[122.14349,1.04493],[122.14542,1.04531],[122.14575,1.04581],[122.15059,1.04527],[122.15189,1.04616],[122.15164,1.04746],[122.15292,1.04762],[122.15406,1.04868],[122.15581,1.04841],[122.15642,1.04756],[122.15552,1.04601],[122.15603,1.04464],[122.15794,1.04192],[122.15902,1.04162],[122.15851,1.0406],[122.15846,1.03799],[122.15963,1.03571],[122.1631,1.03213],[122.16579,1.03199],[122.16899,1.03261],[122.17081,1.03409],[122.17127,1.03626],[122.17086,1.0392],[122.17198,1.0407],[122.17195,1.04209],[122.17253,1.04371],[122.17229,1.04513],[122.17269,1.0454],[122.17542,1.04565],[122.1766,1.0452],[122.17814,1.04528],[122.17988,1.04401],[122.18142,1.04377],[122.18303,1.04215],[122.18484,1.04288],[122.18472,1.04471],[122.18516,1.04602],[122.18396,1.0513],[122.18598,1.05266],[122.1866,1.05563],[122.18714,1.05554],[122.18815,1.05244],[122.18648,1.0521],[122.18567,1.05137],[122.18555,1.04998],[122.18694,1.04718],[122.18667,1.04593],[122.18786,1.04463],[122.18861,1.04518],[122.18914,1.04501],[122.19054,1.04312],[122.19127,1.0405],[122.19203,1.03945],[122.19349,1.03885],[122.19518,1.03917],[122.19553,1.03853],[122.1924,1.03829],[122.19088,1.03872],[122.18977,1.03977],[122.18883,1.03947],[122.18888,1.03892],[122.18829,1.03829],[122.18437,1.03804],[122.18329,1.03842],[122.18146,1.03761],[122.17889,1.03788],[122.17783,1.03709],[122.17566,1.03687],[122.17446,1.0317],[122.171,1.029],[122.16985,1.02884],[122.16468,1.03022],[122.16318,1.0299],[122.16109,1.03056],[122.15996,1.0314],[122.1586,1.03145],[122.15861,1.0286],[122.15632,1.0256],[122.15482,1.02525],[122.15421,1.02569],[122.15295,1.02468],[122.15136,1.02418],[122.15078,1.02349],[122.15049,1.02365],[122.1502,1.02315],[122.14927,1.0229],[122.14871,1.02145],[122.14761,1.02139],[122.14592,1.02002],[122.14501,1.02012],[122.14416,1.01942],[122.14127,1.01837],[122.13767,1.02011],[122.13398,1.01949],[122.13151,1.01996],[122.12934,1.01909],[122.12579,1.01864],[122.12422,1.01469],[122.12354,1.01401],[122.12331,1.01274],[122.12124,1.01235],[122.11816,1.01306],[122.11702,1.01273],[122.11222,1.01316],[122.10869,1.01238],[122.10828,1.01137],[122.10852,1.01046],[122.10161,1.00488],[122.09781,1.00272],[122.09597,1.0022],[122.0941,1.00068],[122.0924,1.00052],[122.09081,0.99975],[122.08576,0.9989],[122.08459,0.99922],[122.08324,1.00037],[122.08154,1.00099],[122.07827,1.00521],[122.07675,1.00638],[122.07434,1.00632],[122.07243,1.0054],[122.07103,1.00565],[122.06866,1.0041],[122.06675,1.00095],[122.06351,0.99874],[122.06184,0.99851],[122.05966,0.99689],[122.05661,0.99697],[122.052,0.99447],[122.05056,0.99241],[122.04888,0.99114],[122.04489,0.98911],[122.04232,0.98948],[122.04073,0.98516],[122.03834,0.98258],[122.03513,0.97619],[122.03035,0.97052],[122.02513,0.96026],[122.02304,0.95809],[122.0179,0.95687],[122.01696,0.95461],[122.01004,0.95202],[122.00894,0.95091],[122.00765,0.94839],[122.00051,0.94386],[122.00004,0.94289],[121.9991,0.94251],[121.99706,0.94299],[121.99558,0.94278],[121.99329,0.94167],[121.98852,0.93541],[121.98711,0.93198],[121.98369,0.92755],[121.9832,0.92629],[121.98322,0.92353],[121.98409,0.9206],[121.98453,0.91998],[121.986,0.91972],[121.9865,0.91906],[121.9851,0.91442],[121.98515,0.91046],[121.98253,0.90736],[121.98087,0.90611],[121.97578,0.90423],[121.97397,0.90428],[121.97028,0.90559],[121.96738,0.90605],[121.96588,0.90734],[121.95835,0.9072],[121.95466,0.90772],[121.95275,0.90982],[121.95109,0.91251],[121.94886,0.91384],[121.94782,0.91853],[121.94378,0.91995],[121.94284,0.92301],[121.94044,0.92632],[121.93714,0.92849],[121.93241,0.9299],[121.93097,0.92966],[121.9276,0.92773],[121.92586,0.92808],[121.92479,0.92742],[121.9226,0.92741],[121.92026,0.93165],[121.91811,0.93346],[121.91796,0.93656],[121.91708,0.93764],[121.91734,0.93994],[121.91627,0.94328],[121.91315,0.94584],[121.91219,0.94873],[121.91091,0.94897],[121.90738,0.95499],[121.90716,0.95729],[121.90631,0.95888],[121.90368,0.96119],[121.90212,0.96409],[121.89903,0.96446],[121.89783,0.96584],[121.89469,0.96817],[121.89473,0.96858],[121.894,0.96883],[121.89112,0.97414],[121.88845,0.97612],[121.88809,0.97673],[121.8882,0.97771],[121.8877,0.97815],[121.88592,0.97803],[121.88382,0.97939],[121.87876,0.97998],[121.87703,0.9824],[121.875,0.98375],[121.87292,0.98383],[121.86975,0.98568],[121.86762,0.98615],[121.86604,0.98801],[121.86446,0.98871],[121.86372,0.99062],[121.86317,0.99101],[121.85906,0.99069],[121.85658,0.99306],[121.85434,0.99253],[121.85371,0.99318],[121.85154,0.99336],[121.84986,0.99286],[121.85011,0.99504],[121.84983,0.99657],[121.84824,0.99908],[121.84705,0.99958],[121.8455,1.00328],[121.84541,1.00457],[121.84672,1.00641],[121.84614,1.00854],[121.84606,1.0124],[121.84792,1.01531],[121.84899,1.01507],[121.85178,1.01741],[121.85314,1.01711],[121.85576,1.01741],[121.85708,1.01663],[121.85932,1.01719],[121.85968,1.01653],[121.85933,1.01572],[121.86422,1.01478],[121.86462,1.01855],[121.86558,1.02038],[121.87237,1.02532],[121.87678,1.02762],[121.87793,1.02791],[121.88012,1.02716],[121.88417,1.0328],[121.88579,1.03399],[121.89093,1.03532],[121.89308,1.03527],[121.89642,1.03401],[121.89917,1.03224],[121.90043,1.03219],[121.90293,1.033],[121.90597,1.03278],[121.90978,1.03337],[121.91021,1.03581],[121.91083,1.03702],[121.90982,1.03968],[121.91007,1.04277],[121.90929,1.04675],[121.90836,1.04919],[121.90852,1.05236],[121.90916,1.05375],[121.90886,1.05615],[121.9091,1.05775],[121.90831,1.06006],[121.90904,1.06419],[121.90999,1.06564],[121.90949,1.06769],[121.90843,1.06918],[121.90877,1.07],[121.91079,1.0713],[121.91191,1.07263],[121.91303,1.07275],[121.91553,1.07406],[121.91735,1.07588],[121.9188,1.0788],[121.92094,1.0808],[121.92225,1.08147],[121.93309,1.0837],[121.93438,1.07856],[121.93734,1.07691]]]]}},{"type":"Feature","properties":{"NAMOBJ":"Bunobogu","KODE_KAB":7204},"geometry":{"type":"MultiPolygon","coordinates":[[[[121.65414,1.04042],[121.6557,1.03843],[121.65831,1.03626],[121.6595,1.03404],[121.66022,1.03387],[121.6611,1.03515],[121.66221,1.03413],[121.6635,1.03365],[121.6637,1.0303],[121.66485,1.02997],[121.66631,1.03039],[121.66874,1.0287],[121.66908,1.02785],[121.66886,1.025],[121.6666,1.02263],[121.66616,1.02134],[121.66597,1.0178],[121.66667,1.01706],[121.66876,1.01636],[121.67053,1.01316],[121.67175,1.01313],[121.67299,1.01367],[121.67393,1.01095],[121.67599,1.01076],[121.67626,1.01023],[121.67563,1.00794],[121.6766,1.00714],[121.67674,1.0056],[121.6781,1.00517],[121.67887,1.00305],[121.68021,1.00228],[121.67982,1.0003],[121.68021,0.99753],[121.6817,0.99511],[121.68065,0.99002],[121.68178,0.98532],[121.67922,0.98459],[121.67789,0.98324],[121.67782,0.98026],[121.67936,0.97556],[121.67894,0.9709],[121.67855,0.97074],[121.67788,0.97158],[121.67241,0.97057],[121.67111,0.97073],[121.67026,0.96972],[121.66985,0.96831],[121.66801,0.9684],[121.671,0.96568],[121.67173,0.96383],[121.67298,0.96343],[121.67333,0.96243],[121.67432,0.96175],[121.67547,0.95959],[121.67514,0.95731],[121.67643,0.9559],[121.67752,0.95165],[121.67827,0.9502],[121.68108,0.94933],[121.68474,0.94578],[121.68577,0.94351],[121.68919,0.94032],[121.69184,0.93874],[121.69275,0.93916],[121.69395,0.93911],[121.6962,0.93747],[121.69801,0.93706],[121.70168,0.93458],[121.70259,0.93225],[121.70424,0.932],[121.70551,0.92658],[121.70421,0.92456],[121.7032,0.92058],[121.70422,0.91952],[121.70429,0.91836],[121.70671,0.91555],[121.70523,0.91416],[121.70153,0.90705],[121.70075,0.90689],[121.69929,0.90734],[121.69784,0.907],[121.69456,0.90532],[121.69129,0.9026],[121.69057,0.90251],[121.68835,0.90344],[121.68624,0.902],[121.68396,0.90135],[121.68213,0.90121],[121.67909,0.902],[121.67828,0.90268],[121.67562,0.90359],[121.67337,0.90347],[121.67015,0.90106],[121.6671,0.89975],[121.66594,0.89865],[121.66506,0.89693],[121.6614,0.89522],[121.65954,0.89265],[121.65777,0.89193],[121.65597,0.89196],[121.65406,0.89145],[121.6516,0.89386],[121.64957,0.89486],[121.64515,0.8953],[121.64366,0.89413],[121.63912,0.89259],[121.63767,0.89268],[121.63674,0.89168],[121.63519,0.89099],[121.6322,0.8882],[121.63033,0.88786],[121.6289,0.88696],[121.62779,0.88472],[121.62688,0.88393],[121.62319,0.88204],[121.6195,0.88173],[121.61386,0.88273],[121.61194,0.88352],[121.60919,0.88087],[121.60808,0.87861],[121.60591,0.87731],[121.60397,0.87354],[121.60319,0.87291],[121.60199,0.87269],[121.59964,0.87282],[121.59708,0.87239],[121.59318,0.87359],[121.59054,0.87287],[121.58777,0.87339],[121.58564,0.87305],[121.58402,0.87165],[121.58166,0.87189],[121.57908,0.8716],[121.57747,0.87217],[121.5768,0.87206],[121.5755,0.87095],[121.57361,0.8706],[121.56749,0.87466],[121.56304,0.87414],[121.56095,0.87617],[121.55732,0.87821],[121.55189,0.87834],[121.55054,0.87899],[121.54949,0.87998],[121.54907,0.88103],[121.54897,0.88259],[121.54934,0.88376],[121.55061,0.88562],[121.55311,0.88738],[121.55598,0.89205],[121.56036,0.8952],[121.56048,0.8966],[121.55677,0.89663],[121.55335,0.89852],[121.55034,0.89973],[121.549,0.89988],[121.54793,0.90135],[121.54518,0.90169],[121.54434,0.90478],[121.54265,0.90698],[121.54184,0.91012],[121.54102,0.91039],[121.54021,0.91163],[121.5387,0.91159],[121.53724,0.91259],[121.53637,0.91383],[121.53647,0.91481],[121.53481,0.91572],[121.53419,0.91666],[121.53341,0.91927],[121.53171,0.91907],[121.53108,0.91935],[121.52905,0.92233],[121.52918,0.9236],[121.52764,0.9235],[121.52736,0.92407],[121.52805,0.9253],[121.52795,0.9266],[121.52843,0.92757],[121.5284,0.92891],[121.52779,0.93004],[121.52814,0.93127],[121.53039,0.93255],[121.53194,0.93499],[121.53343,0.93636],[121.53417,0.9363],[121.53465,0.93755],[121.53637,0.93907],[121.54063,0.94117],[121.54112,0.94404],[121.54345,0.94411],[121.54385,0.94442],[121.54296,0.94595],[121.54323,0.94662],[121.54392,0.94699],[121.54296,0.94739],[121.54146,0.95101],[121.54203,0.95201],[121.54391,0.95356],[121.54406,0.95416],[121.54304,0.95487],[121.54209,0.95487],[121.53942,0.95309],[121.53903,0.954],[121.53948,0.95509],[121.5412,0.95616],[121.54343,0.95617],[121.54451,0.95724],[121.54658,0.95676],[121.54735,0.95847],[121.54795,0.95817],[121.54816,0.95642],[121.54886,0.95664],[121.54932,0.95742],[121.548,0.96078],[121.54965,0.96178],[121.54977,0.96406],[121.54761,0.96767],[121.54409,0.96842],[121.54135,0.97118],[121.54125,0.9727],[121.54212,0.97508],[121.54195,0.97558],[121.53619,0.9768],[121.53322,0.97966],[121.53136,0.97974],[121.52926,0.97877],[121.52806,0.97877],[121.52731,0.97952],[121.52658,0.98161],[121.52687,0.98343],[121.52924,0.98435],[121.52797,0.98598],[121.52921,0.98701],[121.52936,0.98774],[121.52916,0.98879],[121.5283,0.98904],[121.52843,0.98945],[121.52962,0.98978],[121.53058,0.989],[121.53153,0.9898],[121.53361,0.98905],[121.53476,0.99],[121.53547,0.9912],[121.53435,0.99138],[121.53267,0.99259],[121.53258,0.99425],[121.53356,0.99547],[121.53278,0.99609],[121.53354,0.99697],[121.53361,0.99951],[121.53409,1.0013],[121.53821,1.00666],[121.53774,1.00764],[121.53655,1.00858],[121.53618,1.01018],[121.53682,1.01077],[121.53822,1.01017],[121.53925,1.01018],[121.54018,1.01131],[121.53917,1.01585],[121.53976,1.01676],[121.54099,1.01749],[121.54186,1.01886],[121.5404,1.02047],[121.53936,1.02259],[121.5395,1.0232],[121.5412,1.02253],[121.54206,1.02263],[121.54225,1.02308],[121.54187,1.02396],[121.54229,1.02421],[121.5437,1.02221],[121.5441,1.02224],[121.5445,1.02302],[121.54512,1.02296],[121.54538,1.02134],[121.5459,1.02092],[121.547,1.02118],[121.54606,1.02262],[121.54876,1.02207],[121.54833,1.02353],[121.54931,1.02407],[121.55003,1.02381],[121.55039,1.02429],[121.54935,1.02509],[121.54966,1.02646],[121.54858,1.02715],[121.54854,1.02755],[121.54956,1.02851],[121.55068,1.02728],[121.55084,1.02786],[121.55011,1.02968],[121.55193,1.03015],[121.55115,1.03117],[121.55236,1.03154],[121.5535,1.03115],[121.55348,1.03191],[121.55242,1.03245],[121.55361,1.03391],[121.55476,1.03386],[121.55529,1.0347],[121.5587,1.03421],[121.55961,1.03542],[121.55891,1.03629],[121.55903,1.03702],[121.56007,1.03776],[121.56091,1.03916],[121.56165,1.03865],[121.56239,1.03874],[121.56236,1.04039],[121.56368,1.04016],[121.56324,1.04239],[121.56437,1.04331],[121.56375,1.04387],[121.5638,1.04439],[121.56465,1.04466],[121.56619,1.04431],[121.56687,1.04567],[121.56713,1.04444],[121.56741,1.0445],[121.56859,1.04621],[121.56846,1.04732],[121.56898,1.04844],[121.56807,1.05],[121.5692,1.05011],[121.56787,1.05176],[121.5678,1.05353],[121.5658,1.05483],[121.56615,1.05589],[121.56663,1.05604],[121.56755,1.05538],[121.56781,1.05618],[121.56664,1.05805],[121.56769,1.05923],[121.5658,1.06073],[121.56736,1.0613],[121.56697,1.06274],[121.56762,1.06355],[121.56802,1.06307],[121.56954,1.06261],[121.57165,1.06335],[121.57231,1.06309],[121.57261,1.06376],[121.5786,1.05958],[121.58334,1.05735],[121.58422,1.0573],[121.58532,1.058],[121.58657,1.05814],[121.59117,1.05618],[121.59913,1.05487],[121.60432,1.05485],[121.6079,1.05593],[121.60881,1.05584],[121.60802,1.05996],[121.60864,1.06025],[121.60962,1.05947],[121.61034,1.05944],[121.61067,1.06126],[121.61168,1.06201],[121.61805,1.06129],[121.61863,1.06075],[121.61818,1.05978],[121.61842,1.05823],[121.61872,1.05877],[121.61915,1.0586],[121.61949,1.05903],[121.61976,1.0586],[121.61937,1.05832],[121.6195,1.05793],[121.6206,1.05915],[121.62153,1.05918],[121.62169,1.05962],[121.62201,1.05964],[121.62233,1.05862],[121.62357,1.05848],[121.62324,1.05915],[121.62433,1.05907],[121.6251,1.06025],[121.62545,1.06002],[121.62523,1.05922],[121.62558,1.05936],[121.62567,1.05876],[121.62611,1.05876],[121.62629,1.0577],[121.62703,1.05887],[121.62665,1.05924],[121.62759,1.05924],[121.6281,1.06042],[121.62886,1.06049],[121.629,1.05911],[121.62942,1.05869],[121.62913,1.05796],[121.63048,1.05785],[121.63073,1.0582],[121.63068,1.05755],[121.63395,1.05614],[121.6337,1.05466],[121.63419,1.05502],[121.63458,1.05484],[121.63468,1.05534],[121.6356,1.05485],[121.6367,1.05496],[121.63714,1.05423],[121.63671,1.05405],[121.63686,1.05368],[121.63782,1.05337],[121.63801,1.05293],[121.63929,1.05306],[121.63962,1.05257],[121.64072,1.05285],[121.64102,1.05258],[121.64146,1.05324],[121.64136,1.05199],[121.64189,1.05253],[121.64207,1.05207],[121.64265,1.05254],[121.64312,1.05241],[121.64284,1.05294],[121.64363,1.05302],[121.64351,1.05394],[121.64419,1.05393],[121.64458,1.05333],[121.64438,1.05292],[121.64491,1.05263],[121.6454,1.05339],[121.64626,1.05328],[121.64679,1.05272],[121.64648,1.05158],[121.64712,1.05182],[121.6479,1.05044],[121.64798,1.04896],[121.64665,1.0478],[121.64692,1.0466],[121.64516,1.04599],[121.64522,1.04431],[121.6459,1.04391],[121.64624,1.04469],[121.6471,1.04495],[121.64742,1.04439],[121.64853,1.04413],[121.64832,1.04387],[121.64943,1.04322],[121.64982,1.04139],[121.65076,1.04055],[121.65087,1.03964],[121.65273,1.0403],[121.65267,1.04101],[121.65313,1.04128],[121.65414,1.04042]]]]}},{"type":"Feature","properties":{"NAMOBJ":"Paleleh Barat","KODE_KAB":7204},"geometry":{"type":"MultiPolygon","coordinates":[[[[121.81077,1.09318],[121.81022,1.09321],[121.80995,1.09393],[121.81022,1.09514],[121.81129,1.09647],[121.81297,1.0967],[121.81293,1.09519],[121.81077,1.09318]]],[[[121.92817,1.10189],[121.9303,1.10206],[121.93176,1.10127],[121.93407,1.09769],[121.93372,1.09705],[121.93445,1.09504],[121.93448,1.09312],[121.93303,1.09226],[121.93228,1.08995],[121.93265,1.08815],[121.93424,1.08581],[121.93308,1.08496],[121.93309,1.0837],[121.92145,1.08111],[121.9188,1.0788],[121.91735,1.07588],[121.91572,1.07424],[121.91303,1.07275],[121.91167,1.07248],[121.91079,1.0713],[121.909,1.07024],[121.90842,1.06919],[121.90936,1.06796],[121.91,1.06619],[121.90904,1.06419],[121.90831,1.06006],[121.9091,1.05775],[121.90886,1.05615],[121.90916,1.05375],[121.90852,1.05236],[121.90841,1.04871],[121.90937,1.04635],[121.91012,1.04235],[121.90982,1.03968],[121.91083,1.0371],[121.90978,1.03337],[121.90597,1.03278],[121.90293,1.033],[121.89993,1.03217],[121.89835,1.03258],[121.89642,1.03401],[121.89308,1.03527],[121.89093,1.03532],[121.88711,1.03448],[121.88469,1.03339],[121.88012,1.02716],[121.87793,1.02791],[121.87678,1.02762],[121.87237,1.02532],[121.86558,1.02038],[121.86462,1.01855],[121.86422,1.01478],[121.85933,1.01572],[121.85968,1.01653],[121.85932,1.01719],[121.85708,1.01663],[121.85576,1.01741],[121.85314,1.01711],[121.85178,1.01741],[121.84899,1.01507],[121.84792,1.01531],[121.84616,1.01283],[121.84614,1.00854],[121.84672,1.00641],[121.84541,1.00457],[121.84576,1.00245],[121.84705,0.99958],[121.84825,0.99906],[121.85005,0.99583],[121.84986,0.99286],[121.84912,0.99048],[121.84716,0.98707],[121.8466,0.98508],[121.84681,0.98218],[121.84856,0.98071],[121.84872,0.97972],[121.84765,0.97828],[121.84635,0.97739],[121.84361,0.97718],[121.83738,0.97384],[121.83614,0.9704],[121.83329,0.96795],[121.83171,0.96186],[121.83067,0.96081],[121.82923,0.96018],[121.82745,0.96019],[121.82117,0.96164],[121.81946,0.9583],[121.81474,0.95418],[121.81347,0.95123],[121.81285,0.95071],[121.81108,0.95009],[121.8068,0.95093],[121.80657,0.95195],[121.80695,0.95441],[121.80506,0.9566],[121.80492,0.95891],[121.80408,0.95996],[121.80508,0.96513],[121.80713,0.9702],[121.80679,0.97223],[121.80737,0.97402],[121.8072,0.97714],[121.80592,0.98111],[121.80368,0.98493],[121.80365,0.98905],[121.79997,0.99392],[121.79918,0.99729],[121.79546,1.0001],[121.79454,1.00325],[121.79495,1.00406],[121.79503,1.00763],[121.79243,1.0112],[121.79003,1.01223],[121.78807,1.01416],[121.78643,1.01849],[121.78684,1.02014],[121.78652,1.02115],[121.78455,1.02182],[121.78237,1.02421],[121.78058,1.02433],[121.77854,1.02357],[121.77756,1.02377],[121.7761,1.02527],[121.77437,1.02798],[121.77417,1.03188],[121.77289,1.03254],[121.77196,1.03401],[121.77277,1.03646],[121.77255,1.04092],[121.76993,1.04494],[121.76847,1.04587],[121.7683,1.04749],[121.76354,1.04905],[121.76002,1.05315],[121.75699,1.05849],[121.75676,1.05953],[121.7555,1.06008],[121.75396,1.06195],[121.75099,1.06387],[121.75146,1.06736],[121.75233,1.06832],[121.75194,1.06887],[121.75229,1.06978],[121.75162,1.0719],[121.7518,1.07242],[121.75527,1.06939],[121.75864,1.06994],[121.76159,1.0694],[121.76608,1.07007],[121.76706,1.07036],[121.76778,1.07144],[121.7699,1.07278],[121.77068,1.07439],[121.77288,1.07545],[121.77332,1.0764],[121.77412,1.07692],[121.77413,1.07763],[121.77462,1.07782],[121.77527,1.07743],[121.77516,1.07583],[121.77774,1.07494],[121.77871,1.07485],[121.77985,1.07547],[121.77992,1.07672],[121.78131,1.07549],[121.78338,1.07573],[121.78433,1.07869],[121.78383,1.08057],[121.78489,1.08162],[121.78669,1.0822],[121.78766,1.08177],[121.78911,1.0822],[121.79024,1.08201],[121.79059,1.08118],[121.7913,1.081],[121.79397,1.08105],[121.79679,1.08198],[121.79747,1.08038],[121.79899,1.08004],[121.80056,1.08065],[121.80124,1.08197],[121.802,1.08197],[121.8031,1.08053],[121.80746,1.08005],[121.80821,1.07772],[121.81014,1.078],[121.81205,1.08006],[121.81227,1.0807],[121.81192,1.0816],[121.81222,1.08216],[121.8131,1.08145],[121.81444,1.08184],[121.8154,1.08132],[121.81644,1.08134],[121.81708,1.08061],[121.8176,1.08059],[121.81787,1.08132],[121.81968,1.0831],[121.81964,1.08566],[121.82042,1.08573],[121.82086,1.08612],[121.82055,1.08624],[121.8217,1.08704],[121.82196,1.0878],[121.82152,1.08871],[121.82161,1.09046],[121.82441,1.09207],[121.82542,1.09163],[121.82666,1.08833],[121.82843,1.08645],[121.83115,1.0875],[121.83497,1.08635],[121.83597,1.08642],[121.83648,1.0869],[121.83776,1.08653],[121.84147,1.08734],[121.84304,1.08616],[121.84499,1.08648],[121.84507,1.0884],[121.84636,1.09028],[121.84622,1.09219],[121.84697,1.09306],[121.84789,1.09325],[121.84872,1.09256],[121.85062,1.08959],[121.85151,1.08874],[121.85364,1.08807],[121.85576,1.08544],[121.85696,1.08489],[121.85936,1.08476],[121.86028,1.08573],[121.85899,1.08763],[121.85853,1.08988],[121.85914,1.09062],[121.85915,1.09173],[121.8601,1.09197],[121.86029,1.09274],[121.86083,1.0928],[121.86075,1.091],[121.86243,1.08821],[121.86436,1.0868],[121.86938,1.08422],[121.87082,1.08292],[121.87242,1.08319],[121.87207,1.08233],[121.8727,1.08143],[121.87596,1.08],[121.88239,1.07977],[121.88291,1.08037],[121.88727,1.08188],[121.88878,1.08289],[121.88914,1.08496],[121.88787,1.08628],[121.88765,1.08753],[121.88793,1.08833],[121.89073,1.0897],[121.89071,1.09106],[121.89801,1.09111],[121.89923,1.09183],[121.90378,1.09179],[121.90691,1.09234],[121.9109,1.09382],[121.9116,1.09493],[121.91341,1.09462],[121.91352,1.09536],[121.91633,1.09767],[121.91626,1.09865],[121.91904,1.09989],[121.92141,1.10033],[121.92211,1.10094],[121.92302,1.10096],[121.92373,1.10168],[121.92605,1.10187],[121.9265,1.10257],[121.92817,1.10189]]],[[[121.84089,1.11938],[121.8408,1.11842],[121.83948,1.11789],[121.83763,1.11895],[121.83491,1.11868],[121.83393,1.11967],[121.83452,1.12056],[121.84027,1.12422],[121.84197,1.12498],[121.84391,1.12507],[121.84431,1.12434],[121.84406,1.12311],[121.84089,1.11991],[121.84089,1.11938]]]]}},{"type":"Feature","properties":{"NAMOBJ":"Bukal","KODE_KAB":7204},"geometry":{"type":"MultiPolygon","coordinates":[[[[121.48935,0.83983],[121.48248,0.83982],[121.4808,0.8376],[121.47732,0.83807],[121.47661,0.83881],[121.47599,0.84209],[121.47417,0.84207],[121.47152,0.84305],[121.47049,0.84583],[121.46879,0.84659],[121.46713,0.84829],[121.46644,0.84747],[121.46231,0.84504],[121.46192,0.84531],[121.46161,0.84702],[121.45813,0.84705],[121.45485,0.84798],[121.45179,0.84679],[121.44647,0.84743],[121.4418,0.84734],[121.44001,0.84784],[121.43663,0.84687],[121.43319,0.84441],[121.42634,0.84345],[121.42096,0.84443],[121.4177,0.84801],[121.41676,0.84982],[121.41401,0.84702],[121.41226,0.84624],[121.41153,0.84535],[121.40504,0.84462],[121.40223,0.8437],[121.39896,0.84959],[121.3959,0.85047],[121.39421,0.852],[121.3904,0.85063],[121.38857,0.85335],[121.38738,0.85425],[121.38549,0.8549],[121.38069,0.85273],[121.37937,0.8525],[121.37717,0.85266],[121.37422,0.85385],[121.37082,0.852],[121.36883,0.84979],[121.36803,0.84949],[121.36589,0.84988],[121.36419,0.85233],[121.36157,0.853],[121.35972,0.85481],[121.35889,0.85338],[121.35471,0.8505],[121.35199,0.85056],[121.34885,0.85233],[121.34808,0.84981],[121.34703,0.84827],[121.34718,0.84571],[121.3484,0.84331],[121.35035,0.84234],[121.35175,0.84105],[121.35224,0.83752],[121.35307,0.83535],[121.35274,0.83325],[121.35306,0.83252],[121.35052,0.82216],[121.34995,0.82151],[121.35139,0.82024],[121.35566,0.81842],[121.35848,0.81557],[121.36074,0.81476],[121.3645,0.80681],[121.36445,0.80268],[121.36307,0.80108],[121.3579,0.80194],[121.35413,0.79901],[121.35375,0.79722],[121.35279,0.796],[121.35023,0.79505],[121.34794,0.79532],[121.34418,0.79356],[121.34298,0.79365],[121.34168,0.79487],[121.3396,0.79438],[121.33778,0.79556],[121.33487,0.79517],[121.33312,0.79572],[121.32867,0.79258],[121.32571,0.79234],[121.32381,0.78844],[121.31999,0.78624],[121.31701,0.78505],[121.31606,0.78559],[121.31445,0.78772],[121.31307,0.78747],[121.31206,0.78797],[121.30905,0.79172],[121.3052,0.79244],[121.30325,0.79553],[121.30133,0.79478],[121.29875,0.7959],[121.2933,0.79576],[121.29089,0.79703],[121.28894,0.79902],[121.28706,0.79819],[121.28307,0.79806],[121.28079,0.7969],[121.275,0.79714],[121.26924,0.79622],[121.26548,0.79735],[121.26929,0.79814],[121.27341,0.80309],[121.27458,0.80742],[121.27292,0.80964],[121.27294,0.81173],[121.2738,0.8141],[121.27576,0.81706],[121.2776,0.82086],[121.27921,0.82638],[121.28142,0.82758],[121.28344,0.82793],[121.28574,0.82957],[121.28689,0.83077],[121.28882,0.83406],[121.29091,0.83596],[121.29078,0.83876],[121.28831,0.84155],[121.28893,0.84677],[121.28726,0.85101],[121.28564,0.85193],[121.28491,0.85474],[121.28455,0.85879],[121.28697,0.85853],[121.29001,0.86102],[121.29123,0.86275],[121.29355,0.86447],[121.29405,0.86662],[121.29336,0.86971],[121.29355,0.87043],[121.28922,0.87437],[121.28522,0.87673],[121.28384,0.8768],[121.28479,0.88022],[121.28491,0.88363],[121.28411,0.88573],[121.28268,0.88731],[121.28265,0.88948],[121.28334,0.89142],[121.28416,0.8917],[121.28761,0.8945],[121.28993,0.89506],[121.29164,0.89737],[121.29392,0.89892],[121.29419,0.89982],[121.29339,0.90249],[121.294,0.90512],[121.29604,0.90608],[121.29645,0.90766],[121.29783,0.90901],[121.29785,0.91103],[121.29926,0.91228],[121.29975,0.91435],[121.30098,0.91506],[121.30275,0.91729],[121.30227,0.9193],[121.30074,0.91992],[121.29971,0.9212],[121.29723,0.92153],[121.2954,0.92434],[121.2971,0.92895],[121.29685,0.93157],[121.29729,0.93412],[121.29917,0.93579],[121.30038,0.93847],[121.30217,0.94106],[121.30119,0.94631],[121.30272,0.94908],[121.30161,0.95101],[121.30234,0.95332],[121.30251,0.95552],[121.30525,0.95685],[121.30666,0.95902],[121.31029,0.95953],[121.31323,0.95927],[121.31423,0.96328],[121.31374,0.96527],[121.31499,0.96847],[121.31527,0.97164],[121.31254,0.97368],[121.31175,0.97348],[121.30996,0.97388],[121.30904,0.97605],[121.30815,0.97605],[121.30753,0.97649],[121.30622,0.97592],[121.30482,0.9768],[121.30402,0.97685],[121.30308,0.97805],[121.30304,0.97972],[121.30219,0.9804],[121.30643,0.98271],[121.30761,0.98503],[121.31012,0.98355],[121.31029,0.98283],[121.31104,0.98276],[121.31137,0.98179],[121.31317,0.98163],[121.31434,0.98098],[121.31563,0.98164],[121.31716,0.98365],[121.31749,0.98677],[121.31901,0.98864],[121.31951,0.99104],[121.3207,0.99101],[121.32143,0.99168],[121.32342,0.99095],[121.32502,0.9892],[121.32699,0.98887],[121.32891,0.98719],[121.33082,0.98698],[121.3316,0.99011],[121.33253,0.99169],[121.33311,0.99125],[121.3338,0.98919],[121.33502,0.98887],[121.33583,0.98809],[121.33776,0.98777],[121.33921,0.98559],[121.34043,0.98589],[121.34452,0.9853],[121.34583,0.98172],[121.34741,0.981],[121.3497,0.98096],[121.35415,0.98231],[121.35724,0.98434],[121.35959,0.98516],[121.35972,0.98557],[121.36108,0.98615],[121.36421,0.98676],[121.36553,0.98638],[121.36622,0.98722],[121.36692,0.98999],[121.36896,0.99133],[121.36868,0.99327],[121.36935,0.99483],[121.36806,0.99993],[121.36296,1.01175],[121.35401,1.02696],[121.35556,1.02916],[121.36596,1.03857],[121.38213,1.04397],[121.3942,1.04716],[121.39952,1.04716],[121.42055,1.04442],[121.42317,1.04567],[121.42442,1.04714],[121.42524,1.04888],[121.42629,1.05736],[121.42829,1.06013],[121.42934,1.06326],[121.42979,1.06703],[121.43527,1.07723],[121.43745,1.08673],[121.44189,1.09448],[121.44252,1.09936],[121.44467,1.10792],[121.44658,1.11185],[121.44854,1.11479],[121.45151,1.11219],[121.45425,1.11193],[121.45775,1.11271],[121.46159,1.11071],[121.46433,1.1049],[121.4659,1.09663],[121.46495,1.09088],[121.46269,1.08444],[121.46328,1.0835],[121.47186,1.08004],[121.47967,1.08009],[121.48076,1.07959],[121.48131,1.08001],[121.48564,1.06761],[121.48786,1.04255],[121.48904,1.03794],[121.49071,1.02401],[121.49074,1.01826],[121.48472,1.01238],[121.48441,1.01168],[121.48553,1.00974],[121.48376,1.00845],[121.48336,1.00727],[121.48998,0.97961],[121.4906,0.95305],[121.48586,0.92677],[121.48295,0.86811],[121.48935,0.83983]]]]}},{"type":"Feature","properties":{"NAMOBJ":"Bokat","KODE_KAB":7204},"geometry":{"type":"MultiPolygon","coordinates":[[[[121.56581,1.06078],[121.56772,1.05912],[121.56664,1.05805],[121.56769,1.05678],[121.56771,1.05554],[121.56729,1.05541],[121.56638,1.05601],[121.56575,1.0551],[121.56638,1.05419],[121.5678,1.05353],[121.56787,1.05176],[121.56917,1.0503],[121.56911,1.04993],[121.56807,1.05],[121.56899,1.04875],[121.56846,1.04732],[121.56859,1.04621],[121.56726,1.04439],[121.56687,1.04567],[121.56619,1.04431],[121.56465,1.04466],[121.5638,1.04439],[121.56375,1.04387],[121.56437,1.04331],[121.56324,1.04239],[121.56368,1.04016],[121.56236,1.04039],[121.56239,1.03874],[121.56165,1.03865],[121.56091,1.03916],[121.56007,1.03776],[121.55903,1.03702],[121.55891,1.03629],[121.55961,1.03542],[121.5587,1.03421],[121.55529,1.0347],[121.55476,1.03386],[121.55361,1.03391],[121.55242,1.03245],[121.55348,1.03191],[121.5535,1.03115],[121.55236,1.03154],[121.55115,1.03117],[121.55193,1.03015],[121.55011,1.02968],[121.55084,1.02786],[121.55068,1.02728],[121.54956,1.02851],[121.54854,1.02755],[121.54858,1.02715],[121.54966,1.02646],[121.54935,1.02509],[121.55039,1.02429],[121.55003,1.02381],[121.54931,1.02407],[121.54833,1.02353],[121.54828,1.02286],[121.54884,1.02214],[121.54606,1.02262],[121.547,1.02118],[121.5459,1.02092],[121.54538,1.02134],[121.54512,1.02296],[121.5445,1.02302],[121.5441,1.02224],[121.5437,1.02221],[121.54229,1.02421],[121.54187,1.02396],[121.54225,1.02308],[121.54206,1.02263],[121.5412,1.02253],[121.5395,1.0232],[121.53936,1.02259],[121.5404,1.02047],[121.54186,1.01886],[121.54099,1.01749],[121.53976,1.01676],[121.53917,1.01585],[121.54018,1.01131],[121.53925,1.01018],[121.53822,1.01017],[121.53682,1.01077],[121.53618,1.01018],[121.53655,1.00858],[121.53774,1.00764],[121.53821,1.00666],[121.53409,1.0013],[121.53361,0.99951],[121.53354,0.99697],[121.53278,0.99609],[121.53356,0.99547],[121.53258,0.99425],[121.53267,0.99259],[121.53435,0.99138],[121.53547,0.9912],[121.53476,0.99],[121.53361,0.98905],[121.53153,0.9898],[121.53058,0.989],[121.52962,0.98978],[121.52854,0.98955],[121.5283,0.98904],[121.52911,0.98885],[121.52936,0.98774],[121.52921,0.98701],[121.52797,0.98598],[121.52924,0.98435],[121.52704,0.98358],[121.52649,0.98245],[121.52722,0.97973],[121.52785,0.97886],[121.52926,0.97877],[121.53136,0.97974],[121.53322,0.97966],[121.53619,0.9768],[121.54195,0.97558],[121.54212,0.97508],[121.54125,0.9727],[121.54135,0.97118],[121.54409,0.96842],[121.54761,0.96767],[121.54987,0.96345],[121.54965,0.96178],[121.548,0.96078],[121.54932,0.95759],[121.54886,0.95664],[121.54816,0.95642],[121.54795,0.95817],[121.5475,0.9585],[121.54658,0.95676],[121.54451,0.95724],[121.54343,0.95617],[121.5412,0.95616],[121.53948,0.95509],[121.53903,0.954],[121.53942,0.95309],[121.54209,0.95487],[121.54304,0.95487],[121.54406,0.95416],[121.54391,0.95356],[121.54203,0.95201],[121.54146,0.95101],[121.54296,0.94739],[121.54392,0.94699],[121.54323,0.94662],[121.54296,0.94595],[121.54385,0.94442],[121.54345,0.94411],[121.54112,0.94404],[121.54063,0.94117],[121.53637,0.93907],[121.53465,0.93755],[121.53417,0.9363],[121.53343,0.93636],[121.53194,0.93499],[121.53039,0.93255],[121.52814,0.93127],[121.52779,0.93004],[121.5284,0.92891],[121.52843,0.92757],[121.52746,0.92371],[121.52918,0.9236],[121.52905,0.92233],[121.53108,0.91935],[121.53171,0.91907],[121.53341,0.91927],[121.53419,0.91666],[121.53481,0.91572],[121.53647,0.91481],[121.53637,0.91383],[121.53724,0.91259],[121.5387,0.91159],[121.54021,0.91163],[121.54102,0.91039],[121.54184,0.91012],[121.54265,0.90698],[121.54434,0.90478],[121.54518,0.90169],[121.54793,0.90135],[121.549,0.89988],[121.55034,0.89973],[121.55335,0.89852],[121.55677,0.89663],[121.56048,0.8966],[121.56049,0.89545],[121.5561,0.89217],[121.55311,0.88738],[121.55061,0.88562],[121.54923,0.88354],[121.54907,0.88103],[121.54563,0.88023],[121.54468,0.87958],[121.54203,0.87939],[121.53969,0.87716],[121.53941,0.87642],[121.53787,0.87643],[121.53558,0.87447],[121.53658,0.87295],[121.53492,0.87023],[121.53461,0.8683],[121.53561,0.86024],[121.53303,0.85371],[121.53214,0.85262],[121.53069,0.85214],[121.52545,0.85216],[121.52332,0.85127],[121.5212,0.85121],[121.51857,0.84992],[121.51703,0.84999],[121.51554,0.84954],[121.51396,0.84834],[121.51073,0.84839],[121.50614,0.84641],[121.50436,0.8464],[121.50257,0.84752],[121.50138,0.84606],[121.50019,0.84338],[121.49809,0.84254],[121.49424,0.83964],[121.49277,0.83951],[121.49124,0.84022],[121.48935,0.83983],[121.48295,0.86811],[121.48586,0.92677],[121.4906,0.95305],[121.48998,0.97961],[121.48336,1.00727],[121.48376,1.00845],[121.48553,1.00974],[121.48441,1.01168],[121.48472,1.01238],[121.49074,1.01826],[121.49071,1.02401],[121.48904,1.03794],[121.48786,1.04255],[121.48564,1.06761],[121.48131,1.08001],[121.48076,1.07959],[121.47967,1.08009],[121.47186,1.08004],[121.46328,1.0835],[121.46269,1.08444],[121.46495,1.09088],[121.4659,1.09663],[121.46433,1.1049],[121.46159,1.11071],[121.45775,1.11271],[121.45425,1.11193],[121.45151,1.11219],[121.44697,1.11629],[121.45277,1.1232],[121.4579,1.12719],[121.46169,1.12954],[121.46207,1.13088],[121.48031,1.11405],[121.48206,1.11178],[121.48269,1.10967],[121.48253,1.10905],[121.48328,1.10866],[121.48605,1.10881],[121.48654,1.1085],[121.49843,1.09547],[121.50544,1.08986],[121.51093,1.08657],[121.51414,1.08647],[121.5165,1.08567],[121.51912,1.08409],[121.52145,1.08422],[121.52382,1.08313],[121.52589,1.08284],[121.52765,1.08108],[121.52905,1.08063],[121.53132,1.07861],[121.53943,1.07293],[121.54555,1.06919],[121.55025,1.06519],[121.55284,1.06358],[121.55762,1.06187],[121.55915,1.06164],[121.56114,1.06229],[121.56327,1.0614],[121.56528,1.06138],[121.56581,1.06078]]]]}},{"type":"Feature","properties":{"NAMOBJ":"Tiloan","KODE_KAB":7204},"geometry":{"type":"MultiPolygon","coordinates":[[[[121.35393,1.0268],[121.36296,1.01175],[121.36806,0.99993],[121.36935,0.99483],[121.36868,0.99327],[121.36896,0.99133],[121.36692,0.98999],[121.36622,0.98722],[121.36553,0.98638],[121.36421,0.98676],[121.36108,0.98615],[121.35972,0.98557],[121.35959,0.98516],[121.35724,0.98434],[121.35415,0.98231],[121.3497,0.98096],[121.34741,0.981],[121.34583,0.98172],[121.34452,0.9853],[121.34043,0.98589],[121.33921,0.98559],[121.33776,0.98777],[121.33583,0.98809],[121.33502,0.98887],[121.3338,0.98919],[121.33311,0.99125],[121.33253,0.99169],[121.3316,0.99011],[121.33082,0.98698],[121.32891,0.98719],[121.32699,0.98887],[121.32502,0.9892],[121.32342,0.99095],[121.32143,0.99168],[121.3207,0.99101],[121.31951,0.99104],[121.31901,0.98864],[121.31749,0.98677],[121.31716,0.98365],[121.31563,0.98164],[121.31434,0.98098],[121.31317,0.98163],[121.31137,0.98179],[121.31104,0.98276],[121.31029,0.98283],[121.31012,0.98355],[121.30761,0.98503],[121.30643,0.98271],[121.30219,0.9804],[121.30304,0.97972],[121.30308,0.97805],[121.30402,0.97685],[121.30482,0.9768],[121.30622,0.97592],[121.30753,0.97649],[121.30815,0.97605],[121.30904,0.97605],[121.30996,0.97388],[121.31175,0.97348],[121.31254,0.97368],[121.31527,0.97164],[121.31499,0.96847],[121.31374,0.96527],[121.31423,0.96328],[121.31323,0.95927],[121.31029,0.95953],[121.30666,0.95902],[121.30525,0.95685],[121.30251,0.95552],[121.30234,0.95332],[121.30161,0.95101],[121.30272,0.94908],[121.30119,0.94631],[121.30217,0.94106],[121.30038,0.93847],[121.29917,0.93579],[121.29729,0.93412],[121.29685,0.93157],[121.2971,0.92895],[121.2954,0.92434],[121.29723,0.92153],[121.29971,0.9212],[121.30074,0.91992],[121.30227,0.9193],[121.30275,0.91729],[121.30098,0.91506],[121.29975,0.91435],[121.29926,0.91228],[121.29785,0.91103],[121.29783,0.90901],[121.29645,0.90766],[121.29604,0.90608],[121.294,0.90512],[121.29339,0.90249],[121.29419,0.89982],[121.29392,0.89892],[121.29164,0.89737],[121.28993,0.89506],[121.28761,0.8945],[121.28416,0.8917],[121.28334,0.89142],[121.28265,0.88948],[121.28268,0.88731],[121.28411,0.88573],[121.28491,0.88363],[121.28479,0.88022],[121.28384,0.8768],[121.28522,0.87673],[121.28922,0.87437],[121.29355,0.87043],[121.29336,0.86971],[121.29405,0.86662],[121.29355,0.86447],[121.29123,0.86275],[121.29001,0.86102],[121.28697,0.85853],[121.28455,0.85879],[121.28491,0.85474],[121.28564,0.85193],[121.28726,0.85101],[121.28893,0.84677],[121.28831,0.84155],[121.29078,0.83876],[121.29091,0.83596],[121.28882,0.83406],[121.28689,0.83077],[121.28574,0.82957],[121.28344,0.82793],[121.28142,0.82758],[121.27921,0.82638],[121.2776,0.82086],[121.27576,0.81706],[121.2738,0.8141],[121.27294,0.81173],[121.27292,0.80964],[121.27458,0.80742],[121.27369,0.80369],[121.26929,0.79814],[121.26548,0.79735],[121.26211,0.79739],[121.25581,0.79929],[121.25491,0.79931],[121.25384,0.79858],[121.25208,0.79849],[121.25137,0.79924],[121.25144,0.8],[121.25029,0.80016],[121.24952,0.80088],[121.2484,0.80077],[121.24577,0.80153],[121.24449,0.80131],[121.24282,0.80166],[121.24214,0.80111],[121.24136,0.80107],[121.23712,0.80153],[121.23445,0.79778],[121.233,0.79683],[121.23129,0.79657],[121.2203,0.79284],[121.21545,0.79184],[121.21527,0.79147],[121.2169,0.78794],[121.21721,0.78374],[121.21697,0.78295],[121.21368,0.77956],[121.21357,0.77335],[121.21082,0.77114],[121.20962,0.76893],[121.20831,0.76769],[121.20413,0.76722],[121.20326,0.76759],[121.20109,0.76616],[121.19704,0.76592],[121.19508,0.76618],[121.19388,0.76741],[121.19204,0.76749],[121.19042,0.76194],[121.18781,0.75909],[121.18722,0.75905],[121.18643,0.75725],[121.18637,0.7539],[121.18565,0.75],[121.18443,0.74697],[121.18198,0.74511],[121.18198,0.7432],[121.18292,0.73912],[121.18391,0.73694],[121.18265,0.73486],[121.18266,0.73353],[121.18481,0.73144],[121.18713,0.72535],[121.18742,0.72212],[121.18496,0.71851],[121.18194,0.71632],[121.18057,0.71375],[121.17881,0.70548],[121.17886,0.70125],[121.17687,0.6984],[121.17449,0.69375],[121.17342,0.68633],[121.17156,0.68355],[121.17034,0.68326],[121.16582,0.68067],[121.16213,0.67939],[121.16125,0.67865],[121.15834,0.67915],[121.15399,0.68329],[121.153,0.684],[121.1504,0.68486],[121.14155,0.68424],[121.13784,0.68489],[121.13361,0.684],[121.13083,0.68509],[121.12846,0.6849],[121.1271,0.68537],[121.12507,0.68806],[121.12261,0.69005],[121.11599,0.69181],[121.11348,0.69195],[121.11051,0.69333],[121.1089,0.69542],[121.1088,0.69827],[121.10701,0.69865],[121.10422,0.69832],[121.09963,0.70098],[121.09874,0.70202],[121.09784,0.70217],[121.09562,0.70145],[121.09123,0.70206],[121.08607,0.70121],[121.08247,0.70014],[121.08066,0.70042],[121.07896,0.70137],[121.07584,0.70151],[121.07305,0.70346],[121.06695,0.70427],[121.06412,0.70517],[121.06205,0.70516],[121.06129,0.70464],[121.05898,0.69817],[121.05496,0.69398],[121.04394,0.69843],[121.03992,0.69902],[121.03877,0.70016],[121.03406,0.70223],[121.03312,0.70422],[121.03115,0.70615],[121.02713,0.70648],[121.02617,0.70591],[121.02515,0.706],[121.02359,0.70681],[121.02208,0.70686],[121.01508,0.71137],[121.01424,0.71136],[121.01136,0.7097],[121.00839,0.70608],[121.00692,0.70471],[121.00527,0.7039],[120.99992,0.7025],[120.99773,0.70127],[120.99234,0.7006],[120.98722,0.69944],[120.97886,0.69688],[120.97729,0.69602],[120.97574,0.69334],[120.97507,0.69292],[120.9675,0.69377],[120.96241,0.69596],[120.96072,0.69608],[120.93971,0.68961],[120.93741,0.68986],[120.93451,0.69152],[120.93263,0.69176],[120.927,0.69364],[120.92349,0.69443],[120.91362,0.69559],[120.91131,0.69699],[120.90338,0.69893],[120.89896,0.701],[120.89702,0.70137],[120.88878,0.70569],[120.88707,0.70568],[120.88255,0.70458],[120.88097,0.71171],[120.87755,0.71742],[120.87626,0.72157],[120.87384,0.72542],[120.87327,0.72799],[120.87384,0.73056],[120.87769,0.73741],[120.87695,0.74026],[120.88404,0.75],[120.88916,0.76266],[120.89339,0.77675],[120.89469,0.77993],[120.89566,0.78129],[120.89541,0.78346],[120.89615,0.7852],[120.89642,0.78806],[120.89993,0.79095],[120.90435,0.79302],[120.90714,0.79321],[120.90905,0.79284],[120.91787,0.79492],[120.91922,0.79733],[120.92019,0.80356],[120.9238,0.8057],[120.92642,0.80664],[120.92652,0.8089],[120.9299,0.81144],[120.9302,0.8122],[120.92967,0.81334],[120.93245,0.81778],[120.93623,0.81944],[120.93671,0.82131],[120.93647,0.82398],[120.93529,0.82616],[120.9361,0.82629],[120.93703,0.82545],[120.93923,0.82527],[120.9424,0.82694],[120.94546,0.82713],[120.94863,0.82573],[120.95321,0.82672],[120.95493,0.82773],[120.95758,0.83037],[120.96093,0.83187],[120.96558,0.83549],[120.96686,0.83544],[120.96831,0.83609],[120.97005,0.83627],[120.97234,0.83577],[120.97305,0.83636],[120.97571,0.83657],[120.9766,0.83769],[120.98034,0.84062],[120.98333,0.84048],[120.98455,0.83996],[120.98469,0.83939],[120.98527,0.83941],[120.9864,0.84059],[120.98647,0.84171],[120.98974,0.84216],[120.99215,0.84086],[120.99394,0.84219],[120.99504,0.84494],[120.99513,0.84647],[120.99673,0.84729],[120.99705,0.84887],[120.99773,0.84938],[120.99862,0.85203],[121.00083,0.85403],[121.00117,0.85618],[121.0025,0.85924],[121.00366,0.85971],[121.00704,0.85834],[121.00837,0.86047],[121.00854,0.86153],[121.00803,0.86497],[121.00824,0.86598],[121.00946,0.86724],[121.00963,0.86841],[121.01039,0.86898],[121.01042,0.87066],[121.00969,0.87208],[121.00844,0.87793],[121.00427,0.87946],[121.00388,0.8807],[121.00479,0.8809],[121.00425,0.88233],[121.00533,0.88351],[121.00552,0.88461],[121.00806,0.88503],[121.00924,0.88641],[121.00953,0.88739],[121.00955,0.88852],[121.00825,0.88867],[121.00671,0.89013],[121.0067,0.89143],[121.00802,0.8933],[121.00718,0.89404],[121.00813,0.89885],[121.00881,0.89956],[121.00861,0.90135],[121.00938,0.90775],[121.00961,0.9091],[121.01054,0.91012],[121.01047,0.91288],[121.01154,0.91563],[121.01147,0.92072],[121.01404,0.93609],[121.0174,0.9532],[121.01785,0.95411],[121.01846,0.95923],[121.02016,0.96154],[121.02,0.9656],[121.02093,0.96645],[121.02053,0.96799],[121.02234,0.97131],[121.02155,0.97314],[121.02192,0.97528],[121.02129,0.97678],[121.0241,0.98207],[121.02203,0.98639],[121.02272,0.99076],[121.02321,0.9922],[121.0255,0.9955],[121.02892,0.99781],[121.02934,1],[121.02777,1.00545],[121.02783,1.00836],[121.02584,1.01386],[121.02411,1.01464],[121.02066,1.01374],[121.01794,1.01385],[121.01715,1.01424],[121.01519,1.01741],[121.01549,1.01988],[121.0149,1.02299],[121.01181,1.02605],[121.01005,1.0298],[121.01172,1.03008],[121.01226,1.02952],[121.01319,1.02944],[121.01362,1.0286],[121.01475,1.02861],[121.01523,1.02783],[121.01618,1.02776],[121.01702,1.02832],[121.01816,1.0273],[121.01873,1.02737],[121.01842,1.02906],[121.0186,1.03147],[121.02199,1.03344],[121.02382,1.03583],[121.02732,1.03672],[121.02922,1.03651],[121.03183,1.03931],[121.03366,1.03976],[121.03465,1.04056],[121.0357,1.04297],[121.03704,1.04433],[121.04143,1.04563],[121.04324,1.04671],[121.04336,1.04758],[121.04258,1.04992],[121.04428,1.05353],[121.04355,1.05804],[121.04382,1.0595],[121.04567,1.06022],[121.04704,1.06163],[121.04805,1.06398],[121.04989,1.06657],[121.05143,1.06732],[121.05301,1.06734],[121.05439,1.06996],[121.05684,1.07245],[121.0582,1.07516],[121.06184,1.07665],[121.06933,1.08063],[121.07219,1.08025],[121.07605,1.08051],[121.0778,1.08171],[121.0796,1.08443],[121.08214,1.08607],[121.08454,1.086],[121.08872,1.08703],[121.09103,1.08667],[121.09241,1.08596],[121.09348,1.08681],[121.09421,1.0884],[121.09684,1.09132],[121.09764,1.09316],[121.09829,1.09707],[121.10209,1.09584],[121.1026,1.09498],[121.10355,1.09544],[121.10529,1.09377],[121.1066,1.09333],[121.10744,1.09101],[121.11035,1.08891],[121.11216,1.09149],[121.11303,1.09154],[121.11433,1.09235],[121.11577,1.0912],[121.11795,1.09165],[121.11982,1.09247],[121.12068,1.09342],[121.12269,1.09402],[121.12405,1.09278],[121.12682,1.09218],[121.12841,1.09408],[121.1293,1.09406],[121.12983,1.0927],[121.13094,1.09202],[121.13396,1.09147],[121.13582,1.09067],[121.13683,1.09071],[121.13829,1.08971],[121.14211,1.09071],[121.14315,1.09142],[121.14439,1.09134],[121.14747,1.09237],[121.14892,1.09123],[121.1514,1.0922],[121.15316,1.09179],[121.1546,1.09213],[121.15665,1.09106],[121.15967,1.09145],[121.16076,1.09255],[121.16182,1.09497],[121.16494,1.09494],[121.16605,1.0954],[121.16463,1.09723],[121.16477,1.09831],[121.16549,1.09925],[121.16572,1.1024],[121.16893,1.10303],[121.17256,1.10493],[121.1814,1.10743],[121.18589,1.11],[121.18723,1.11004],[121.18797,1.10955],[121.19316,1.11419],[121.19625,1.1161],[121.19865,1.11696],[121.20256,1.11646],[121.20495,1.11715],[121.20838,1.11526],[121.20945,1.11541],[121.21038,1.11488],[121.21137,1.11543],[121.21329,1.11568],[121.21562,1.11529],[121.2167,1.11596],[121.21799,1.11614],[121.21915,1.11466],[121.22048,1.11379],[121.22426,1.1143],[121.22542,1.11601],[121.23066,1.11752],[121.23312,1.11748],[121.2337,1.11842],[121.23436,1.12125],[121.23678,1.12392],[121.23805,1.12608],[121.23942,1.1267],[121.24212,1.12629],[121.24255,1.12805],[121.24474,1.1285],[121.24576,1.12926],[121.24797,1.13316],[121.24906,1.13339],[121.2527,1.1327],[121.25377,1.13499],[121.25567,1.13419],[121.25668,1.13426],[121.25773,1.13307],[121.2588,1.1326],[121.26188,1.13292],[121.26598,1.13249],[121.26963,1.13409],[121.27158,1.13326],[121.27313,1.13336],[121.27491,1.13441],[121.27704,1.13677],[121.28078,1.13911],[121.28276,1.14152],[121.28473,1.1428],[121.31793,1.09909],[121.31953,1.09302],[121.31934,1.09143],[121.32067,1.09078],[121.323,1.09062],[121.32798,1.0778],[121.33303,1.06859],[121.33363,1.06882],[121.33438,1.06831],[121.335,1.06544],[121.33603,1.0651],[121.33672,1.06562],[121.33651,1.07016],[121.33697,1.07074],[121.33821,1.07014],[121.33932,1.06754],[121.34043,1.06715],[121.34109,1.06743],[121.33787,1.05337],[121.33797,1.05192],[121.34158,1.04951],[121.34179,1.04901],[121.34348,1.03441],[121.34824,1.03245],[121.3524,1.02919],[121.35393,1.0268]]]]}},{"type":"Feature","properties":{"NAMOBJ":"Momunu","KODE_KAB":7204},"geometry":{"type":"MultiPolygon","coordinates":[[[[121.44697,1.11629],[121.44853,1.11451],[121.44658,1.11185],[121.44467,1.10792],[121.44252,1.09936],[121.44189,1.09448],[121.43745,1.08673],[121.43527,1.07723],[121.42979,1.06703],[121.42934,1.06326],[121.42829,1.06013],[121.42629,1.05736],[121.42524,1.04888],[121.42442,1.04714],[121.42317,1.04567],[121.42055,1.04442],[121.39952,1.04716],[121.3942,1.04716],[121.38213,1.04397],[121.36596,1.03857],[121.35556,1.02916],[121.35393,1.0268],[121.3524,1.02919],[121.34824,1.03245],[121.34348,1.03441],[121.34179,1.04901],[121.34158,1.04951],[121.33797,1.05192],[121.33787,1.05337],[121.34109,1.06743],[121.34043,1.06715],[121.33932,1.06754],[121.33821,1.07014],[121.33697,1.07074],[121.33651,1.07016],[121.33672,1.06562],[121.33603,1.0651],[121.335,1.06544],[121.33438,1.06831],[121.33363,1.06882],[121.33303,1.06859],[121.32798,1.0778],[121.323,1.09062],[121.32067,1.09078],[121.31934,1.09143],[121.31953,1.09302],[121.31793,1.09909],[121.28473,1.1428],[121.28842,1.14426],[121.28838,1.14539],[121.28892,1.1459],[121.29028,1.14622],[121.29101,1.14591],[121.29232,1.14678],[121.29634,1.15308],[121.29687,1.15366],[121.29805,1.15403],[121.29857,1.15607],[121.30263,1.16367],[121.30626,1.16489],[121.30725,1.16564],[121.30804,1.16991],[121.30683,1.17149],[121.31006,1.17202],[121.31483,1.16963],[121.32017,1.1689],[121.32322,1.16932],[121.32795,1.17167],[121.33439,1.17258],[121.34167,1.17062],[121.34938,1.17024],[121.35343,1.16952],[121.35667,1.16993],[121.3595,1.17094],[121.36188,1.17049],[121.36359,1.17064],[121.36493,1.17234],[121.36627,1.17288],[121.37004,1.17701],[121.37112,1.17682],[121.37205,1.17539],[121.37288,1.17137],[121.37368,1.17026],[121.3759,1.16978],[121.37703,1.17164],[121.37756,1.17122],[121.3779,1.16992],[121.37936,1.17012],[121.3809,1.16952],[121.37958,1.16864],[121.37826,1.16831],[121.37763,1.16761],[121.37732,1.16654],[121.3778,1.16616],[121.37963,1.16642],[121.37858,1.16504],[121.37769,1.16487],[121.37631,1.16541],[121.37591,1.16518],[121.3769,1.16342],[121.37881,1.16241],[121.37998,1.16091],[121.38097,1.15844],[121.38106,1.15657],[121.38179,1.15508],[121.3843,1.15398],[121.3871,1.15206],[121.38879,1.15231],[121.39428,1.14951],[121.39465,1.14751],[121.39374,1.14626],[121.39232,1.14552],[121.39248,1.14329],[121.39422,1.14544],[121.39663,1.14569],[121.39741,1.14537],[121.39881,1.14623],[121.40114,1.14677],[121.40349,1.14627],[121.40443,1.14695],[121.40571,1.14694],[121.40811,1.14573],[121.40786,1.14854],[121.40998,1.14883],[121.40997,1.14745],[121.4131,1.14743],[121.41281,1.14888],[121.41709,1.14786],[121.41751,1.14982],[121.42195,1.1464],[121.42219,1.14745],[121.42391,1.14805],[121.42482,1.1496],[121.42538,1.14924],[121.42651,1.14929],[121.42696,1.14819],[121.42915,1.14753],[121.42966,1.14674],[121.42939,1.14586],[121.42577,1.14467],[121.42503,1.14319],[121.42574,1.14188],[121.42716,1.14049],[121.42732,1.13936],[121.42854,1.13891],[121.4288,1.13806],[121.42842,1.13609],[121.42909,1.13542],[121.42882,1.13504],[121.42901,1.1339],[121.42998,1.13297],[121.43592,1.13001],[121.43914,1.12572],[121.44121,1.12162],[121.44697,1.11629]]]]}},{"type":"Feature","properties":{"NAMOBJ":"Biau","KODE_KAB":7204},"geometry":{"type":"MultiPolygon","coordinates":[[[[121.46139,1.25244],[121.46124,1.2513],[121.45954,1.25057],[121.45929,1.25114],[121.45733,1.25064],[121.4568,1.25106],[121.45494,1.25056],[121.45388,1.25089],[121.45211,1.24942],[121.45112,1.24958],[121.45014,1.24839],[121.44871,1.24781],[121.44752,1.24758],[121.44614,1.24838],[121.44557,1.24833],[121.44135,1.24648],[121.43865,1.24442],[121.43453,1.24359],[121.43328,1.2428],[121.43248,1.24284],[121.43098,1.24376],[121.4279,1.24421],[121.42398,1.24347],[121.42331,1.24381],[121.42307,1.2446],[121.42221,1.24472],[121.42172,1.24545],[121.42135,1.24488],[121.42029,1.24488],[121.42001,1.24435],[121.4191,1.24398],[121.41844,1.24471],[121.41879,1.24397],[121.41829,1.24241],[121.41685,1.24188],[121.41666,1.24127],[121.41571,1.24057],[121.41569,1.23894],[121.41466,1.23836],[121.41483,1.23767],[121.41433,1.23781],[121.41398,1.23743],[121.41387,1.2365],[121.4142,1.23619],[121.41288,1.23532],[121.4123,1.23248],[121.41233,1.23131],[121.41289,1.2315],[121.41318,1.23093],[121.41398,1.23249],[121.41561,1.23327],[121.41727,1.23297],[121.41863,1.23178],[121.42,1.23269],[121.42121,1.23257],[121.42207,1.23121],[121.42242,1.23177],[121.42366,1.23161],[121.42462,1.23228],[121.42682,1.23114],[121.42613,1.22929],[121.42843,1.22871],[121.42915,1.229],[121.43137,1.22827],[121.43203,1.22773],[121.43262,1.22622],[121.43353,1.22597],[121.4331,1.22427],[121.43419,1.22342],[121.4334,1.22217],[121.43422,1.22147],[121.43428,1.22085],[121.43374,1.21927],[121.43324,1.2191],[121.43295,1.2164],[121.43404,1.2152],[121.43365,1.21467],[121.43448,1.21301],[121.43393,1.21241],[121.43354,1.21021],[121.43431,1.2093],[121.43317,1.20913],[121.43313,1.20791],[121.43159,1.20658],[121.43044,1.20431],[121.42978,1.20218],[121.43058,1.20129],[121.43025,1.19977],[121.42897,1.19631],[121.42822,1.19563],[121.42782,1.19452],[121.42701,1.19559],[121.42521,1.19516],[121.42487,1.19597],[121.42431,1.19612],[121.4209,1.19348],[121.42122,1.19205],[121.42022,1.1917],[121.41964,1.19051],[121.41949,1.18912],[121.41995,1.18664],[121.41963,1.18571],[121.42061,1.18473],[121.42839,1.16954],[121.43106,1.16508],[121.43354,1.16218],[121.44084,1.15754],[121.44655,1.1521],[121.44798,1.15016],[121.44985,1.14473],[121.45263,1.14019],[121.46207,1.13088],[121.46169,1.12954],[121.4579,1.12719],[121.45277,1.1232],[121.44697,1.11629],[121.44121,1.12162],[121.43914,1.12572],[121.43592,1.13001],[121.42998,1.13297],[121.42901,1.1339],[121.42882,1.13504],[121.42909,1.13542],[121.42842,1.13609],[121.4288,1.13806],[121.42854,1.13891],[121.42732,1.13936],[121.42716,1.14049],[121.42574,1.14188],[121.42503,1.14319],[121.42577,1.14467],[121.42915,1.14566],[121.42966,1.14674],[121.42899,1.14763],[121.42696,1.14819],[121.42651,1.14929],[121.42476,1.14959],[121.42391,1.14805],[121.42219,1.14745],[121.42198,1.1464],[121.41751,1.14982],[121.41704,1.14785],[121.41281,1.14888],[121.4131,1.14743],[121.40997,1.14745],[121.40998,1.14883],[121.40786,1.14854],[121.40811,1.14573],[121.40571,1.14694],[121.40443,1.14695],[121.40349,1.14627],[121.40114,1.14677],[121.39881,1.14623],[121.39741,1.14537],[121.39663,1.14569],[121.39422,1.14544],[121.39248,1.14329],[121.39232,1.14552],[121.39374,1.14626],[121.39465,1.14751],[121.39428,1.14951],[121.38879,1.15231],[121.3871,1.15206],[121.3843,1.15398],[121.38179,1.15508],[121.38106,1.15657],[121.38097,1.15844],[121.37998,1.16091],[121.37881,1.16241],[121.3769,1.16342],[121.37591,1.16518],[121.37631,1.16541],[121.37769,1.16487],[121.37858,1.16504],[121.37963,1.16642],[121.3778,1.16616],[121.37732,1.16654],[121.37763,1.16761],[121.37826,1.16831],[121.37958,1.16864],[121.3809,1.16952],[121.37936,1.17012],[121.3779,1.16992],[121.37756,1.17122],[121.37703,1.17164],[121.3759,1.16978],[121.37368,1.17026],[121.37288,1.17137],[121.37205,1.17539],[121.37112,1.17682],[121.37004,1.17701],[121.36627,1.17288],[121.36493,1.17234],[121.36393,1.17089],[121.36299,1.17051],[121.3595,1.17094],[121.35667,1.16993],[121.35343,1.16952],[121.34938,1.17024],[121.34167,1.17062],[121.33407,1.17255],[121.33685,1.18294],[121.33987,1.19131],[121.3453,1.19806],[121.34946,1.20721],[121.35144,1.20817],[121.361,1.21592],[121.36942,1.22731],[121.37268,1.23041],[121.37593,1.23524],[121.37951,1.23481],[121.37974,1.23406],[121.381,1.23429],[121.38167,1.23327],[121.38243,1.233],[121.3844,1.23551],[121.38657,1.23718],[121.38842,1.23777],[121.39354,1.23671],[121.39596,1.23833],[121.4037,1.23868],[121.40492,1.2405],[121.4068,1.24159],[121.40782,1.24289],[121.41151,1.24458],[121.41353,1.2465],[121.41469,1.24703],[121.41451,1.24793],[121.41579,1.25011],[121.41867,1.25082],[121.41939,1.25289],[121.42018,1.25394],[121.42296,1.25451],[121.42568,1.25565],[121.43101,1.25655],[121.43088,1.25773],[121.43223,1.2586],[121.43306,1.25734],[121.43442,1.25735],[121.43498,1.25842],[121.43811,1.25946],[121.43907,1.25998],[121.43948,1.26073],[121.44096,1.26045],[121.44312,1.26086],[121.4442,1.26245],[121.44638,1.26196],[121.44748,1.26243],[121.44862,1.26381],[121.44964,1.26363],[121.4533,1.26062],[121.46139,1.25244]]]]}},{"type":"Feature","properties":{"NAMOBJ":"Lakea","KODE_KAB":7204},"geometry":{"type":"MultiPolygon","coordinates":[[[[121.31064,1.25582],[121.31267,1.25239],[121.31295,1.25128],[121.31172,1.24891],[121.31258,1.24598],[121.31272,1.24279],[121.30989,1.23909],[121.30954,1.23756],[121.30983,1.23621],[121.31211,1.235],[121.31269,1.23345],[121.31287,1.23026],[121.31175,1.22947],[121.31212,1.22721],[121.31317,1.22442],[121.31036,1.22269],[121.31133,1.21834],[121.3099,1.216],[121.31024,1.21168],[121.31181,1.20988],[121.31211,1.2087],[121.30853,1.20575],[121.30788,1.20467],[121.30814,1.20384],[121.30767,1.20326],[121.30531,1.20345],[121.30486,1.20239],[121.30506,1.19994],[121.3046,1.19871],[121.30366,1.19766],[121.30082,1.19604],[121.30076,1.19316],[121.30234,1.19332],[121.30306,1.19186],[121.30236,1.18921],[121.30079,1.18676],[121.30201,1.18613],[121.30424,1.18638],[121.30635,1.18604],[121.30795,1.18653],[121.30926,1.18597],[121.31009,1.18645],[121.31176,1.18401],[121.31263,1.18357],[121.31438,1.18148],[121.31321,1.18066],[121.31236,1.17893],[121.31142,1.17848],[121.3101,1.17494],[121.30815,1.17379],[121.30695,1.17256],[121.30683,1.17149],[121.30804,1.16991],[121.30725,1.16564],[121.30626,1.16489],[121.30263,1.16367],[121.29857,1.15607],[121.29805,1.15403],[121.29656,1.15337],[121.29191,1.14638],[121.29101,1.14591],[121.28961,1.14617],[121.28859,1.14568],[121.28842,1.14426],[121.28543,1.14322],[121.28308,1.14181],[121.28078,1.13911],[121.27704,1.13677],[121.27491,1.13441],[121.27313,1.13336],[121.27158,1.13326],[121.26963,1.13409],[121.26598,1.13249],[121.26188,1.13292],[121.2588,1.1326],[121.25773,1.13307],[121.25668,1.13426],[121.25567,1.13419],[121.25377,1.13499],[121.2527,1.1327],[121.24906,1.13339],[121.24797,1.13316],[121.24576,1.12926],[121.24474,1.1285],[121.24255,1.12805],[121.24212,1.12629],[121.23942,1.1267],[121.23805,1.12608],[121.23678,1.12392],[121.23436,1.12125],[121.2337,1.11842],[121.23312,1.11748],[121.23066,1.11752],[121.22542,1.11601],[121.22426,1.1143],[121.22048,1.11379],[121.21915,1.11466],[121.21799,1.11614],[121.2167,1.11596],[121.21562,1.11529],[121.21329,1.11568],[121.21137,1.11543],[121.21038,1.11488],[121.20945,1.11541],[121.20838,1.11526],[121.20495,1.11715],[121.20256,1.11646],[121.19865,1.11696],[121.19625,1.1161],[121.19316,1.11419],[121.18797,1.10955],[121.18723,1.11004],[121.18589,1.11],[121.1814,1.10743],[121.17256,1.10493],[121.16893,1.10303],[121.16572,1.1024],[121.16549,1.09925],[121.16477,1.09831],[121.16463,1.09723],[121.16605,1.0954],[121.16494,1.09494],[121.16182,1.09497],[121.16076,1.09255],[121.15967,1.09145],[121.15665,1.09106],[121.1546,1.09213],[121.15316,1.09179],[121.1514,1.0922],[121.14892,1.09123],[121.14747,1.09237],[121.14439,1.09134],[121.14315,1.09142],[121.14211,1.09071],[121.13829,1.08971],[121.13683,1.09071],[121.13582,1.09067],[121.13396,1.09147],[121.13094,1.09202],[121.12983,1.0927],[121.1293,1.09406],[121.12841,1.09408],[121.12682,1.09218],[121.12405,1.09278],[121.12269,1.09402],[121.12068,1.09342],[121.11982,1.09247],[121.11795,1.09165],[121.11577,1.0912],[121.11433,1.09235],[121.11303,1.09154],[121.11216,1.09149],[121.11035,1.08891],[121.10744,1.09101],[121.1066,1.09333],[121.10529,1.09377],[121.10355,1.09544],[121.1026,1.09498],[121.10209,1.09584],[121.09829,1.09707],[121.0987,1.09949],[121.09701,1.10256],[121.09694,1.10373],[121.09885,1.10611],[121.09895,1.10681],[121.10021,1.10766],[121.10061,1.10851],[121.09993,1.11279],[121.09821,1.11558],[121.09756,1.11996],[121.09682,1.12044],[121.09653,1.12129],[121.09653,1.12416],[121.09331,1.12813],[121.09135,1.12904],[121.09075,1.12971],[121.09052,1.13151],[121.08884,1.13401],[121.08612,1.13535],[121.08418,1.13747],[121.08327,1.1398],[121.08083,1.14384],[121.08044,1.14665],[121.08066,1.14793],[121.08138,1.14874],[121.08127,1.15133],[121.08608,1.15596],[121.08681,1.15849],[121.09065,1.16312],[121.09253,1.16711],[121.09322,1.16765],[121.09243,1.17013],[121.09286,1.17487],[121.09236,1.17626],[121.09315,1.17663],[121.09537,1.17532],[121.09768,1.17598],[121.09832,1.17656],[121.09856,1.17732],[121.09811,1.17957],[121.09935,1.18371],[121.1026,1.18603],[121.1047,1.18656],[121.10836,1.18888],[121.1106,1.18963],[121.11209,1.19093],[121.11443,1.19081],[121.11943,1.19583],[121.12146,1.19667],[121.12285,1.19781],[121.12365,1.20032],[121.12366,1.20169],[121.12615,1.20299],[121.12947,1.20581],[121.1351,1.20461],[121.13671,1.20608],[121.13858,1.20942],[121.1429,1.21485],[121.14311,1.21658],[121.14577,1.21966],[121.14626,1.2221],[121.14771,1.22356],[121.14751,1.22506],[121.14902,1.22751],[121.14852,1.22956],[121.14862,1.23115],[121.15096,1.2333],[121.15171,1.23518],[121.15084,1.23627],[121.15062,1.23788],[121.14817,1.2419],[121.14861,1.24269],[121.15061,1.24263],[121.1528,1.24327],[121.15608,1.24341],[121.15859,1.24537],[121.16353,1.24248],[121.16383,1.2418],[121.16696,1.24157],[121.16838,1.24182],[121.16975,1.24273],[121.1697,1.24394],[121.17074,1.24437],[121.17107,1.24492],[121.17366,1.2452],[121.17456,1.2461],[121.17479,1.2474],[121.17552,1.24788],[121.17575,1.2488],[121.1766,1.24928],[121.17593,1.25134],[121.17642,1.25279],[121.17604,1.25369],[121.1762,1.2559],[121.17728,1.2584],[121.17728,1.25953],[121.17644,1.26124],[121.17693,1.26301],[121.17824,1.26302],[121.17818,1.26412],[121.1796,1.26524],[121.18307,1.26582],[121.19384,1.25714],[121.19527,1.25655],[121.2024,1.2518],[121.20969,1.24804],[121.21223,1.2473],[121.22379,1.24076],[121.23505,1.23591],[121.24086,1.23433],[121.2423,1.23361],[121.24207,1.23312],[121.24297,1.23299],[121.24375,1.23344],[121.25053,1.23108],[121.25514,1.23004],[121.26072,1.23076],[121.26192,1.23139],[121.26198,1.23204],[121.26368,1.23196],[121.26418,1.23227],[121.26867,1.23183],[121.27151,1.23259],[121.27346,1.23439],[121.27366,1.23622],[121.2745,1.23725],[121.27529,1.23997],[121.27624,1.24038],[121.27628,1.24108],[121.27815,1.2405],[121.28015,1.23927],[121.28239,1.23879],[121.28629,1.23891],[121.28913,1.23968],[121.29015,1.23948],[121.29452,1.24247],[121.29459,1.24362],[121.29649,1.24685],[121.2996,1.24925],[121.30037,1.25075],[121.29998,1.25197],[121.30297,1.25211],[121.30492,1.25268],[121.3071,1.25419],[121.3074,1.25551],[121.30925,1.25572],[121.30987,1.25632],[121.31014,1.25568],[121.31064,1.25582]]]]}},{"type":"Feature","properties":{"NAMOBJ":"Karamat","KODE_KAB":7204},"geometry":{"type":"MultiPolygon","coordinates":[[[[121.3651,1.27119],[121.3639,1.26804],[121.3613,1.26936],[121.36165,1.27087],[121.36247,1.27073],[121.36415,1.27228],[121.36546,1.27227],[121.3651,1.27119]]],[[[121.46507,1.28329],[121.46441,1.28398],[121.46502,1.28458],[121.46529,1.28431],[121.46507,1.28329]]],[[[121.44427,1.31281],[121.44495,1.31284],[121.44587,1.31204],[121.44593,1.31143],[121.44711,1.31138],[121.44762,1.3118],[121.44876,1.31131],[121.45139,1.31158],[121.45481,1.31023],[121.46122,1.30846],[121.46132,1.30798],[121.46533,1.30526],[121.46662,1.30325],[121.46745,1.30324],[121.46803,1.30221],[121.46993,1.3015],[121.46897,1.30128],[121.46871,1.29988],[121.46957,1.2976],[121.46821,1.29512],[121.46662,1.29469],[121.466,1.2939],[121.46515,1.28914],[121.4635,1.2879],[121.4629,1.28786],[121.46301,1.286],[121.46261,1.28549],[121.46252,1.2842],[121.46385,1.28214],[121.46726,1.28014],[121.46808,1.27876],[121.46753,1.27707],[121.46869,1.27465],[121.469,1.27283],[121.46962,1.27224],[121.46948,1.2711],[121.47035,1.26695],[121.46981,1.26438],[121.46804,1.26309],[121.4655,1.26231],[121.46406,1.2597],[121.46247,1.25797],[121.4612,1.25549],[121.46172,1.25365],[121.46139,1.25244],[121.4533,1.26062],[121.44964,1.26363],[121.44862,1.26381],[121.44748,1.26243],[121.44638,1.26196],[121.4442,1.26245],[121.44312,1.26086],[121.44096,1.26045],[121.43948,1.26073],[121.43907,1.25998],[121.43811,1.25946],[121.43498,1.25842],[121.43442,1.25735],[121.43306,1.25734],[121.43223,1.2586],[121.43088,1.25773],[121.43101,1.25655],[121.42568,1.25565],[121.42296,1.25451],[121.42018,1.25394],[121.41939,1.25289],[121.41867,1.25082],[121.41579,1.25011],[121.41451,1.24793],[121.41469,1.24703],[121.41353,1.2465],[121.41151,1.24458],[121.40782,1.24289],[121.4068,1.24159],[121.40492,1.2405],[121.4037,1.23868],[121.39596,1.23833],[121.39354,1.23671],[121.38842,1.23777],[121.38657,1.23718],[121.3844,1.23551],[121.38243,1.233],[121.38167,1.23327],[121.381,1.23429],[121.37974,1.23406],[121.37951,1.23481],[121.37593,1.23524],[121.37268,1.23041],[121.36942,1.22731],[121.361,1.21592],[121.35144,1.20817],[121.34946,1.20721],[121.3453,1.19806],[121.33987,1.19131],[121.33685,1.18294],[121.33405,1.17247],[121.32795,1.17167],[121.32322,1.16932],[121.32017,1.1689],[121.31483,1.16963],[121.31006,1.17202],[121.30683,1.17149],[121.30723,1.17302],[121.3101,1.17494],[121.31142,1.17848],[121.31236,1.17893],[121.31321,1.18066],[121.31438,1.18148],[121.31263,1.18357],[121.31176,1.18401],[121.31009,1.18645],[121.30926,1.18597],[121.30795,1.18653],[121.30635,1.18604],[121.30424,1.18638],[121.30201,1.18613],[121.3009,1.18648],[121.30103,1.18731],[121.30236,1.18921],[121.30306,1.19186],[121.30234,1.19332],[121.30076,1.19316],[121.30082,1.19604],[121.30366,1.19766],[121.3046,1.19871],[121.30506,1.19994],[121.30486,1.20239],[121.30531,1.20345],[121.30767,1.20326],[121.30814,1.20384],[121.30788,1.20467],[121.30853,1.20575],[121.31211,1.2087],[121.31181,1.20988],[121.31024,1.21168],[121.3099,1.216],[121.31133,1.21834],[121.31036,1.22269],[121.31317,1.22442],[121.31212,1.22721],[121.31175,1.22947],[121.31287,1.23026],[121.31269,1.23345],[121.31211,1.235],[121.30983,1.23621],[121.30954,1.23756],[121.30989,1.23909],[121.31272,1.24279],[121.31258,1.24598],[121.31172,1.24891],[121.31295,1.25128],[121.31267,1.25239],[121.31064,1.25582],[121.31366,1.25593],[121.31472,1.25652],[121.31553,1.25516],[121.31738,1.254],[121.31979,1.25452],[121.32407,1.25459],[121.32458,1.25489],[121.32443,1.25556],[121.3249,1.25562],[121.32536,1.25469],[121.32633,1.25479],[121.32682,1.25431],[121.32746,1.25432],[121.32812,1.25264],[121.33089,1.25257],[121.33328,1.25342],[121.3359,1.25586],[121.33628,1.25768],[121.33689,1.258],[121.3368,1.25927],[121.33731,1.25966],[121.33677,1.26052],[121.33689,1.26197],[121.33908,1.2619],[121.34101,1.26109],[121.34355,1.2576],[121.34415,1.25633],[121.34385,1.25513],[121.34481,1.25377],[121.3447,1.25232],[121.34548,1.25112],[121.34914,1.25005],[121.35147,1.24888],[121.35551,1.24873],[121.35792,1.24908],[121.36154,1.25048],[121.36909,1.25596],[121.37694,1.25643],[121.37835,1.257],[121.37981,1.25779],[121.3811,1.25965],[121.3837,1.26149],[121.3871,1.26217],[121.388,1.26177],[121.38932,1.26198],[121.39221,1.26096],[121.3938,1.26115],[121.39542,1.2605],[121.39661,1.26053],[121.39708,1.26002],[121.39966,1.25975],[121.39995,1.26079],[121.40219,1.26085],[121.40472,1.26213],[121.40607,1.26448],[121.40709,1.26465],[121.4088,1.26607],[121.40923,1.26523],[121.41053,1.26642],[121.4103,1.26713],[121.411,1.26899],[121.41018,1.27224],[121.41021,1.2727],[121.41074,1.27276],[121.40978,1.27561],[121.41006,1.27676],[121.40952,1.27743],[121.40996,1.27827],[121.41062,1.27861],[121.4111,1.27767],[121.41288,1.27784],[121.41417,1.27903],[121.41528,1.27838],[121.41898,1.28137],[121.42049,1.2816],[121.4228,1.2834],[121.42388,1.28359],[121.42459,1.28324],[121.42457,1.2842],[121.42561,1.28671],[121.42544,1.2875],[121.4259,1.28777],[121.42539,1.2887],[121.42714,1.28835],[121.42942,1.28954],[121.43023,1.28917],[121.43123,1.28937],[121.43177,1.28877],[121.4316,1.29003],[121.43052,1.28952],[121.43017,1.29054],[121.42923,1.29052],[121.42821,1.29188],[121.42959,1.29305],[121.4305,1.29298],[121.43089,1.29481],[121.43046,1.29606],[121.42971,1.29651],[121.42965,1.2976],[121.42862,1.2989],[121.42857,1.30079],[121.43081,1.30235],[121.43138,1.30344],[121.43255,1.30406],[121.43341,1.30407],[121.43373,1.30724],[121.43486,1.30749],[121.43524,1.30814],[121.43509,1.30887],[121.4353,1.30849],[121.43617,1.30846],[121.4367,1.30904],[121.43668,1.30994],[121.43712,1.31007],[121.43757,1.31012],[121.43805,1.3095],[121.43925,1.31005],[121.44316,1.31075],[121.44376,1.31194],[121.44348,1.31335],[121.44427,1.31281]]]]}}]}