{"type":"FeatureCollection","features":[{"type":"Feature","properties":{"NAMOBJ":"Palu Selatan","KODE_KAB":7271},"geometry":{"type":"MultiPolygon","coordinates":[[[[119.93099,-0.92781],[119.93459,-0.93811],[119.93735,-0.94392],[119.93614,-0.94384],[119.93397,-0.94203],[119.93318,-0.9419],[119.93198,-0.94216],[119.93117,-0.94309],[119.92913,-0.94378],[119.92168,-0.94507],[119.91736,-0.94406],[119.91541,-0.94434],[119.91368,-0.94379],[119.91004,-0.94393],[119.90829,-0.94342],[119.90763,-0.94279],[119.90534,-0.94271],[119.904,-0.94354],[119.88395,-0.93205],[119.87799,-0.93264],[119.87642,-0.932],[119.87583,-0.92942],[119.87605,-0.92872],[119.87743,-0.92839],[119.87787,-0.92729],[119.87727,-0.92565],[119.87437,-0.92343],[119.87359,-0.92064],[119.87185,-0.91912],[119.87113,-0.91781],[119.8691,-0.91286],[119.86905,-0.91042],[119.87286,-0.91059],[119.87514,-0.91017],[119.87604,-0.91072],[119.87563,-0.90799],[119.88,-0.90686],[119.88917,-0.90562],[119.89019,-0.91065],[119.89234,-0.90879],[119.89329,-0.90862],[119.89358,-0.90792],[119.89593,-0.90705],[119.89722,-0.9056],[119.89817,-0.90529],[119.90062,-0.90548],[119.90158,-0.90614],[119.90359,-0.90658],[119.90414,-0.90761],[119.90693,-0.90794],[119.91532,-0.92664],[119.91798,-0.9267],[119.91945,-0.92616],[119.92163,-0.92653],[119.92315,-0.92573],[119.92532,-0.92552],[119.92683,-0.92574],[119.92887,-0.92663],[119.92911,-0.9274],[119.93099,-0.92781]]]]}},{"type":"Feature","properties":{"NAMOBJ":"Tatanga","KODE_KAB":7271},"geometry":{"type":"MultiPolygon","coordinates":[[[[119.86765,-0.90716],[119.869,-0.90902],[119.8691,-0.91286],[119.87061,-0.91674],[119.87185,-0.91912],[119.87359,-0.92064],[119.87437,-0.92343],[119.87315,-0.92327],[119.8671,-0.92472],[119.86711,-0.92539],[119.86666,-0.92548],[119.86128,-0.92502],[119.8619,-0.9321],[119.85597,-0.9333],[119.85596,-0.9339],[119.84724,-0.93738],[119.84471,-0.93798],[119.84305,-0.93927],[119.84118,-0.9397],[119.83928,-0.94087],[119.83337,-0.94248],[119.83062,-0.94264],[119.8285,-0.94343],[119.82769,-0.93568],[119.82799,-0.92507],[119.82767,-0.92063],[119.82839,-0.91786],[119.83029,-0.91691],[119.83128,-0.91529],[119.83124,-0.91442],[119.8336,-0.91338],[119.83392,-0.91101],[119.83808,-0.90987],[119.83827,-0.90923],[119.83916,-0.90922],[119.83925,-0.90874],[119.85189,-0.90977],[119.85626,-0.90823],[119.85838,-0.90822],[119.85844,-0.90649],[119.86263,-0.90677],[119.86264,-0.90554],[119.86347,-0.90564],[119.86356,-0.90467],[119.86454,-0.90474],[119.86441,-0.90679],[119.86524,-0.90677],[119.86525,-0.90765],[119.86439,-0.90771],[119.86442,-0.90818],[119.86606,-0.90825],[119.86765,-0.90716]]]]}},{"type":"Feature","properties":{"NAMOBJ":"Palu Timur","KODE_KAB":7271},"geometry":{"type":"MultiPolygon","coordinates":[[[[119.88917,-0.90562],[119.88,-0.90686],[119.87563,-0.90799],[119.87604,-0.91072],[119.87514,-0.91017],[119.87286,-0.91059],[119.86905,-0.91042],[119.86893,-0.9088],[119.86719,-0.90615],[119.86661,-0.90068],[119.86517,-0.89587],[119.86187,-0.8926],[119.85963,-0.88927],[119.85936,-0.88839],[119.86004,-0.88833],[119.85993,-0.88567],[119.86138,-0.88508],[119.86378,-0.88563],[119.86827,-0.88431],[119.86956,-0.88332],[119.87165,-0.88416],[119.87433,-0.8845],[119.875,-0.88595],[119.87554,-0.88612],[119.87607,-0.88322],[119.87673,-0.8838],[119.87762,-0.88589],[119.88154,-0.88776],[119.88329,-0.89057],[119.88619,-0.89211],[119.88736,-0.89784],[119.88467,-0.89709],[119.87571,-0.89686],[119.8756,-0.90044],[119.87624,-0.90224],[119.87967,-0.90149],[119.88823,-0.90149],[119.88917,-0.90562]]]]}},{"type":"Feature","properties":{"NAMOBJ":"Palu Barat","KODE_KAB":7271},"geometry":{"type":"MultiPolygon","coordinates":[[[[119.85936,-0.88839],[119.86004,-0.89009],[119.86187,-0.8926],[119.86517,-0.89587],[119.86655,-0.9004],[119.86701,-0.90528],[119.86765,-0.90716],[119.86606,-0.90825],[119.86442,-0.90818],[119.86439,-0.90771],[119.86525,-0.90765],[119.86524,-0.90677],[119.86441,-0.90679],[119.86454,-0.90474],[119.86356,-0.90467],[119.86347,-0.90564],[119.86264,-0.90554],[119.86263,-0.90677],[119.85844,-0.90649],[119.85838,-0.90822],[119.85626,-0.90823],[119.85189,-0.90977],[119.83925,-0.90874],[119.83916,-0.90922],[119.83827,-0.90923],[119.83808,-0.90987],[119.83392,-0.91101],[119.8308,-0.90879],[119.83266,-0.90777],[119.83218,-0.90555],[119.83555,-0.9048],[119.83867,-0.90325],[119.83991,-0.903],[119.84005,-0.90372],[119.8423,-0.90359],[119.84261,-0.90296],[119.84575,-0.90309],[119.84579,-0.90369],[119.84754,-0.90355],[119.84755,-0.90404],[119.84818,-0.90397],[119.84807,-0.90329],[119.84985,-0.90332],[119.84987,-0.89921],[119.84645,-0.89923],[119.84637,-0.89695],[119.8427,-0.89673],[119.84299,-0.8941],[119.84399,-0.89401],[119.84404,-0.89321],[119.84197,-0.89329],[119.8433,-0.89041],[119.8396,-0.88778],[119.83983,-0.88527],[119.83905,-0.88333],[119.84053,-0.88319],[119.84074,-0.88283],[119.83978,-0.88221],[119.8397,-0.88119],[119.84423,-0.88334],[119.85655,-0.88439],[119.85758,-0.88483],[119.85873,-0.88788],[119.85936,-0.88839]]]]}},{"type":"Feature","properties":{"NAMOBJ":"Ulujadi","KODE_KAB":7271},"geometry":{"type":"MultiPolygon","coordinates":[[[[119.8397,-0.88119],[119.83978,-0.88221],[119.84074,-0.88283],[119.84053,-0.88319],[119.83905,-0.88333],[119.83983,-0.88527],[119.8396,-0.88778],[119.8433,-0.89041],[119.84197,-0.89329],[119.84404,-0.89321],[119.84399,-0.89401],[119.84299,-0.8941],[119.8427,-0.89673],[119.84637,-0.89695],[119.84645,-0.89923],[119.84987,-0.89921],[119.84985,-0.90332],[119.84807,-0.90329],[119.84818,-0.90397],[119.84755,-0.90404],[119.84754,-0.90355],[119.84579,-0.90369],[119.84575,-0.90309],[119.84261,-0.90296],[119.8423,-0.90359],[119.84005,-0.90372],[119.83991,-0.903],[119.83837,-0.90336],[119.83555,-0.9048],[119.83261,-0.90533],[119.83132,-0.90609],[119.82981,-0.9056],[119.82795,-0.90557],[119.827,-0.90505],[119.82355,-0.90573],[119.82282,-0.90533],[119.82202,-0.90402],[119.82248,-0.89945],[119.82466,-0.89884],[119.8272,-0.89942],[119.82965,-0.89948],[119.83051,-0.89847],[119.8308,-0.89685],[119.82984,-0.89383],[119.82876,-0.89189],[119.82416,-0.89228],[119.82194,-0.89218],[119.82177,-0.89172],[119.82513,-0.88893],[119.82574,-0.88774],[119.82726,-0.88698],[119.83098,-0.8878],[119.83324,-0.88302],[119.83289,-0.88229],[119.83067,-0.88275],[119.82695,-0.88176],[119.82602,-0.88206],[119.8238,-0.88179],[119.82395,-0.8815],[119.82327,-0.88092],[119.82252,-0.87916],[119.82175,-0.87186],[119.82103,-0.87109],[119.81912,-0.8707],[119.80914,-0.87087],[119.80308,-0.87154],[119.80026,-0.87194],[119.79577,-0.87354],[119.79285,-0.875],[119.78964,-0.878],[119.78807,-0.88105],[119.78546,-0.8845],[119.78329,-0.88639],[119.78106,-0.88972],[119.7798,-0.89271],[119.7765,-0.89581],[119.77384,-0.89716],[119.76799,-0.8991],[119.76306,-0.89812],[119.76283,-0.89776],[119.76302,-0.89144],[119.76128,-0.8869],[119.76144,-0.87706],[119.76201,-0.87572],[119.76699,-0.87102],[119.768,-0.86902],[119.76878,-0.86608],[119.76881,-0.86486],[119.76812,-0.86344],[119.76538,-0.86066],[119.77218,-0.85452],[119.77647,-0.84945],[119.77842,-0.84439],[119.78192,-0.83893],[119.78582,-0.83543],[119.79361,-0.82725],[119.80454,-0.81974],[119.81113,-0.81655],[119.81157,-0.81989],[119.81082,-0.82221],[119.81142,-0.82337],[119.81096,-0.82357],[119.81056,-0.82536],[119.81142,-0.82415],[119.81106,-0.82628],[119.81059,-0.82693],[119.81099,-0.82897],[119.81197,-0.8302],[119.81174,-0.83142],[119.81323,-0.8327],[119.81255,-0.83447],[119.81468,-0.83685],[119.81417,-0.83734],[119.81405,-0.83854],[119.81547,-0.84087],[119.81646,-0.84097],[119.81779,-0.84197],[119.81821,-0.84323],[119.82259,-0.84576],[119.82342,-0.84777],[119.82452,-0.84875],[119.82566,-0.85124],[119.82577,-0.85271],[119.8268,-0.8537],[119.82741,-0.85724],[119.829,-0.86225],[119.83161,-0.86662],[119.83465,-0.87395],[119.83567,-0.87494],[119.83686,-0.87877],[119.83783,-0.88002],[119.8397,-0.88119]]]]}},{"type":"Feature","properties":{"NAMOBJ":"Mantikulore","KODE_KAB":7271},"geometry":{"type":"MultiPolygon","coordinates":[[[[119.92233,-0.79897],[119.92704,-0.80269],[119.93186,-0.80462],[119.93925,-0.80944],[119.94311,-0.81266],[119.94697,-0.81523],[119.95211,-0.8178],[119.9669,-0.82005],[119.9804,-0.82005],[119.98619,-0.81941],[119.98908,-0.81716],[119.99133,-0.81619],[119.99422,-0.81684],[119.99615,-0.82005],[119.99679,-0.82584],[120.00322,-0.84191],[120.00354,-0.84706],[120.00612,-0.85188],[120.01062,-0.85799],[120.01255,-0.86345],[120.02058,-0.86924],[120.03514,-0.87089],[120.03167,-0.87499],[120.03145,-0.8803],[120.03093,-0.8812],[120.02258,-0.88118],[120.02361,-0.88321],[120.02102,-0.8846],[120.01843,-0.885],[120.01844,-0.88692],[120.01741,-0.88818],[120.00925,-0.89091],[120.00773,-0.89189],[120.00354,-0.89705],[120.00207,-0.89727],[120,-0.89884],[119.99446,-0.89953],[119.9927,-0.90101],[119.9916,-0.90133],[119.98752,-0.9015],[119.98497,-0.90658],[119.9783,-0.90743],[119.97366,-0.90885],[119.97269,-0.90875],[119.96964,-0.90719],[119.96878,-0.90719],[119.96768,-0.90962],[119.96728,-0.91206],[119.96146,-0.91654],[119.96046,-0.91678],[119.95923,-0.91801],[119.95698,-0.91895],[119.95524,-0.92019],[119.95405,-0.92011],[119.95151,-0.91739],[119.94735,-0.91547],[119.94418,-0.91693],[119.9393,-0.91578],[119.93695,-0.91604],[119.93316,-0.91562],[119.93188,-0.91622],[119.92809,-0.91651],[119.92724,-0.91696],[119.92753,-0.91958],[119.93099,-0.92781],[119.92911,-0.9274],[119.92887,-0.92663],[119.92683,-0.92574],[119.92532,-0.92552],[119.92315,-0.92573],[119.92163,-0.92653],[119.91945,-0.92616],[119.91798,-0.9267],[119.91532,-0.92664],[119.90693,-0.90794],[119.90414,-0.90761],[119.90359,-0.90658],[119.90158,-0.90614],[119.90062,-0.90548],[119.89797,-0.90531],[119.89683,-0.90583],[119.89581,-0.90713],[119.89358,-0.90792],[119.89329,-0.90862],[119.89234,-0.90879],[119.89019,-0.91065],[119.88823,-0.90149],[119.87967,-0.90149],[119.87624,-0.90224],[119.8756,-0.90044],[119.87571,-0.89686],[119.88467,-0.89709],[119.88736,-0.89784],[119.88619,-0.89211],[119.88329,-0.89057],[119.88154,-0.88776],[119.87762,-0.88589],[119.87673,-0.8838],[119.87607,-0.88322],[119.87554,-0.88612],[119.875,-0.88595],[119.87433,-0.8845],[119.87165,-0.88416],[119.86956,-0.88332],[119.87036,-0.8819],[119.87078,-0.87945],[119.87207,-0.87693],[119.87224,-0.87097],[119.87263,-0.86921],[119.87453,-0.86644],[119.87813,-0.86396],[119.8792,-0.86142],[119.87916,-0.85926],[119.87764,-0.85736],[119.87862,-0.85423],[119.87853,-0.85141],[119.87953,-0.84937],[119.87968,-0.8467],[119.87928,-0.84328],[119.88074,-0.83398],[119.88005,-0.83277],[119.87929,-0.82951],[119.88235,-0.82461],[119.8827,-0.82336],[119.88261,-0.8216],[119.87947,-0.81923],[119.87922,-0.81832],[119.88212,-0.81706],[119.88176,-0.81583],[119.88392,-0.81497],[119.88883,-0.81031],[119.89678,-0.80831],[119.89887,-0.80722],[119.89934,-0.80632],[119.90029,-0.80563],[119.90317,-0.80536],[119.90781,-0.8037],[119.90884,-0.8037],[119.9098,-0.80315],[119.91066,-0.80199],[119.91216,-0.8024],[119.91311,-0.8015],[119.91425,-0.80159],[119.91552,-0.80098],[119.91668,-0.79956],[119.91802,-0.79896],[119.92052,-0.79948],[119.92233,-0.79897]]]]}},{"type":"Feature","properties":{"NAMOBJ":"Palu Utara","KODE_KAB":7271},"geometry":{"type":"MultiPolygon","coordinates":[[[[119.9175,-0.79914],[119.91656,-0.79966],[119.91541,-0.80107],[119.91425,-0.80159],[119.91311,-0.8015],[119.91216,-0.8024],[119.91066,-0.80199],[119.9098,-0.80315],[119.90884,-0.8037],[119.90781,-0.8037],[119.90317,-0.80536],[119.90029,-0.80563],[119.89934,-0.80632],[119.89887,-0.80722],[119.89678,-0.80831],[119.88874,-0.81035],[119.88392,-0.81497],[119.88176,-0.81583],[119.88212,-0.81706],[119.87922,-0.81832],[119.87936,-0.81908],[119.87816,-0.81283],[119.87724,-0.811],[119.87756,-0.80805],[119.8765,-0.8053],[119.8773,-0.80289],[119.87693,-0.80138],[119.8761,-0.8011],[119.87571,-0.80005],[119.87382,-0.79857],[119.8702,-0.79713],[119.86922,-0.79579],[119.86789,-0.79486],[119.86662,-0.79317],[119.86614,-0.79183],[119.8646,-0.79015],[119.86207,-0.78854],[119.86099,-0.78596],[119.85969,-0.7854],[119.85942,-0.78478],[119.85908,-0.78095],[119.85768,-0.77802],[119.85722,-0.77421],[119.85717,-0.76742],[119.85745,-0.76475],[119.85984,-0.75918],[119.8605,-0.7566],[119.85997,-0.75277],[119.87334,-0.74252],[119.87515,-0.74279],[119.87765,-0.74092],[119.87987,-0.74041],[119.8817,-0.74056],[119.88247,-0.74151],[119.88346,-0.74083],[119.88408,-0.74098],[119.8852,-0.74184],[119.88524,-0.74367],[119.88578,-0.74432],[119.88709,-0.74412],[119.88984,-0.74463],[119.89002,-0.74573],[119.89157,-0.7478],[119.89358,-0.74762],[119.89534,-0.7484],[119.8961,-0.74964],[119.89868,-0.74998],[119.89983,-0.74918],[119.90388,-0.75],[119.90697,-0.75348],[119.90738,-0.75592],[119.90729,-0.75647],[119.90486,-0.75938],[119.90151,-0.75916],[119.8988,-0.76],[119.89584,-0.75878],[119.89377,-0.7589],[119.88854,-0.75992],[119.88598,-0.7616],[119.88476,-0.7611],[119.88229,-0.76087],[119.88143,-0.76023],[119.87979,-0.76063],[119.8796,-0.76117],[119.87891,-0.76064],[119.87661,-0.76058],[119.875,-0.76022],[119.87262,-0.75883],[119.87419,-0.77638],[119.87975,-0.77413],[119.88278,-0.77356],[119.89168,-0.77339],[119.89567,-0.77388],[119.89781,-0.77349],[119.89889,-0.77372],[119.90408,-0.77879],[119.90789,-0.78188],[119.9089,-0.78722],[119.91005,-0.78991],[119.91668,-0.79486],[119.9175,-0.79914]]]]}},{"type":"Feature","properties":{"NAMOBJ":"Tawaeli","KODE_KAB":7271},"geometry":{"type":"MultiPolygon","coordinates":[[[[119.92806,-0.70408],[119.92736,-0.70979],[119.92864,-0.71204],[119.93668,-0.71429],[119.94403,-0.71341],[119.94183,-0.71493],[119.94064,-0.71456],[119.9392,-0.71485],[119.9374,-0.71632],[119.93633,-0.71671],[119.93604,-0.71801],[119.93453,-0.71821],[119.93379,-0.71873],[119.93395,-0.7203],[119.93146,-0.72082],[119.92999,-0.72388],[119.92686,-0.72318],[119.9259,-0.72423],[119.92443,-0.72432],[119.92396,-0.7256],[119.92198,-0.72506],[119.92116,-0.72685],[119.91945,-0.72763],[119.91899,-0.72952],[119.91712,-0.73039],[119.9151,-0.73072],[119.9112,-0.73334],[119.9109,-0.73438],[119.90756,-0.73512],[119.90683,-0.737],[119.90366,-0.73821],[119.90331,-0.7372],[119.90357,-0.73517],[119.90238,-0.73314],[119.90301,-0.73232],[119.90071,-0.73041],[119.89432,-0.73058],[119.89107,-0.72974],[119.89055,-0.73038],[119.88966,-0.73],[119.88837,-0.7301],[119.88755,-0.7304],[119.88728,-0.73104],[119.88531,-0.7314],[119.89394,-0.72116],[119.89736,-0.71375],[119.90228,-0.70764],[119.90539,-0.70778],[119.90592,-0.7066],[119.90696,-0.70582],[119.90763,-0.70463],[119.91277,-0.70162],[119.91682,-0.70251],[119.91683,-0.70381],[119.91555,-0.70561],[119.91662,-0.70822],[119.91761,-0.70797],[119.91993,-0.7064],[119.91988,-0.70503],[119.92032,-0.70457],[119.92092,-0.70457],[119.92144,-0.70543],[119.92362,-0.70366],[119.92806,-0.70408]]]]}}]}