{"type":"FeatureCollection","features":[{"type":"Feature","properties":{"NAMOBJ":"Dolo","KODE_KAB":"7271"},"geometry":{"type":"MultiPolygon","coordinates":[[[[119.90179,-0.97691],[119.89413,-0.97568],[119.89062,-0.97295],[119.88556,-0.97295],[119.88283,-0.97841],[119.87971,-0.98153],[119.87147,-0.98392],[119.8687,-0.98711],[119.86744,-0.98469],[119.86803,-0.98211],[119.86906,-0.98223],[119.87159,-0.98367],[119.87353,-0.98086],[119.87327,-0.97934],[119.87038,-0.97759],[119.86976,-0.97583],[119.87092,-0.97178],[119.87106,-0.96906],[119.87244,-0.96758],[119.87306,-0.9659],[119.8778,-0.96657],[119.88022,-0.96555],[119.88415,-0.96524],[119.88625,-0.96789],[119.88821,-0.9692],[119.90135,-0.96933],[119.90192,-0.97039],[119.90179,-0.97691]]]]}},{"type":"Feature","properties":{"NAMOBJ":"Marawola","KODE_KAB":"7271"},"geometry":{"type":"MultiPolygon","coordinates":[[[[119.87437,-0.92343],[119.87727,-0.92565],[119.87783,-0.92745],[119.87731,-0.92848],[119.87605,-0.92872],[119.87582,-0.93047],[119.87633,-0.93054],[119.87636,-0.93195],[119.87755,-0.93262],[119.87826,-0.93435],[119.88039,-0.93642],[119.88133,-0.93901],[119.88103,-0.94043],[119.87893,-0.94211],[119.87871,-0.94298],[119.87872,-0.94468],[119.87945,-0.94739],[119.88062,-0.94961],[119.88042,-0.95028],[119.87888,-0.9515],[119.87919,-0.95421],[119.87846,-0.95739],[119.87932,-0.95955],[119.87754,-0.96098],[119.87724,-0.96258],[119.87638,-0.96348],[119.87343,-0.96372],[119.87282,-0.96686],[119.87098,-0.96929],[119.87092,-0.97178],[119.86985,-0.97516],[119.86983,-0.97655],[119.87059,-0.97778],[119.87336,-0.9795],[119.87353,-0.98086],[119.87288,-0.98223],[119.87201,-0.98345],[119.87135,-0.98368],[119.86882,-0.98213],[119.86789,-0.98221],[119.86741,-0.9845],[119.8687,-0.98711],[119.8675,-0.98848],[119.8614,-0.99127],[119.85166,-0.99204],[119.84114,-0.9936],[119.83285,-0.99396],[119.8362,-0.99175],[119.84146,-0.99209],[119.84394,-0.99108],[119.84605,-0.98941],[119.848,-0.98922],[119.84956,-0.98694],[119.84811,-0.98483],[119.8462,-0.98508],[119.84306,-0.98476],[119.84395,-0.9837],[119.84385,-0.98319],[119.84157,-0.98307],[119.83871,-0.98119],[119.83735,-0.98105],[119.83551,-0.98178],[119.83642,-0.97931],[119.83548,-0.97743],[119.83611,-0.97653],[119.83794,-0.9758],[119.84093,-0.96552],[119.84245,-0.96321],[119.84483,-0.95772],[119.84472,-0.95531],[119.84115,-0.95114],[119.84421,-0.9493],[119.84824,-0.94774],[119.84648,-0.94318],[119.84396,-0.94377],[119.84404,-0.94256],[119.84255,-0.94244],[119.84167,-0.94083],[119.84294,-0.94029],[119.84341,-0.93892],[119.84471,-0.93798],[119.84724,-0.93738],[119.85596,-0.9339],[119.85597,-0.9333],[119.8619,-0.9321],[119.86128,-0.92502],[119.86666,-0.92548],[119.86711,-0.92539],[119.8671,-0.92472],[119.87315,-0.92327],[119.87437,-0.92343]]]]}},{"type":"Feature","properties":{"NAMOBJ":"Marawola Barat","KODE_KAB":"7271"},"geometry":{"type":"MultiPolygon","coordinates":[[[[119.78657,-0.98149],[119.78543,-0.98075],[119.78036,-0.97451],[119.77179,-0.96867],[119.76244,-0.9636],[119.74959,-0.95815],[119.74452,-0.95386],[119.74257,-0.94997],[119.74257,-0.94412],[119.74647,-0.93594],[119.74764,-0.9301],[119.74798,-0.91455],[119.75142,-0.91233],[119.75549,-0.9112],[119.75731,-0.91131],[119.75978,-0.91212],[119.761,-0.91206],[119.76361,-0.91084],[119.76647,-0.91099],[119.76965,-0.9106],[119.77211,-0.91399],[119.77306,-0.91436],[119.78054,-0.91453],[119.78514,-0.91386],[119.78648,-0.91294],[119.78842,-0.90908],[119.78972,-0.90823],[119.78986,-0.90763],[119.79164,-0.90705],[119.79199,-0.906],[119.79465,-0.9054],[119.79568,-0.90451],[119.79772,-0.90408],[119.79891,-0.90271],[119.799,-0.90158],[119.79947,-0.90102],[119.80225,-0.901],[119.80318,-0.90135],[119.80274,-0.90467],[119.80066,-0.90702],[119.80041,-0.90833],[119.80055,-0.91569],[119.80111,-0.91789],[119.80035,-0.91986],[119.80029,-0.92327],[119.79721,-0.93429],[119.81037,-0.93512],[119.81271,-0.9349],[119.81607,-0.93628],[119.81867,-0.93856],[119.82333,-0.93968],[119.82449,-0.94318],[119.82439,-0.95489],[119.82648,-0.95723],[119.82331,-0.96091],[119.82146,-0.96216],[119.82019,-0.96253],[119.81876,-0.96216],[119.81625,-0.96285],[119.81534,-0.96348],[119.80852,-0.96534],[119.80686,-0.96689],[119.80491,-0.9669],[119.80242,-0.9682],[119.80079,-0.96838],[119.79831,-0.96998],[119.79486,-0.9737],[119.79263,-0.97887],[119.7915,-0.9804],[119.78935,-0.98079],[119.788,-0.98043],[119.78657,-0.98149]]]]}},{"type":"Feature","properties":{"NAMOBJ":"Kinovaro","KODE_KAB":"7271"},"geometry":{"type":"MultiPolygon","coordinates":[[[[119.83203,-0.90567],[119.83266,-0.90777],[119.8308,-0.90879],[119.83392,-0.91101],[119.83383,-0.91273],[119.8336,-0.91338],[119.83124,-0.91442],[119.83128,-0.91529],[119.83029,-0.91691],[119.82839,-0.91786],[119.82767,-0.92063],[119.82799,-0.92507],[119.82769,-0.93568],[119.8285,-0.94343],[119.83062,-0.94264],[119.83337,-0.94248],[119.83917,-0.94091],[119.84118,-0.9397],[119.84325,-0.93916],[119.84294,-0.94029],[119.8422,-0.94039],[119.8417,-0.94106],[119.84255,-0.94244],[119.84404,-0.94256],[119.84396,-0.94377],[119.84648,-0.94318],[119.84824,-0.94774],[119.84421,-0.9493],[119.84115,-0.95114],[119.84472,-0.95531],[119.84483,-0.95772],[119.84245,-0.96321],[119.84093,-0.96552],[119.83794,-0.9758],[119.83611,-0.97653],[119.83548,-0.97743],[119.83642,-0.97931],[119.83551,-0.98178],[119.83735,-0.98105],[119.83871,-0.98119],[119.84157,-0.98307],[119.84385,-0.98319],[119.84395,-0.9837],[119.84306,-0.98476],[119.8462,-0.98508],[119.84811,-0.98483],[119.84956,-0.98694],[119.848,-0.98922],[119.84605,-0.98941],[119.84394,-0.99108],[119.84146,-0.99209],[119.8362,-0.99175],[119.83285,-0.99396],[119.82283,-0.99438],[119.81387,-0.9936],[119.8088,-0.99127],[119.8014,-0.98854],[119.79439,-0.98659],[119.78657,-0.98149],[119.788,-0.98043],[119.78935,-0.98079],[119.7915,-0.9804],[119.79263,-0.97887],[119.79486,-0.9737],[119.79831,-0.96998],[119.80079,-0.96838],[119.80242,-0.9682],[119.80491,-0.9669],[119.80686,-0.96689],[119.80852,-0.96534],[119.81534,-0.96348],[119.81625,-0.96285],[119.81876,-0.96216],[119.82019,-0.96253],[119.82146,-0.96216],[119.82433,-0.95989],[119.82648,-0.95723],[119.82439,-0.95489],[119.82452,-0.94364],[119.82344,-0.93979],[119.81867,-0.93856],[119.81607,-0.93628],[119.81271,-0.9349],[119.81037,-0.93512],[119.79721,-0.93429],[119.80029,-0.92327],[119.80035,-0.91986],[119.80111,-0.91789],[119.80055,-0.91569],[119.80048,-0.90751],[119.80274,-0.90467],[119.80318,-0.90135],[119.80186,-0.90096],[119.79947,-0.90102],[119.799,-0.90158],[119.79891,-0.90271],[119.79772,-0.90408],[119.79568,-0.90451],[119.79465,-0.9054],[119.79199,-0.906],[119.79164,-0.90705],[119.78986,-0.90763],[119.78972,-0.90823],[119.78842,-0.90908],[119.78648,-0.91294],[119.78514,-0.91386],[119.78054,-0.91453],[119.77457,-0.91453],[119.77211,-0.91399],[119.76965,-0.9106],[119.77036,-0.91013],[119.7706,-0.90334],[119.77135,-0.90156],[119.77025,-0.90005],[119.76799,-0.8991],[119.77553,-0.89635],[119.77883,-0.89369],[119.78044,-0.89174],[119.78106,-0.88972],[119.78329,-0.88639],[119.78546,-0.8845],[119.78807,-0.88105],[119.78964,-0.878],[119.79285,-0.875],[119.80026,-0.87194],[119.80914,-0.87087],[119.81912,-0.8707],[119.82103,-0.87109],[119.82175,-0.87186],[119.82252,-0.87916],[119.82327,-0.88092],[119.82395,-0.8815],[119.8238,-0.88179],[119.82602,-0.88206],[119.82695,-0.88176],[119.83067,-0.88275],[119.83289,-0.88229],[119.83318,-0.88252],[119.83319,-0.88317],[119.83098,-0.8878],[119.82726,-0.88698],[119.82574,-0.88774],[119.82513,-0.88893],[119.82451,-0.88915],[119.82175,-0.89199],[119.82416,-0.89228],[119.82876,-0.89189],[119.82984,-0.89383],[119.8308,-0.89685],[119.83051,-0.89847],[119.82965,-0.89948],[119.8272,-0.89942],[119.82466,-0.89884],[119.82248,-0.89945],[119.82202,-0.90402],[119.82282,-0.90533],[119.82355,-0.90573],[119.827,-0.90505],[119.82795,-0.90557],[119.82981,-0.9056],[119.83114,-0.9061],[119.83203,-0.90567]]]]}},{"type":"Feature","properties":{"NAMOBJ":"Sigi Biromaru","KODE_KAB":"7271"},"geometry":{"type":"MultiPolygon","coordinates":[[[[119.90179,-0.97691],[119.90192,-0.97039],[119.90135,-0.96933],[119.88821,-0.9692],[119.88625,-0.96789],[119.88415,-0.96524],[119.88022,-0.96555],[119.8778,-0.96657],[119.87306,-0.9659],[119.87304,-0.96462],[119.87351,-0.96363],[119.87638,-0.96348],[119.87724,-0.96258],[119.87754,-0.96098],[119.87932,-0.95955],[119.87846,-0.95739],[119.87919,-0.95421],[119.87888,-0.9515],[119.88042,-0.95028],[119.88062,-0.94961],[119.87945,-0.94739],[119.87872,-0.94468],[119.87871,-0.94298],[119.87893,-0.94211],[119.88103,-0.94043],[119.88133,-0.93901],[119.8808,-0.93705],[119.87826,-0.93435],[119.87755,-0.93262],[119.88395,-0.93205],[119.904,-0.94354],[119.90534,-0.94271],[119.90763,-0.94279],[119.90829,-0.94342],[119.91004,-0.94393],[119.91368,-0.94379],[119.91541,-0.94434],[119.91736,-0.94406],[119.92168,-0.94507],[119.92913,-0.94378],[119.93117,-0.94309],[119.93198,-0.94216],[119.93318,-0.9419],[119.93397,-0.94203],[119.93614,-0.94384],[119.93735,-0.94392],[119.93459,-0.93811],[119.93099,-0.9278],[119.92774,-0.92033],[119.92724,-0.91696],[119.92832,-0.91645],[119.93188,-0.91622],[119.93316,-0.91562],[119.93695,-0.91604],[119.94032,-0.91589],[119.94418,-0.91693],[119.94735,-0.91547],[119.95151,-0.91739],[119.95405,-0.92011],[119.95524,-0.92019],[119.95698,-0.91895],[119.95923,-0.91801],[119.96046,-0.91678],[119.96146,-0.91654],[119.96728,-0.91206],[119.96768,-0.90962],[119.96878,-0.90719],[119.96964,-0.90719],[119.97269,-0.90875],[119.97366,-0.90885],[119.9783,-0.90743],[119.98497,-0.90658],[119.98752,-0.9015],[119.9916,-0.90133],[119.9927,-0.90101],[119.99446,-0.89953],[120,-0.89884],[120.00207,-0.89727],[120.00354,-0.89705],[120.00773,-0.89189],[120.00925,-0.89091],[120.01741,-0.88818],[120.01844,-0.88692],[120.01843,-0.885],[120.02102,-0.8846],[120.02361,-0.88321],[120.02258,-0.88118],[120.03093,-0.8812],[120.03145,-0.8803],[120.03167,-0.87499],[120.03514,-0.87089],[120.05084,-0.87323],[120.06062,-0.90003],[120.06419,-0.90569],[120.0649,-0.90745],[120.0562,-0.90789],[120.05347,-0.90867],[120.05152,-0.91023],[120.04802,-0.91179],[120.04529,-0.91179],[120.04139,-0.91062],[120.03867,-0.91101],[120.03594,-0.91607],[120.03516,-0.9188],[120.02854,-0.91997],[120.0262,-0.92231],[120.02581,-0.92503],[120.02347,-0.92815],[120.01958,-0.93127],[120.01724,-0.93516],[120.01412,-0.93789],[120.01023,-0.93906],[120.00945,-0.9414],[120.00906,-0.94763],[120.00633,-0.94919],[120.00321,-0.94997],[119.99971,-0.94997],[119.99776,-0.95192],[119.99737,-0.95659],[119.9962,-0.9601],[119.99269,-0.96205],[119.98841,-0.96321],[119.98412,-0.9636],[119.97984,-0.96711],[119.96698,-0.97373],[119.95841,-0.97997],[119.95062,-0.98464],[119.93815,-0.98464],[119.93309,-0.98308],[119.9327,-0.98114],[119.92062,-0.97841],[119.91408,-0.97542],[119.90932,-0.97724],[119.90179,-0.97691]]]]}},{"type":"Feature","properties":{"NAMOBJ":"Pipikoro","KODE_KAB":"7210"},"geometry":{"type":"MultiPolygon","coordinates":[[[[120.10834,-1.88165],[120.10142,-1.88421],[120.10003,-1.88561],[120.10011,-1.88477],[120.10218,-1.88229],[120.10772,-1.88188],[120.11116,-1.87983],[120.11145,-1.87829],[120.11247,-1.87714],[120.11868,-1.87383],[120.13119,-1.87213],[120.13243,-1.87487],[120.13244,-1.87563],[120.11475,-1.87806],[120.10834,-1.88165]]],[[[119.90556,-1.62111],[119.90799,-1.62107],[119.91192,-1.62208],[119.9174,-1.62176],[119.9201,-1.62079],[119.9252,-1.61801],[119.9271,-1.61793],[119.92808,-1.62265],[119.93171,-1.62861],[119.93461,-1.63021],[119.93639,-1.63199],[119.93939,-1.63322],[119.93859,-1.63398],[119.93811,-1.63688],[119.9367,-1.63867],[119.93738,-1.64078],[119.93897,-1.64258],[119.93933,-1.64354],[119.93752,-1.64675],[119.93195,-1.65064],[119.93122,-1.65011],[119.92776,-1.65289],[119.92169,-1.65506],[119.91735,-1.65965],[119.92034,-1.66957],[119.92083,-1.67259],[119.92208,-1.67457],[119.92315,-1.67517],[119.92447,-1.67521],[119.93062,-1.67353],[119.93581,-1.67461],[119.94057,-1.67412],[119.94286,-1.67434],[119.94698,-1.6708],[119.949,-1.66766],[119.95231,-1.66668],[119.95382,-1.6667],[119.95724,-1.66763],[119.96011,-1.66718],[119.96338,-1.66483],[119.9671,-1.66342],[119.97035,-1.66049],[119.9732,-1.6572],[119.97895,-1.65313],[119.98118,-1.65227],[119.98345,-1.65257],[119.98457,-1.65156],[119.98666,-1.65156],[119.988,-1.65077],[119.99628,-1.65361],[120.0008,-1.65669],[120.00223,-1.65812],[120.00299,-1.66053],[120.00382,-1.66148],[120.00398,-1.66296],[120.00378,-1.66412],[120.00241,-1.66582],[120.00219,-1.66768],[120.00555,-1.6706],[120.00556,-1.67267],[120.0073,-1.67511],[120.00717,-1.67678],[120.00749,-1.6772],[120.01022,-1.67881],[120.01121,-1.6801],[120.01731,-1.68252],[120.01968,-1.68437],[120.02172,-1.68701],[120.02277,-1.68699],[120.02432,-1.68598],[120.02524,-1.68595],[120.0273,-1.68743],[120.02956,-1.68774],[120.03141,-1.68861],[120.03268,-1.68793],[120.03462,-1.68797],[120.03788,-1.68473],[120.03963,-1.68196],[120.0416,-1.68075],[120.04229,-1.67769],[120.0448,-1.67308],[120.04457,-1.66906],[120.045,-1.66671],[120.0463,-1.66377],[120.04704,-1.66359],[120.04804,-1.66425],[120.04908,-1.66654],[120.05304,-1.67251],[120.05346,-1.67718],[120.05545,-1.67912],[120.05614,-1.68033],[120.05622,-1.68182],[120.05728,-1.68331],[120.05732,-1.68553],[120.05791,-1.68779],[120.06155,-1.68992],[120.06141,-1.69356],[120.06314,-1.69658],[120.0632,-1.69769],[120.06052,-1.70327],[120.06504,-1.70701],[120.06622,-1.70941],[120.06967,-1.71297],[120.07179,-1.71579],[120.07295,-1.72083],[120.0717,-1.72228],[120.07005,-1.72275],[120.07008,-1.72386],[120.07087,-1.72559],[120.07014,-1.72687],[120.07007,-1.72867],[120.07185,-1.73198],[120.07262,-1.73505],[120.07218,-1.73602],[120.07056,-1.73681],[120.0697,-1.73776],[120.0703,-1.73903],[120.07222,-1.73987],[120.0736,-1.74101],[120.07399,-1.74221],[120.073,-1.74627],[120.07196,-1.74723],[120.07061,-1.74756],[120.07052,-1.74801],[120.07087,-1.75],[120.07237,-1.75105],[120.07404,-1.75299],[120.07388,-1.754],[120.07225,-1.75589],[120.07201,-1.75729],[120.07454,-1.76077],[120.07752,-1.76259],[120.07749,-1.76615],[120.07832,-1.7679],[120.08148,-1.76973],[120.08254,-1.77401],[120.08436,-1.77879],[120.08494,-1.77958],[120.0865,-1.78037],[120.08597,-1.78365],[120.08695,-1.78526],[120.08715,-1.78752],[120.08792,-1.78912],[120.08728,-1.79064],[120.08493,-1.79299],[120.08438,-1.79445],[120.08481,-1.79584],[120.08456,-1.79657],[120.08066,-1.80048],[120.08112,-1.80361],[120.08064,-1.8073],[120.07603,-1.80837],[120.07063,-1.80796],[120.0689,-1.80853],[120.06703,-1.81087],[120.06149,-1.81175],[120.05987,-1.81105],[120.05853,-1.81208],[120.05637,-1.81542],[120.05631,-1.81776],[120.05561,-1.81922],[120.0557,-1.82074],[120.05678,-1.82154],[120.05717,-1.82272],[120.06004,-1.82633],[120.05538,-1.8277],[120.05402,-1.8289],[120.05315,-1.82853],[120.05109,-1.83049],[120.04983,-1.83306],[120.04815,-1.83505],[120.04741,-1.83566],[120.04655,-1.83577],[120.04639,-1.83847],[120.04521,-1.84119],[120.04581,-1.84286],[120.04568,-1.84364],[120.04488,-1.8444],[120.04244,-1.84431],[120.04049,-1.84539],[120.04086,-1.84714],[120.03633,-1.85195],[120.03582,-1.85372],[120.03722,-1.85503],[120.03966,-1.85526],[120.04104,-1.85619],[120.04274,-1.85641],[120.0434,-1.85926],[120.04188,-1.86238],[120.04322,-1.86522],[120.04777,-1.86578],[120.04933,-1.86901],[120.04897,-1.86956],[120.04929,-1.87108],[120.05131,-1.87198],[120.05157,-1.87158],[120.05231,-1.87223],[120.05239,-1.87288],[120.05459,-1.87346],[120.05557,-1.87554],[120.05535,-1.87796],[120.05419,-1.87875],[120.05416,-1.88115],[120.05505,-1.88339],[120.05781,-1.88264],[120.05896,-1.88074],[120.06098,-1.88067],[120.06154,-1.88179],[120.06298,-1.88302],[120.06523,-1.88336],[120.06685,-1.88469],[120.06888,-1.88502],[120.07013,-1.886],[120.07129,-1.88601],[120.07239,-1.88526],[120.07281,-1.88521],[120.07311,-1.88577],[120.07451,-1.88539],[120.07617,-1.88345],[120.0771,-1.88462],[120.07721,-1.88647],[120.07954,-1.8884],[120.0804,-1.89003],[120.08178,-1.88959],[120.08319,-1.89052],[120.08604,-1.89015],[120.08601,-1.89067],[120.08812,-1.89073],[120.09158,-1.89273],[120.09342,-1.89314],[120.0964,-1.89211],[120.09785,-1.89096],[120.09771,-1.89288],[120.09523,-1.89373],[120.09347,-1.896],[120.09629,-1.89754],[120.09757,-1.90087],[120.09757,-1.9119],[120.10168,-1.91805],[120.10168,-1.92218],[120.10087,-1.92303],[120.09966,-1.92342],[120.09648,-1.92303],[120.09371,-1.92327],[120.09245,-1.9239],[120.08907,-1.92869],[120.0892,-1.9316],[120.09091,-1.9347],[120.09065,-1.93629],[120.08681,-1.94061],[120.08578,-1.94983],[120.08578,-1.95522],[120.08732,-1.95932],[120.09225,-1.96455],[120.09391,-1.96522],[120.09383,-1.96666],[120.09452,-1.96746],[120.09262,-1.96773],[120.08752,-1.96648],[120.08535,-1.96228],[120.08203,-1.96064],[120.07903,-1.95739],[120.07846,-1.95469],[120.0772,-1.9538],[120.07479,-1.95053],[120.07461,-1.94973],[120.07504,-1.94809],[120.07421,-1.94775],[120.0688,-1.95108],[120.06658,-1.95308],[120.0636,-1.95455],[120.06277,-1.95655],[120.0619,-1.95723],[120.05643,-1.95928],[120.05458,-1.96076],[120.05335,-1.96319],[120.05125,-1.96432],[120.04859,-1.96652],[120.04576,-1.97087],[120.04358,-1.97216],[120.04127,-1.97193],[120.03793,-1.97248],[120.03636,-1.97015],[120.03504,-1.97039],[120.03383,-1.97194],[120.03247,-1.97136],[120.03186,-1.97159],[120.03057,-1.97062],[120.02841,-1.9704],[120.02524,-1.9687],[120.02456,-1.96714],[120.02268,-1.9662],[120.02119,-1.96666],[120.02011,-1.96783],[120.01854,-1.96775],[120.0181,-1.96726],[120.0184,-1.96583],[120.01784,-1.96288],[120.01599,-1.96178],[120.01125,-1.96458],[120.00869,-1.96438],[120.00465,-1.96498],[120.00406,-1.96426],[120.00376,-1.96509],[120.00257,-1.96526],[119.99676,-1.96568],[119.99317,-1.96548],[119.9901,-1.96606],[119.98832,-1.9671],[119.98646,-1.97163],[119.98378,-1.97362],[119.97943,-1.97471],[119.97233,-1.97491],[119.96994,-1.97591],[119.96841,-1.97732],[119.96739,-1.97917],[119.96552,-1.98509],[119.96505,-1.98545],[119.96404,-1.99043],[119.96441,-1.99752],[119.96382,-2.00015],[119.9624,-2.00127],[119.95903,-2.00148],[119.95742,-2.00289],[119.9546,-2.00391],[119.95114,-2.01013],[119.94833,-2.01135],[119.94435,-2.01549],[119.94411,-2.01733],[119.94523,-2.02017],[119.94384,-2.02244],[119.94519,-2.02613],[119.94523,-2.02733],[119.94501,-2.02827],[119.94403,-2.02932],[119.94301,-2.02974],[119.93955,-2.02959],[119.9385,-2.03283],[119.93678,-2.0335],[119.936,-2.03484],[119.93316,-2.0352],[119.93132,-2.03667],[119.93024,-2.03671],[119.92438,-2.03388],[119.92067,-2.03368],[119.9165,-2.04007],[119.91445,-2.04515],[119.9117,-2.04744],[119.90953,-2.05256],[119.90793,-2.05377],[119.90479,-2.0541],[119.90096,-2.05545],[119.89735,-2.0542],[119.89381,-2.04891],[119.8929,-2.04876],[119.89114,-2.04972],[119.88806,-2.04772],[119.88389,-2.04625],[119.88148,-2.04245],[119.88005,-2.03896],[119.87879,-2.03696],[119.87764,-2.03607],[119.87236,-2.03423],[119.87057,-2.03261],[119.86878,-2.02843],[119.8687,-2.02724],[119.86972,-2.02588],[119.87219,-2.02392],[119.87349,-2.02207],[119.87345,-2.02108],[119.86993,-2.01763],[119.86914,-2.01374],[119.86657,-2.01185],[119.86657,-2.01063],[119.86706,-2.00943],[119.86821,-2.00821],[119.8701,-2.00259],[119.87069,-1.99913],[119.87017,-1.99654],[119.86903,-1.99511],[119.86894,-1.99144],[119.868,-1.98705],[119.86778,-1.98183],[119.86855,-1.9729],[119.868,-1.96771],[119.86774,-1.96699],[119.86442,-1.96373],[119.86384,-1.96183],[119.86456,-1.95729],[119.8663,-1.95567],[119.86776,-1.95505],[119.86846,-1.95344],[119.86766,-1.95173],[119.86563,-1.95034],[119.86572,-1.94941],[119.86694,-1.94742],[119.86867,-1.94593],[119.87058,-1.93962],[119.8714,-1.93862],[119.87007,-1.93688],[119.86462,-1.93593],[119.8639,-1.93547],[119.862,-1.9319],[119.86153,-1.92959],[119.86071,-1.92834],[119.86058,-1.92599],[119.86202,-1.92453],[119.86176,-1.92267],[119.86292,-1.92131],[119.86348,-1.9189],[119.86321,-1.9173],[119.8607,-1.91641],[119.86084,-1.91542],[119.86188,-1.91443],[119.86456,-1.91323],[119.86598,-1.91185],[119.86631,-1.9086],[119.86798,-1.90616],[119.86785,-1.9004],[119.86733,-1.89966],[119.86721,-1.8983],[119.86941,-1.89052],[119.86751,-1.88401],[119.86577,-1.88132],[119.86378,-1.87998],[119.86152,-1.87994],[119.86054,-1.8805],[119.85929,-1.88031],[119.85802,-1.87877],[119.8569,-1.8765],[119.85723,-1.87581],[119.86368,-1.87269],[119.87038,-1.86676],[119.87402,-1.86489],[119.87537,-1.86262],[119.8751,-1.86021],[119.87214,-1.85736],[119.87097,-1.85505],[119.87027,-1.85318],[119.8704,-1.85137],[119.86813,-1.85051],[119.86731,-1.84918],[119.86895,-1.84494],[119.86899,-1.84288],[119.86823,-1.84027],[119.86788,-1.83973],[119.86347,-1.83761],[119.86291,-1.83695],[119.86163,-1.83428],[119.86092,-1.82951],[119.859,-1.82651],[119.85885,-1.82517],[119.86017,-1.82304],[119.85911,-1.82003],[119.86174,-1.81806],[119.86272,-1.81649],[119.86227,-1.81421],[119.85987,-1.81093],[119.85981,-1.80934],[119.85914,-1.8086],[119.85905,-1.80687],[119.86036,-1.80176],[119.86149,-1.79877],[119.86413,-1.79638],[119.86507,-1.79487],[119.86546,-1.79338],[119.86543,-1.78957],[119.86582,-1.78848],[119.86755,-1.78636],[119.86983,-1.78501],[119.87222,-1.78278],[119.87172,-1.78236],[119.8714,-1.78069],[119.87165,-1.77922],[119.87132,-1.77763],[119.86882,-1.77413],[119.86862,-1.77264],[119.86737,-1.77101],[119.86791,-1.76965],[119.8678,-1.76899],[119.86547,-1.76607],[119.86001,-1.76737],[119.8569,-1.76975],[119.85535,-1.76957],[119.85405,-1.76998],[119.85084,-1.77224],[119.84377,-1.77551],[119.84019,-1.77308],[119.8385,-1.77252],[119.83601,-1.77016],[119.83354,-1.76873],[119.82672,-1.76893],[119.82343,-1.76622],[119.82238,-1.76244],[119.81915,-1.75735],[119.81844,-1.75687],[119.81497,-1.75612],[119.81303,-1.75397],[119.81267,-1.75271],[119.81333,-1.74977],[119.81329,-1.74679],[119.81126,-1.74345],[119.80917,-1.74251],[119.81082,-1.73976],[119.81117,-1.73725],[119.81382,-1.73127],[119.8162,-1.72908],[119.81675,-1.7274],[119.81908,-1.72404],[119.82179,-1.72151],[119.82526,-1.71639],[119.8264,-1.71327],[119.82549,-1.71106],[119.82253,-1.70891],[119.82214,-1.70755],[119.82264,-1.70645],[119.82137,-1.70525],[119.81605,-1.69682],[119.8159,-1.69487],[119.81633,-1.69431],[119.81651,-1.69231],[119.81732,-1.69102],[119.81727,-1.6893],[119.81838,-1.68763],[119.81946,-1.68309],[119.82093,-1.68144],[119.8225,-1.67796],[119.82249,-1.6773],[119.82138,-1.67637],[119.82088,-1.67529],[119.82113,-1.6717],[119.8206,-1.67042],[119.82022,-1.66608],[119.82078,-1.66468],[119.82068,-1.6586],[119.82118,-1.65575],[119.82173,-1.65408],[119.82274,-1.65327],[119.82264,-1.65163],[119.82198,-1.65001],[119.82039,-1.64791],[119.81885,-1.64743],[119.81747,-1.64599],[119.81732,-1.64386],[119.81442,-1.64085],[119.81388,-1.63905],[119.81312,-1.6382],[119.81319,-1.63732],[119.81411,-1.63617],[119.81567,-1.63212],[119.81549,-1.63031],[119.81961,-1.63133],[119.83302,-1.63833],[119.83841,-1.63848],[119.8415,-1.63773],[119.84505,-1.63837],[119.84637,-1.63925],[119.84773,-1.64132],[119.84702,-1.64642],[119.84714,-1.64734],[119.84791,-1.64834],[119.85041,-1.64978],[119.85761,-1.65019],[119.86079,-1.64783],[119.86352,-1.64349],[119.8648,-1.64274],[119.86678,-1.64041],[119.8703,-1.64026],[119.87345,-1.63858],[119.87611,-1.63861],[119.87755,-1.63759],[119.87938,-1.63549],[119.88028,-1.63204],[119.88177,-1.63178],[119.88442,-1.63056],[119.88483,-1.62764],[119.8858,-1.62681],[119.88973,-1.625],[119.8902,-1.6241],[119.89044,-1.62184],[119.89132,-1.62029],[119.89653,-1.61647],[119.89775,-1.61516],[119.8991,-1.61756],[119.90099,-1.61958],[119.90302,-1.62053],[119.90556,-1.62111]]]]}},{"type":"Feature","properties":{"NAMOBJ":"Kulawi Selatan","KODE_KAB":"7210"},"geometry":{"type":"MultiPolygon","coordinates":[[[[120.10083,-1.55666],[120.101,-1.55775],[120.09973,-1.55943],[120.09966,-1.56041],[120.1003,-1.56167],[120.10112,-1.56201],[120.10469,-1.56107],[120.10749,-1.56219],[120.11426,-1.56244],[120.11465,-1.56132],[120.11674,-1.56027],[120.11804,-1.5604],[120.11858,-1.56142],[120.1202,-1.55986],[120.12194,-1.55975],[120.13372,-1.55982],[120.13622,-1.56155],[120.13699,-1.6125],[120.13756,-1.61404],[120.13949,-1.61538],[120.14064,-1.61673],[120.14053,-1.62577],[120.13957,-1.62722],[120.13685,-1.62892],[120.13763,-1.63743],[120.13761,-1.64226],[120.13593,-1.65056],[120.13269,-1.65464],[120.13387,-1.65837],[120.13394,-1.66591],[120.13258,-1.67194],[120.13577,-1.67559],[120.13577,-1.68698],[120.14141,-1.70272],[120.14417,-1.7087],[120.14488,-1.72845],[120.14625,-1.73118],[120.15961,-1.74252],[120.15955,-1.74848],[120.16493,-1.75442],[120.16767,-1.7608],[120.16767,-1.76901],[120.16402,-1.77356],[120.16129,-1.7763],[120.15752,-1.78146],[120.15541,-1.78183],[120.15354,-1.78351],[120.1456,-1.78423],[120.14234,-1.78504],[120.14041,-1.78642],[120.13658,-1.78819],[120.13556,-1.78793],[120.13424,-1.7868],[120.13146,-1.7868],[120.12956,-1.78751],[120.12861,-1.78734],[120.12817,-1.78883],[120.12663,-1.78857],[120.12449,-1.78968],[120.1236,-1.78912],[120.1229,-1.78933],[120.12148,-1.79177],[120.11982,-1.79175],[120.11855,-1.7922],[120.1176,-1.79319],[120.11573,-1.79418],[120.11558,-1.79518],[120.11629,-1.79762],[120.11588,-1.79857],[120.11302,-1.79875],[120.11159,-1.79953],[120.10898,-1.79998],[120.10803,-1.80063],[120.10844,-1.80193],[120.1081,-1.80375],[120.10861,-1.805],[120.10721,-1.80777],[120.10451,-1.80928],[120.10369,-1.81052],[120.10284,-1.81084],[120.10046,-1.8096],[120.0973,-1.80962],[120.09754,-1.81171],[120.09596,-1.81373],[120.09463,-1.81666],[120.09376,-1.81743],[120.09185,-1.81716],[120.09117,-1.81744],[120.09123,-1.81831],[120.09348,-1.82037],[120.0947,-1.82377],[120.09762,-1.82546],[120.09924,-1.82563],[120.09916,-1.82749],[120.09962,-1.82832],[120.10077,-1.82868],[120.10327,-1.8285],[120.10513,-1.82604],[120.1062,-1.82741],[120.10706,-1.83045],[120.11031,-1.83067],[120.11203,-1.83204],[120.11213,-1.83301],[120.11023,-1.83729],[120.11002,-1.83868],[120.11377,-1.83974],[120.11582,-1.84127],[120.11666,-1.84374],[120.11847,-1.84517],[120.11832,-1.84597],[120.11703,-1.84757],[120.11713,-1.84859],[120.12168,-1.85057],[120.12424,-1.85312],[120.12442,-1.85523],[120.12253,-1.85559],[120.12233,-1.85643],[120.1235,-1.85731],[120.12582,-1.85821],[120.12714,-1.85953],[120.12655,-1.86129],[120.12659,-1.86418],[120.1258,-1.86589],[120.12622,-1.8664],[120.12816,-1.8669],[120.13119,-1.87213],[120.11868,-1.87383],[120.11247,-1.87714],[120.11145,-1.87829],[120.11116,-1.87983],[120.10772,-1.88188],[120.10218,-1.88229],[120.10011,-1.88477],[120.10003,-1.88561],[120.09809,-1.88755],[120.09768,-1.89123],[120.09451,-1.89301],[120.09342,-1.89314],[120.09158,-1.89273],[120.08812,-1.89073],[120.08601,-1.89067],[120.08604,-1.89015],[120.08319,-1.89052],[120.08178,-1.88959],[120.0804,-1.89003],[120.07954,-1.8884],[120.07721,-1.88647],[120.0771,-1.88462],[120.07617,-1.88345],[120.07451,-1.88539],[120.07311,-1.88577],[120.07281,-1.88521],[120.07239,-1.88526],[120.07129,-1.88601],[120.07013,-1.886],[120.06888,-1.88502],[120.06685,-1.88469],[120.06523,-1.88336],[120.06334,-1.88322],[120.06154,-1.88179],[120.06098,-1.88067],[120.05957,-1.88059],[120.05896,-1.88074],[120.05781,-1.88264],[120.05505,-1.88339],[120.05416,-1.88115],[120.05419,-1.87875],[120.05535,-1.87796],[120.05557,-1.87554],[120.05459,-1.87346],[120.05239,-1.87288],[120.05231,-1.87223],[120.05157,-1.87158],[120.05131,-1.87198],[120.04929,-1.87108],[120.04897,-1.86956],[120.04933,-1.86901],[120.04777,-1.86578],[120.04322,-1.86522],[120.04188,-1.86238],[120.0434,-1.85926],[120.04274,-1.85641],[120.04104,-1.85619],[120.03966,-1.85526],[120.03722,-1.85503],[120.03582,-1.85372],[120.03633,-1.85195],[120.04086,-1.84714],[120.04049,-1.84539],[120.04244,-1.84431],[120.04488,-1.8444],[120.04568,-1.84364],[120.04581,-1.84286],[120.04521,-1.84119],[120.04639,-1.83847],[120.04655,-1.83577],[120.04741,-1.83566],[120.04815,-1.83505],[120.04983,-1.83306],[120.05109,-1.83049],[120.05315,-1.82853],[120.05402,-1.8289],[120.05538,-1.8277],[120.06004,-1.82633],[120.05717,-1.82272],[120.05678,-1.82154],[120.0557,-1.82074],[120.05561,-1.81922],[120.05631,-1.81776],[120.05637,-1.81542],[120.05853,-1.81208],[120.05987,-1.81105],[120.06149,-1.81175],[120.06703,-1.81087],[120.0689,-1.80853],[120.07063,-1.80796],[120.07603,-1.80837],[120.08064,-1.8073],[120.08112,-1.80361],[120.08066,-1.80048],[120.08456,-1.79657],[120.08481,-1.79584],[120.08438,-1.79445],[120.08493,-1.79299],[120.08728,-1.79064],[120.08792,-1.78912],[120.08715,-1.78752],[120.08695,-1.78526],[120.08597,-1.78365],[120.0865,-1.78037],[120.08494,-1.77958],[120.08436,-1.77879],[120.08254,-1.77401],[120.08148,-1.76973],[120.07832,-1.7679],[120.07749,-1.76615],[120.07752,-1.76259],[120.07454,-1.76077],[120.07201,-1.75729],[120.07225,-1.75589],[120.07388,-1.754],[120.07404,-1.75299],[120.07237,-1.75105],[120.07087,-1.75],[120.07052,-1.74801],[120.07061,-1.74756],[120.07196,-1.74723],[120.073,-1.74627],[120.07399,-1.74221],[120.0736,-1.74101],[120.07222,-1.73987],[120.0703,-1.73903],[120.0697,-1.73776],[120.07056,-1.73681],[120.07218,-1.73602],[120.07262,-1.73505],[120.07185,-1.73198],[120.07007,-1.72867],[120.07014,-1.72687],[120.07087,-1.72559],[120.07008,-1.72386],[120.07005,-1.72275],[120.0717,-1.72228],[120.07295,-1.72083],[120.07179,-1.71579],[120.06967,-1.71297],[120.06622,-1.70941],[120.06504,-1.70701],[120.06052,-1.70327],[120.0632,-1.69769],[120.06314,-1.69658],[120.06141,-1.69356],[120.06155,-1.68992],[120.05791,-1.68779],[120.05732,-1.68553],[120.05728,-1.68331],[120.05622,-1.68182],[120.05614,-1.68033],[120.05545,-1.67912],[120.05346,-1.67718],[120.05304,-1.67251],[120.04908,-1.66654],[120.04804,-1.66425],[120.04704,-1.66359],[120.0463,-1.66377],[120.045,-1.66671],[120.04457,-1.66906],[120.0448,-1.67308],[120.04229,-1.67769],[120.0416,-1.68075],[120.03963,-1.68196],[120.03788,-1.68473],[120.03462,-1.68797],[120.03268,-1.68793],[120.03126,-1.68862],[120.02956,-1.68774],[120.0273,-1.68743],[120.02524,-1.68595],[120.02432,-1.68598],[120.02277,-1.68699],[120.02172,-1.68701],[120.01968,-1.68437],[120.01731,-1.68252],[120.01121,-1.6801],[120.01022,-1.67881],[120.00749,-1.6772],[120.00717,-1.67678],[120.0073,-1.67511],[120.00556,-1.67267],[120.00555,-1.6706],[120.00219,-1.66768],[120.00241,-1.66582],[120.00378,-1.66412],[120.00398,-1.66296],[120.00382,-1.66148],[120.00299,-1.66053],[120.00223,-1.65812],[120.0008,-1.65669],[119.99628,-1.65361],[119.98823,-1.65083],[119.98762,-1.65083],[119.98666,-1.65156],[119.98457,-1.65156],[119.98304,-1.65267],[119.98118,-1.65227],[119.97895,-1.65313],[119.9732,-1.6572],[119.97035,-1.66049],[119.9671,-1.66342],[119.96338,-1.66483],[119.96011,-1.66718],[119.95724,-1.66763],[119.95382,-1.6667],[119.95231,-1.66668],[119.949,-1.66766],[119.94698,-1.6708],[119.94442,-1.67332],[119.94267,-1.67439],[119.94057,-1.67412],[119.93581,-1.67461],[119.93062,-1.67353],[119.92447,-1.67521],[119.9226,-1.67493],[119.92083,-1.67259],[119.92034,-1.66957],[119.91735,-1.65965],[119.92169,-1.65506],[119.92776,-1.65289],[119.93122,-1.65011],[119.93195,-1.65064],[119.93671,-1.64744],[119.93812,-1.64599],[119.93925,-1.64399],[119.93911,-1.6428],[119.93738,-1.64078],[119.9367,-1.63867],[119.93811,-1.63688],[119.93859,-1.63398],[119.93939,-1.63322],[119.93639,-1.63199],[119.93461,-1.63021],[119.93171,-1.62861],[119.92808,-1.62265],[119.9271,-1.61793],[119.92693,-1.61661],[119.92762,-1.61276],[119.92918,-1.6072],[119.93075,-1.60476],[119.9336,-1.60214],[119.93734,-1.60114],[119.96491,-1.59706],[119.96862,-1.59617],[119.97512,-1.592],[119.98036,-1.58951],[119.98274,-1.58795],[119.98814,-1.58169],[119.99459,-1.57589],[119.99897,-1.56908],[120.00052,-1.56769],[120.00303,-1.56843],[120.00521,-1.56784],[120.00814,-1.56867],[120.01295,-1.5688],[120.01851,-1.57034],[120.02858,-1.57168],[120.03695,-1.57196],[120.03827,-1.57155],[120.03874,-1.56616],[120.04076,-1.56104],[120.04247,-1.55978],[120.04862,-1.55768],[120.05824,-1.55568],[120.06111,-1.55578],[120.06454,-1.5575],[120.06759,-1.56125],[120.07131,-1.56432],[120.07572,-1.56622],[120.07954,-1.56664],[120.07993,-1.56663],[120.08058,-1.56459],[120.08133,-1.56358],[120.08195,-1.56306],[120.08328,-1.56285],[120.08532,-1.56096],[120.0896,-1.56062],[120.09103,-1.55987],[120.0947,-1.56054],[120.09581,-1.55931],[120.09932,-1.55789],[120.0998,-1.55686],[120.10083,-1.55666]]]]}},{"type":"Feature","properties":{"NAMOBJ":"Kulawi","KODE_KAB":"7210"},"geometry":{"type":"MultiPolygon","coordinates":[[[[120.01445,-1.33298],[120.01263,-1.3363],[120.01173,-1.34031],[120.01427,-1.35308],[120.01514,-1.35584],[120.01516,-1.35743],[120.01318,-1.36055],[120.01279,-1.36204],[120.0077,-1.3675],[120.00687,-1.36908],[120.00679,-1.37301],[120.0077,-1.375],[120.00885,-1.37634],[120.01503,-1.38115],[120.01772,-1.38432],[120.01851,-1.3859],[120.02119,-1.39413],[120.02051,-1.40176],[120.02072,-1.40615],[120.02229,-1.41222],[120.02401,-1.41345],[120.02481,-1.4154],[120.0277,-1.4165],[120.02985,-1.41671],[120.03143,-1.41769],[120.03244,-1.41783],[120.03311,-1.41886],[120.0348,-1.41986],[120.03668,-1.42214],[120.04322,-1.42606],[120.04982,-1.43158],[120.06152,-1.43849],[120.06619,-1.44055],[120.09312,-1.45052],[120.0993,-1.45485],[120.10459,-1.46593],[120.10795,-1.47661],[120.10938,-1.48003],[120.11114,-1.48285],[120.11354,-1.48623],[120.12872,-1.50072],[120.12842,-1.50335],[120.12402,-1.50482],[120.12327,-1.50542],[120.12267,-1.50694],[120.12054,-1.50857],[120.12033,-1.51073],[120.11871,-1.51314],[120.11888,-1.51564],[120.11828,-1.51794],[120.11669,-1.51924],[120.11448,-1.52219],[120.1119,-1.52402],[120.10278,-1.53342],[120.09691,-1.53555],[120.09698,-1.53765],[120.09488,-1.54041],[120.09469,-1.54598],[120.09546,-1.54906],[120.09757,-1.55059],[120.09873,-1.55232],[120.09873,-1.55521],[120.10007,-1.55579],[120.10083,-1.55666],[120.0998,-1.55686],[120.09932,-1.55789],[120.09581,-1.55931],[120.0947,-1.56054],[120.09103,-1.55987],[120.0896,-1.56062],[120.08532,-1.56096],[120.08328,-1.56285],[120.08195,-1.56306],[120.08133,-1.56358],[120.08058,-1.56459],[120.07993,-1.56663],[120.07954,-1.56664],[120.07572,-1.56622],[120.07131,-1.56432],[120.06759,-1.56125],[120.06454,-1.5575],[120.06111,-1.55578],[120.05824,-1.55568],[120.04862,-1.55768],[120.04247,-1.55978],[120.04076,-1.56104],[120.03874,-1.56616],[120.03827,-1.57155],[120.03695,-1.57196],[120.02858,-1.57168],[120.01851,-1.57034],[120.01295,-1.5688],[120.00814,-1.56867],[120.00521,-1.56784],[120.00303,-1.56843],[120.00148,-1.56776],[120,-1.56783],[119.99523,-1.57517],[119.98814,-1.58169],[119.98274,-1.58795],[119.98036,-1.58951],[119.97512,-1.592],[119.96862,-1.59617],[119.96491,-1.59706],[119.93734,-1.60114],[119.9336,-1.60214],[119.93075,-1.60476],[119.92918,-1.6072],[119.92762,-1.61276],[119.92693,-1.61661],[119.9271,-1.61793],[119.9252,-1.61801],[119.91833,-1.62153],[119.91192,-1.62208],[119.90799,-1.62107],[119.90556,-1.62111],[119.90201,-1.62009],[119.89976,-1.61842],[119.89775,-1.61516],[119.89653,-1.61647],[119.89132,-1.62029],[119.89044,-1.62184],[119.8902,-1.6241],[119.88973,-1.625],[119.8858,-1.62681],[119.88483,-1.62764],[119.88442,-1.63056],[119.88177,-1.63178],[119.88028,-1.63204],[119.87938,-1.63549],[119.87755,-1.63759],[119.87611,-1.63861],[119.87345,-1.63858],[119.8703,-1.64026],[119.86678,-1.64041],[119.8648,-1.64274],[119.86352,-1.64349],[119.86079,-1.64783],[119.85796,-1.65012],[119.85041,-1.64978],[119.84809,-1.6485],[119.84724,-1.64753],[119.84702,-1.64642],[119.84773,-1.64132],[119.84637,-1.63925],[119.84505,-1.63837],[119.8415,-1.63773],[119.83841,-1.63848],[119.83302,-1.63833],[119.81961,-1.63133],[119.81549,-1.63031],[119.81567,-1.63212],[119.81411,-1.63617],[119.81319,-1.63732],[119.81312,-1.6382],[119.81388,-1.63905],[119.81442,-1.64085],[119.81732,-1.64386],[119.81747,-1.64599],[119.81885,-1.64743],[119.82039,-1.64791],[119.82198,-1.65001],[119.82264,-1.65163],[119.82274,-1.65327],[119.82173,-1.65408],[119.82118,-1.65575],[119.82068,-1.6586],[119.82078,-1.66468],[119.82022,-1.66608],[119.8206,-1.67042],[119.82113,-1.6717],[119.82088,-1.67529],[119.82138,-1.67637],[119.82249,-1.6773],[119.8225,-1.67796],[119.82093,-1.68144],[119.81946,-1.68309],[119.81838,-1.68763],[119.81727,-1.6893],[119.81732,-1.69102],[119.81651,-1.69231],[119.81633,-1.69431],[119.8159,-1.69487],[119.81605,-1.69682],[119.82137,-1.70525],[119.82264,-1.70645],[119.82214,-1.70755],[119.82253,-1.70891],[119.82549,-1.71106],[119.8264,-1.71327],[119.82526,-1.71639],[119.82179,-1.72151],[119.81908,-1.72404],[119.81675,-1.7274],[119.8162,-1.72908],[119.81382,-1.73127],[119.81117,-1.73725],[119.81082,-1.73976],[119.80917,-1.74251],[119.80667,-1.74269],[119.80222,-1.74536],[119.79932,-1.74509],[119.79894,-1.74572],[119.79636,-1.74403],[119.79635,-1.74283],[119.79515,-1.74127],[119.79551,-1.73876],[119.79497,-1.73688],[119.79488,-1.73328],[119.794,-1.728],[119.79233,-1.72553],[119.79341,-1.72315],[119.79285,-1.72164],[119.79386,-1.72025],[119.79388,-1.71957],[119.79582,-1.71846],[119.79572,-1.71697],[119.79387,-1.71618],[119.7935,-1.71551],[119.7949,-1.71412],[119.79536,-1.71273],[119.79516,-1.71036],[119.79581,-1.70905],[119.79509,-1.70775],[119.7909,-1.70506],[119.79095,-1.70435],[119.78805,-1.70274],[119.78607,-1.69977],[119.78481,-1.69938],[119.78379,-1.69819],[119.78028,-1.69684],[119.78153,-1.69571],[119.7812,-1.69479],[119.78159,-1.69194],[119.78082,-1.69111],[119.78015,-1.68865],[119.77859,-1.68941],[119.77685,-1.68729],[119.77255,-1.68553],[119.76999,-1.68273],[119.76558,-1.67988],[119.76554,-1.67941],[119.76434,-1.67841],[119.76388,-1.67586],[119.76191,-1.67451],[119.76118,-1.67058],[119.75937,-1.66849],[119.76015,-1.66649],[119.76043,-1.66426],[119.76035,-1.66196],[119.75963,-1.6589],[119.75822,-1.65776],[119.75598,-1.65716],[119.75342,-1.65541],[119.75102,-1.65262],[119.75101,-1.64481],[119.75033,-1.64312],[119.74848,-1.64295],[119.74474,-1.64356],[119.74333,-1.64277],[119.73913,-1.64197],[119.73345,-1.64227],[119.7321,-1.64163],[119.73101,-1.64011],[119.73008,-1.64028],[119.72928,-1.63986],[119.72812,-1.63784],[119.72748,-1.63638],[119.72818,-1.63548],[119.72766,-1.63406],[119.72782,-1.63274],[119.7287,-1.63183],[119.72858,-1.63058],[119.72916,-1.62894],[119.72842,-1.62814],[119.72907,-1.62747],[119.72886,-1.62628],[119.73014,-1.62484],[119.72953,-1.62274],[119.73064,-1.62062],[119.7335,-1.61766],[119.73569,-1.61386],[119.73421,-1.61089],[119.73402,-1.60691],[119.7335,-1.60493],[119.73288,-1.60424],[119.72813,-1.60234],[119.72774,-1.6008],[119.7267,-1.59922],[119.72549,-1.59843],[119.72068,-1.59715],[119.71642,-1.59281],[119.71531,-1.59218],[119.71322,-1.58731],[119.71085,-1.58523],[119.7097,-1.58243],[119.70958,-1.57943],[119.70998,-1.57682],[119.70898,-1.57545],[119.70415,-1.57365],[119.70362,-1.57303],[119.70382,-1.57127],[119.70296,-1.56985],[119.70338,-1.56848],[119.70244,-1.56808],[119.70108,-1.56578],[119.69964,-1.56494],[119.69786,-1.56592],[119.69444,-1.56474],[119.692,-1.56484],[119.6897,-1.56285],[119.689,-1.56021],[119.68963,-1.5587],[119.68731,-1.55606],[119.68704,-1.55451],[119.68252,-1.55173],[119.67816,-1.55061],[119.67758,-1.55008],[119.67704,-1.54844],[119.67344,-1.5471],[119.67119,-1.54417],[119.67122,-1.54248],[119.67291,-1.54075],[119.67384,-1.53749],[119.67377,-1.53578],[119.6731,-1.53399],[119.67013,-1.53404],[119.66769,-1.5328],[119.66727,-1.53198],[119.66714,-1.5272],[119.66642,-1.52561],[119.66847,-1.52373],[119.66911,-1.5204],[119.6701,-1.51878],[119.67028,-1.51311],[119.67203,-1.51086],[119.67278,-1.50666],[119.67388,-1.50453],[119.67491,-1.50356],[119.67628,-1.50078],[119.68072,-1.49563],[119.68037,-1.49477],[119.68009,-1.49031],[119.68118,-1.4886],[119.68537,-1.48456],[119.68643,-1.48089],[119.68623,-1.479],[119.68658,-1.47737],[119.68831,-1.4751],[119.69335,-1.47272],[119.69368,-1.47124],[119.69273,-1.46887],[119.6926,-1.46701],[119.69341,-1.46575],[119.69464,-1.46522],[119.6959,-1.46401],[119.69637,-1.46207],[119.70034,-1.45907],[119.70102,-1.45709],[119.69909,-1.45528],[119.69813,-1.45344],[119.69762,-1.45138],[119.69673,-1.45024],[119.6913,-1.44925],[119.68605,-1.45012],[119.68502,-1.44901],[119.6855,-1.44542],[119.68342,-1.44093],[119.68437,-1.4395],[119.68729,-1.43746],[119.68757,-1.43588],[119.68921,-1.43236],[119.6929,-1.42953],[119.69457,-1.429],[119.697,-1.4292],[119.69915,-1.42836],[119.70241,-1.4261],[119.70349,-1.42484],[119.70375,-1.42325],[119.70687,-1.41894],[119.71268,-1.417],[119.71485,-1.41902],[119.71803,-1.42033],[119.71987,-1.42214],[119.72069,-1.4239],[119.72236,-1.42413],[119.72349,-1.42512],[119.72659,-1.42442],[119.72925,-1.42485],[119.73267,-1.42423],[119.73889,-1.42219],[119.75243,-1.41658],[119.75431,-1.41446],[119.75533,-1.41222],[119.75942,-1.40968],[119.76063,-1.40744],[119.76078,-1.40489],[119.77129,-1.40227],[119.77774,-1.39729],[119.78442,-1.3986],[119.78681,-1.4],[119.78959,-1.40072],[119.79383,-1.40075],[119.7958,-1.40025],[119.79786,-1.40093],[119.79938,-1.40234],[119.80377,-1.40052],[119.80579,-1.4005],[119.80965,-1.39793],[119.81279,-1.39747],[119.81443,-1.39662],[119.81608,-1.3963],[119.81897,-1.39394],[119.82236,-1.39294],[119.83307,-1.38667],[119.83319,-1.37156],[119.84076,-1.37638],[119.8445,-1.37725],[119.84621,-1.37725],[119.84949,-1.37839],[119.85172,-1.37995],[119.8539,-1.38076],[119.85581,-1.38106],[119.86686,-1.38062],[119.87413,-1.37844],[119.88938,-1.37024],[119.89204,-1.36927],[119.89783,-1.36923],[119.9033,-1.37044],[119.90658,-1.36967],[119.91145,-1.37],[119.91645,-1.36844],[119.9172,-1.36692],[119.91898,-1.36645],[119.91949,-1.36384],[119.92106,-1.36287],[119.92259,-1.3625],[119.9253,-1.36041],[119.93018,-1.35838],[119.93324,-1.35809],[119.93524,-1.35839],[119.9356,-1.35776],[119.93557,-1.35635],[119.93797,-1.35467],[119.94067,-1.35022],[119.9454,-1.34796],[119.94795,-1.34546],[119.94966,-1.34435],[119.95539,-1.34254],[119.9575,-1.33975],[119.96512,-1.33435],[119.96929,-1.33521],[119.97117,-1.33491],[119.97895,-1.33607],[119.9974,-1.33342],[120.00246,-1.33214],[120.00442,-1.33233],[120.0083,-1.33411],[120.01268,-1.334],[120.01445,-1.33298]]]]}},{"type":"Feature","properties":{"NAMOBJ":"Lindu","KODE_KAB":"7210"},"geometry":{"type":"MultiPolygon","coordinates":[[[[120.15034,-1.23922],[120.15241,-1.24074],[120.15477,-1.24682],[120.15521,-1.24925],[120.15741,-1.25256],[120.16558,-1.26095],[120.16977,-1.26735],[120.17771,-1.27749],[120.1808,-1.2808],[120.18566,-1.28367],[120.19842,-1.29466],[120.20504,-1.30203],[120.20541,-1.3046],[120.20541,-1.31786],[120.2021,-1.32043],[120.20063,-1.32301],[120.20063,-1.32743],[120.19879,-1.33001],[120.19437,-1.33111],[120.19069,-1.337],[120.18185,-1.34216],[120.17559,-1.34473],[120.17081,-1.3451],[120.16712,-1.34621],[120.16418,-1.35026],[120.15829,-1.35394],[120.15387,-1.35762],[120.14908,-1.35983],[120.14687,-1.36351],[120.13988,-1.36461],[120.13693,-1.36719],[120.13362,-1.37087],[120.12994,-1.37345],[120.12847,-1.37897],[120.12773,-1.38634],[120.12626,-1.39112],[120.12552,-1.39517],[120.12552,-1.40106],[120.12221,-1.40879],[120.1211,-1.41689],[120.1211,-1.42058],[120.12037,-1.42352],[120.11705,-1.42831],[120.11558,-1.43567],[120.11484,-1.44193],[120.11374,-1.44635],[120.1119,-1.44856],[120.11153,-1.45555],[120.11043,-1.46291],[120.11043,-1.46733],[120.11632,-1.4758],[120.12184,-1.48685],[120.12923,-1.49643],[120.12872,-1.50072],[120.11354,-1.48623],[120.11114,-1.48285],[120.10938,-1.48003],[120.10795,-1.47661],[120.10459,-1.46593],[120.0993,-1.45485],[120.09312,-1.45052],[120.06619,-1.44055],[120.06152,-1.43849],[120.04982,-1.43158],[120.04322,-1.42606],[120.03668,-1.42214],[120.0348,-1.41986],[120.03311,-1.41886],[120.03244,-1.41783],[120.03143,-1.41769],[120.02985,-1.41671],[120.02589,-1.41598],[120.02454,-1.41516],[120.02401,-1.41345],[120.02229,-1.41222],[120.02103,-1.40808],[120.02051,-1.40176],[120.02119,-1.39413],[120.01851,-1.3859],[120.01571,-1.38183],[120.00885,-1.37634],[120.0077,-1.375],[120.00679,-1.37301],[120.00687,-1.36908],[120.0077,-1.3675],[120.01279,-1.36204],[120.01318,-1.36055],[120.01489,-1.35806],[120.01527,-1.35666],[120.01172,-1.33973],[120.01263,-1.3363],[120.01445,-1.33298],[120.01673,-1.32695],[120.01644,-1.32424],[120.01466,-1.31673],[120.0143,-1.3099],[120.01453,-1.30802],[120.01681,-1.30273],[120.02378,-1.28997],[120.02634,-1.27969],[120.02738,-1.27808],[120.03159,-1.27411],[120.03521,-1.26958],[120.03675,-1.26839],[120.0386,-1.26802],[120.04691,-1.27065],[120.04878,-1.27086],[120.04965,-1.27058],[120.05431,-1.26708],[120.05704,-1.2631],[120.06309,-1.25686],[120.0641,-1.25525],[120.06583,-1.25071],[120.06754,-1.24815],[120.07238,-1.24784],[120.07309,-1.24736],[120.07398,-1.24441],[120.07466,-1.24401],[120.08049,-1.24474],[120.08623,-1.24445],[120.09084,-1.2426],[120.09838,-1.24116],[120.10529,-1.23777],[120.10807,-1.23696],[120.10991,-1.23717],[120.11304,-1.2395],[120.11394,-1.23976],[120.11587,-1.23938],[120.11759,-1.23851],[120.12184,-1.23211],[120.12912,-1.22735],[120.13003,-1.22724],[120.13195,-1.22782],[120.13563,-1.23092],[120.14039,-1.23071],[120.14203,-1.23179],[120.14577,-1.23244],[120.14868,-1.23498],[120.14963,-1.23666],[120.15034,-1.23922]]]]}},{"type":"Feature","properties":{"NAMOBJ":"Nokilalaki","KODE_KAB":"7210"},"geometry":{"type":"MultiPolygon","coordinates":[[[[120.15401,-1.18843],[120.14838,-1.18943],[120.14207,-1.19376],[120.13735,-1.1977],[120.13735,-1.20519],[120.1405,-1.21228],[120.14365,-1.22213],[120.15106,-1.23757],[120.15034,-1.23922],[120.14963,-1.23666],[120.14868,-1.23498],[120.14577,-1.23244],[120.14203,-1.23179],[120.14039,-1.23071],[120.13563,-1.23092],[120.13275,-1.22831],[120.13003,-1.22724],[120.12745,-1.22818],[120.12184,-1.23211],[120.11759,-1.23851],[120.11587,-1.23938],[120.11394,-1.23976],[120.11304,-1.2395],[120.10991,-1.23717],[120.10711,-1.23713],[120.09838,-1.24116],[120.09084,-1.2426],[120.08623,-1.24445],[120.08049,-1.24474],[120.07466,-1.24401],[120.07398,-1.24441],[120.07309,-1.24736],[120.07238,-1.24784],[120.06754,-1.24815],[120.06522,-1.24353],[120.06126,-1.23907],[120.06213,-1.23402],[120.0605,-1.2308],[120.05983,-1.2282],[120.06063,-1.22648],[120.06098,-1.22409],[120.06201,-1.22282],[120.0634,-1.21926],[120.0649,-1.2182],[120.06602,-1.21647],[120.06552,-1.21419],[120.06653,-1.21244],[120.06746,-1.2118],[120.06812,-1.2094],[120.06894,-1.20896],[120.06905,-1.20656],[120.07087,-1.20501],[120.07243,-1.20231],[120.07546,-1.19945],[120.0763,-1.19791],[120.07798,-1.19734],[120.07845,-1.19668],[120.07888,-1.19402],[120.07819,-1.19113],[120.0785,-1.18967],[120.07792,-1.1879],[120.07795,-1.18621],[120.0797,-1.18186],[120.07967,-1.18097],[120.08126,-1.17853],[120.08139,-1.17688],[120.08268,-1.17521],[120.08295,-1.17396],[120.08361,-1.17348],[120.08379,-1.1715],[120.08608,-1.16917],[120.08646,-1.16808],[120.0858,-1.16673],[120.08593,-1.16566],[120.08547,-1.16414],[120.08465,-1.16385],[120.08497,-1.16318],[120.08464,-1.16192],[120.08488,-1.16155],[120.08428,-1.16043],[120.08564,-1.16],[120.08893,-1.16013],[120.08927,-1.15971],[120.08884,-1.1586],[120.08907,-1.1583],[120.09038,-1.15918],[120.09332,-1.16015],[120.09388,-1.15803],[120.09704,-1.15604],[120.09905,-1.15617],[120.10144,-1.15532],[120.1069,-1.15457],[120.10808,-1.15512],[120.10908,-1.15712],[120.11016,-1.15721],[120.11178,-1.15671],[120.11405,-1.15785],[120.1156,-1.15724],[120.11657,-1.15733],[120.11929,-1.15884],[120.1202,-1.16016],[120.12446,-1.16222],[120.125,-1.16289],[120.12612,-1.16303],[120.12825,-1.16234],[120.12981,-1.16303],[120.1311,-1.16454],[120.13158,-1.16463],[120.13256,-1.16378],[120.13335,-1.16367],[120.13724,-1.16685],[120.13658,-1.16827],[120.13814,-1.16901],[120.13854,-1.16967],[120.13737,-1.17144],[120.13946,-1.1743],[120.14049,-1.17482],[120.14075,-1.1762],[120.14169,-1.1767],[120.14215,-1.17766],[120.14375,-1.17796],[120.14449,-1.17965],[120.14531,-1.18021],[120.14657,-1.1804],[120.14763,-1.18163],[120.15274,-1.18515],[120.15327,-1.18606],[120.15326,-1.18785],[120.15401,-1.18843]]]]}},{"type":"Feature","properties":{"NAMOBJ":"Gumbasa","KODE_KAB":"7210"},"geometry":{"type":"MultiPolygon","coordinates":[[[[120.06126,-1.23907],[120.06522,-1.24353],[120.06754,-1.24815],[120.06583,-1.25071],[120.0641,-1.25525],[120.06248,-1.2576],[120.05704,-1.2631],[120.05431,-1.26708],[120.04965,-1.27058],[120.04878,-1.27086],[120.04691,-1.27065],[120.0386,-1.26802],[120.03675,-1.26839],[120.03453,-1.27028],[120.03159,-1.27411],[120.02738,-1.27808],[120.02634,-1.27969],[120.02378,-1.28997],[120.01681,-1.30273],[120.01453,-1.30802],[120.0143,-1.3099],[120.01466,-1.31673],[120.01644,-1.32424],[120.01673,-1.32695],[120.01406,-1.3334],[120.01268,-1.334],[120.0083,-1.33411],[120.00442,-1.33233],[120.00246,-1.33214],[119.9974,-1.33342],[119.97895,-1.33607],[119.97117,-1.33491],[119.96929,-1.33521],[119.96512,-1.33435],[119.9575,-1.33975],[119.95539,-1.34254],[119.94966,-1.34435],[119.94795,-1.34546],[119.9454,-1.34796],[119.94067,-1.35022],[119.93898,-1.34713],[119.9376,-1.33737],[119.93768,-1.31516],[119.93848,-1.30807],[119.93976,-1.30251],[119.93982,-1.29783],[119.94063,-1.29511],[119.94116,-1.28887],[119.94008,-1.28534],[119.93932,-1.27605],[119.94041,-1.2733],[119.9422,-1.27084],[119.94422,-1.26639],[119.94471,-1.26348],[119.94401,-1.26213],[119.94478,-1.26006],[119.94294,-1.25861],[119.9423,-1.25613],[119.94254,-1.25505],[119.94081,-1.25055],[119.93931,-1.24842],[119.93955,-1.2469],[119.9389,-1.2449],[119.93888,-1.24006],[119.93835,-1.23692],[119.9365,-1.23488],[119.93624,-1.23325],[119.93514,-1.23118],[119.9319,-1.22716],[119.93229,-1.22548],[119.93332,-1.22415],[119.93324,-1.22145],[119.93421,-1.2196],[119.93388,-1.21875],[119.93258,-1.21813],[119.93195,-1.21491],[119.93374,-1.21497],[119.9345,-1.21355],[119.93447,-1.21222],[119.93367,-1.21054],[119.9341,-1.20815],[119.93328,-1.20655],[119.93372,-1.20453],[119.93226,-1.20239],[119.93292,-1.20042],[119.93072,-1.19891],[119.92928,-1.19632],[119.92624,-1.19428],[119.92448,-1.19356],[119.92392,-1.19208],[119.92251,-1.19077],[119.92271,-1.18832],[119.91962,-1.18805],[119.91835,-1.18727],[119.91795,-1.18462],[119.91657,-1.18272],[119.91639,-1.18058],[119.91469,-1.17936],[119.91109,-1.17774],[119.91113,-1.17321],[119.9122,-1.17319],[119.91274,-1.17402],[119.93045,-1.16991],[119.93964,-1.16547],[119.94401,-1.1643],[119.94888,-1.16442],[119.95495,-1.16599],[119.95883,-1.16625],[119.96108,-1.16503],[119.96211,-1.16276],[119.96572,-1.16074],[119.96806,-1.15823],[119.97119,-1.15599],[119.97851,-1.15422],[119.97957,-1.1536],[119.98407,-1.15312],[119.98708,-1.1534],[119.98843,-1.15267],[119.9881,-1.15422],[119.98825,-1.15718],[119.99175,-1.1662],[119.99427,-1.16878],[120.00111,-1.17421],[120.0074,-1.18106],[120.00748,-1.18196],[120.0058,-1.18392],[120.00516,-1.18537],[120.00531,-1.18968],[120.00693,-1.19698],[120.0096,-1.20559],[120.01102,-1.20892],[120.01234,-1.21065],[120.0139,-1.21157],[120.02093,-1.2128],[120.02215,-1.21346],[120.02346,-1.21596],[120.02386,-1.21957],[120.02285,-1.22276],[120.0237,-1.22694],[120.02309,-1.22924],[120.0207,-1.23182],[120.01553,-1.23474],[120.0148,-1.23729],[120.01546,-1.23813],[120.01926,-1.24008],[120.02327,-1.24096],[120.03072,-1.2403],[120.03305,-1.23945],[120.03453,-1.23819],[120.03538,-1.23818],[120.03833,-1.23885],[120.04107,-1.24101],[120.04242,-1.24152],[120.0445,-1.24148],[120.05116,-1.23842],[120.05482,-1.23619],[120.0563,-1.23599],[120.05948,-1.23715],[120.06126,-1.23907]]]]}},{"type":"Feature","properties":{"NAMOBJ":"Tanambulava","KODE_KAB":"7210"},"geometry":{"type":"MultiPolygon","coordinates":[[[[119.98843,-1.15267],[119.98708,-1.1534],[119.98407,-1.15312],[119.97957,-1.1536],[119.97851,-1.15422],[119.97119,-1.15599],[119.96806,-1.15823],[119.96572,-1.16074],[119.96211,-1.16276],[119.96108,-1.16503],[119.95883,-1.16625],[119.95495,-1.16599],[119.94888,-1.16442],[119.94261,-1.16451],[119.93634,-1.16692],[119.93045,-1.16991],[119.91274,-1.17402],[119.9122,-1.17319],[119.91113,-1.17321],[119.90966,-1.16533],[119.90788,-1.16437],[119.90717,-1.16265],[119.90495,-1.16374],[119.90311,-1.16333],[119.90292,-1.16219],[119.90465,-1.15982],[119.9043,-1.15789],[119.9045,-1.15432],[119.90205,-1.15214],[119.90027,-1.14848],[119.89746,-1.14578],[119.8973,-1.14491],[119.89795,-1.14384],[119.9002,-1.14191],[119.90006,-1.14068],[119.89865,-1.13832],[119.90364,-1.13155],[119.90358,-1.13035],[119.90202,-1.12889],[119.90177,-1.12803],[119.90203,-1.12693],[119.90363,-1.12549],[119.90335,-1.12079],[119.90455,-1.11827],[119.90774,-1.11824],[119.91651,-1.11438],[119.92066,-1.11185],[119.92416,-1.11039],[119.92907,-1.10958],[119.93156,-1.11013],[119.93384,-1.10992],[119.93556,-1.10927],[119.93724,-1.10799],[119.9406,-1.10677],[119.94274,-1.10726],[119.95041,-1.10693],[119.95751,-1.10759],[119.95892,-1.10579],[119.95942,-1.10214],[119.96122,-1.10189],[119.96329,-1.10219],[119.964,-1.10148],[119.96604,-1.10243],[119.96717,-1.10141],[119.96864,-1.10091],[119.96938,-1.10013],[119.96985,-1.09869],[119.97108,-1.09815],[119.97146,-1.09967],[119.97323,-1.1018],[119.97316,-1.10488],[119.97478,-1.10863],[119.97465,-1.11418],[119.97387,-1.11571],[119.97397,-1.11744],[119.97515,-1.11857],[119.97604,-1.1213],[119.97734,-1.12311],[119.98025,-1.125],[119.98236,-1.12695],[119.98311,-1.12978],[119.98531,-1.1346],[119.98503,-1.13601],[119.98677,-1.13726],[119.9862,-1.13924],[119.98696,-1.14053],[119.98882,-1.14098],[119.9914,-1.14335],[119.99167,-1.15017],[119.99107,-1.15078],[119.98946,-1.15127],[119.98843,-1.15267]]]]}},{"type":"Feature","properties":{"NAMOBJ":"Dolo Selatan","KODE_KAB":"7210"},"geometry":{"type":"MultiPolygon","coordinates":[[[[119.8886,-1.10218],[119.89103,-1.10266],[119.89467,-1.10244],[119.89879,-1.10476],[119.90259,-1.10513],[119.90192,-1.10952],[119.90413,-1.11549],[119.90464,-1.118],[119.90335,-1.12079],[119.90363,-1.12549],[119.90203,-1.12693],[119.90178,-1.12839],[119.90375,-1.13087],[119.90331,-1.1323],[119.89865,-1.13832],[119.90006,-1.14068],[119.9002,-1.14191],[119.89795,-1.14384],[119.89729,-1.14525],[119.90027,-1.14848],[119.90205,-1.15214],[119.9045,-1.15432],[119.9043,-1.15789],[119.90465,-1.15982],[119.90292,-1.16219],[119.90311,-1.16333],[119.90495,-1.16374],[119.90717,-1.16265],[119.90788,-1.16437],[119.90966,-1.16533],[119.91128,-1.17425],[119.91109,-1.17774],[119.91618,-1.18034],[119.91671,-1.18315],[119.91803,-1.18483],[119.91835,-1.18727],[119.91962,-1.18805],[119.92271,-1.18832],[119.92251,-1.19077],[119.92392,-1.19208],[119.92448,-1.19356],[119.92624,-1.19428],[119.92928,-1.19632],[119.93072,-1.19891],[119.93292,-1.20042],[119.93226,-1.20239],[119.93372,-1.20453],[119.93328,-1.20655],[119.9341,-1.20815],[119.93367,-1.21054],[119.93447,-1.21222],[119.9345,-1.21355],[119.93374,-1.21497],[119.93195,-1.21491],[119.93258,-1.21813],[119.93388,-1.21875],[119.93421,-1.2196],[119.93324,-1.22145],[119.93332,-1.22415],[119.93229,-1.22548],[119.9319,-1.22716],[119.93514,-1.23118],[119.93624,-1.23325],[119.9365,-1.23488],[119.93835,-1.23692],[119.93888,-1.24006],[119.9389,-1.2449],[119.93955,-1.2469],[119.93931,-1.24842],[119.94081,-1.25055],[119.94254,-1.25505],[119.9423,-1.25613],[119.94294,-1.25861],[119.94478,-1.26006],[119.94401,-1.26213],[119.94471,-1.26348],[119.94422,-1.26639],[119.9422,-1.27084],[119.94041,-1.2733],[119.93932,-1.27605],[119.94008,-1.28534],[119.94116,-1.28887],[119.94063,-1.29511],[119.93982,-1.29783],[119.93976,-1.30251],[119.93848,-1.30807],[119.93768,-1.31516],[119.9376,-1.33737],[119.93898,-1.34713],[119.94067,-1.35022],[119.93797,-1.35467],[119.93557,-1.35635],[119.9356,-1.35776],[119.93524,-1.35839],[119.93324,-1.35809],[119.93018,-1.35838],[119.9253,-1.36041],[119.92259,-1.3625],[119.9198,-1.36357],[119.91915,-1.36441],[119.91898,-1.36645],[119.9172,-1.36692],[119.91662,-1.36821],[119.916,-1.3686],[119.91145,-1.37],[119.90658,-1.36967],[119.9033,-1.37044],[119.89783,-1.36923],[119.89204,-1.36927],[119.88938,-1.37024],[119.87751,-1.37679],[119.87301,-1.37888],[119.8664,-1.38071],[119.85581,-1.38106],[119.8531,-1.38051],[119.84949,-1.37839],[119.84621,-1.37725],[119.8445,-1.37725],[119.84076,-1.37638],[119.83319,-1.37156],[119.83403,-1.37095],[119.83406,-1.36951],[119.83596,-1.36963],[119.83652,-1.36796],[119.8348,-1.36727],[119.83704,-1.36474],[119.83793,-1.36486],[119.83803,-1.36453],[119.83748,-1.36411],[119.8382,-1.36367],[119.83721,-1.36288],[119.83706,-1.36136],[119.836,-1.36091],[119.83414,-1.35409],[119.834,-1.3482],[119.83326,-1.34666],[119.83346,-1.34475],[119.8319,-1.34339],[119.8313,-1.34144],[119.83012,-1.34033],[119.82829,-1.33413],[119.82829,-1.32123],[119.82741,-1.30571],[119.82572,-1.2985],[119.82938,-1.29451],[119.83077,-1.2914],[119.83118,-1.28875],[119.83088,-1.28392],[119.83016,-1.28269],[119.82862,-1.28156],[119.82726,-1.27986],[119.82561,-1.27895],[119.81864,-1.26708],[119.81832,-1.26564],[119.81884,-1.26408],[119.81693,-1.2634],[119.81672,-1.2629],[119.81728,-1.26183],[119.81537,-1.26081],[119.81405,-1.25687],[119.81544,-1.25429],[119.81305,-1.25384],[119.81225,-1.25165],[119.8108,-1.24998],[119.80998,-1.25],[119.80626,-1.24675],[119.80568,-1.24421],[119.80106,-1.23951],[119.79649,-1.23022],[119.79529,-1.22931],[119.79348,-1.22864],[119.79142,-1.22691],[119.79075,-1.22522],[119.78994,-1.22493],[119.78924,-1.22339],[119.78721,-1.22093],[119.78732,-1.21852],[119.78652,-1.21443],[119.78267,-1.20943],[119.78166,-1.20637],[119.77855,-1.20296],[119.77771,-1.20078],[119.77743,-1.19796],[119.77511,-1.19533],[119.77696,-1.19171],[119.77787,-1.19069],[119.77979,-1.18907],[119.7854,-1.186],[119.78594,-1.18519],[119.78594,-1.18386],[119.78535,-1.18274],[119.78481,-1.17967],[119.78485,-1.17642],[119.78573,-1.1736],[119.78646,-1.1731],[119.78903,-1.17262],[119.78912,-1.17126],[119.78954,-1.17097],[119.7878,-1.16501],[119.78773,-1.16339],[119.78854,-1.16156],[119.78918,-1.16126],[119.78994,-1.16005],[119.79047,-1.15721],[119.79315,-1.15116],[119.79458,-1.14977],[119.79518,-1.14846],[119.798,-1.14564],[119.80212,-1.14239],[119.80388,-1.14023],[119.80414,-1.13927],[119.8035,-1.13606],[119.80189,-1.1338],[119.80125,-1.13342],[119.79873,-1.13327],[119.79477,-1.13144],[119.79413,-1.13047],[119.79429,-1.12757],[119.79391,-1.12412],[119.79433,-1.11752],[119.7954,-1.11429],[119.79748,-1.11095],[119.79754,-1.11009],[119.79721,-1.10735],[119.79619,-1.10471],[119.79604,-1.10217],[119.79806,-1.09896],[119.79979,-1.09404],[119.80536,-1.09574],[119.81221,-1.09671],[119.81657,-1.09829],[119.81855,-1.09798],[119.82239,-1.09941],[119.82349,-1.10019],[119.82532,-1.10062],[119.82584,-1.1018],[119.82713,-1.10305],[119.82953,-1.10282],[119.83813,-1.10698],[119.83908,-1.10796],[119.84114,-1.10809],[119.84249,-1.10946],[119.84432,-1.10988],[119.84645,-1.10928],[119.84959,-1.10933],[119.85347,-1.10761],[119.85516,-1.10757],[119.85632,-1.10649],[119.85733,-1.10641],[119.85827,-1.10578],[119.86161,-1.10519],[119.86289,-1.10556],[119.86584,-1.10533],[119.86689,-1.10448],[119.86733,-1.10312],[119.86954,-1.10214],[119.87033,-1.10086],[119.87147,-1.10057],[119.87251,-1.10103],[119.87342,-1.10795],[119.8743,-1.10805],[119.87443,-1.10898],[119.87813,-1.10877],[119.87971,-1.10735],[119.88157,-1.10727],[119.88161,-1.10496],[119.88602,-1.10504],[119.88748,-1.1056],[119.88994,-1.10501],[119.8886,-1.10218]]]]}},{"type":"Feature","properties":{"NAMOBJ":"Dolo","KODE_KAB":"7210"},"geometry":{"type":"MultiPolygon","coordinates":[[[[119.8414,-1.01881],[119.84181,-1.01918],[119.84181,-1.02208],[119.84114,-1.02317],[119.83901,-1.02412],[119.83614,-1.02447],[119.83515,-1.0259],[119.83434,-1.02629],[119.83144,-1.02581],[119.83105,-1.02447],[119.83252,-1.02251],[119.83215,-1.02034],[119.83779,-1.01884],[119.84041,-1.01849],[119.8414,-1.01881]]],[[[119.90297,-0.98499],[119.90515,-0.98593],[119.907,-0.98624],[119.90742,-0.98715],[119.90852,-0.98669],[119.90921,-0.98727],[119.9098,-0.98703],[119.91029,-0.98759],[119.91146,-0.98741],[119.91435,-0.98855],[119.91494,-0.99928],[119.91581,-1.00086],[119.91762,-1.00117],[119.91928,-1.00267],[119.91945,-1.00829],[119.92163,-1.00908],[119.91918,-1.01553],[119.91792,-1.02431],[119.91858,-1.02774],[119.91718,-1.03291],[119.91561,-1.03295],[119.91205,-1.03218],[119.91001,-1.03296],[119.90643,-1.03333],[119.90427,-1.03487],[119.90433,-1.04452],[119.90523,-1.04783],[119.90679,-1.04971],[119.90871,-1.0554],[119.90688,-1.05584],[119.89544,-1.06142],[119.89372,-1.06015],[119.89248,-1.06184],[119.89193,-1.06206],[119.8904,-1.06206],[119.88853,-1.06136],[119.88622,-1.06243],[119.88516,-1.06249],[119.88475,-1.06133],[119.88526,-1.06013],[119.88746,-1.05933],[119.88817,-1.0585],[119.88879,-1.05449],[119.88817,-1.05348],[119.8859,-1.05335],[119.88497,-1.0528],[119.88469,-1.05022],[119.88369,-1.04789],[119.88442,-1.04696],[119.88651,-1.04691],[119.88697,-1.04593],[119.88244,-1.04386],[119.88133,-1.04234],[119.88177,-1.03792],[119.87959,-1.03495],[119.88083,-1.03298],[119.88088,-1.03219],[119.8805,-1.03111],[119.87796,-1.02806],[119.87861,-1.02699],[119.87973,-1.0268],[119.88035,-1.02621],[119.88045,-1.02411],[119.87995,-1.02304],[119.87938,-1.02262],[119.87826,-1.02269],[119.87617,-1.02451],[119.87518,-1.02467],[119.87367,-1.02307],[119.87326,-1.02135],[119.87367,-1.02053],[119.87534,-1.0197],[119.87516,-1.01856],[119.87394,-1.01781],[119.87242,-1.01751],[119.86868,-1.01823],[119.8676,-1.01731],[119.86768,-1.01573],[119.86922,-1.01348],[119.86937,-1.01253],[119.86883,-1.01172],[119.86692,-1.01097],[119.86647,-1.00959],[119.86715,-1.00826],[119.8703,-1.00737],[119.87093,-1.00629],[119.87081,-1.00494],[119.86997,-1.00415],[119.86804,-1.00015],[119.87028,-0.99637],[119.87061,-0.99437],[119.86977,-0.99247],[119.86667,-0.99211],[119.86622,-0.99102],[119.8687,-0.98711],[119.87147,-0.98392],[119.87971,-0.98153],[119.88283,-0.97841],[119.88556,-0.97295],[119.89062,-0.97295],[119.89413,-0.97568],[119.90179,-0.97691],[119.90187,-0.98347],[119.90297,-0.98499]]]]}},{"type":"Feature","properties":{"NAMOBJ":"Dolo Barat","KODE_KAB":"7210"},"geometry":{"type":"MultiPolygon","coordinates":[[[[119.81822,-1.01585],[119.81949,-1.01658],[119.82181,-1.01643],[119.82328,-1.0156],[119.82657,-1.01672],[119.8283,-1.01597],[119.83051,-1.01578],[119.83313,-1.0164],[119.83457,-1.01538],[119.83645,-1.01485],[119.83824,-1.01342],[119.84186,-1.01348],[119.84232,-1.01275],[119.84412,-1.01247],[119.84637,-1.01048],[119.84791,-1.0102],[119.85295,-1.0125],[119.85384,-1.01339],[119.85641,-1.01396],[119.85838,-1.01522],[119.85942,-1.01506],[119.86189,-1.01555],[119.86273,-1.01529],[119.86646,-1.01629],[119.86652,-1.01792],[119.86696,-1.01882],[119.86834,-1.01815],[119.87016,-1.01812],[119.87242,-1.01751],[119.87448,-1.01803],[119.87536,-1.01886],[119.8754,-1.01957],[119.87351,-1.02066],[119.87328,-1.02217],[119.87518,-1.02467],[119.87617,-1.02451],[119.87826,-1.02269],[119.87938,-1.02262],[119.87995,-1.02304],[119.88045,-1.02411],[119.88035,-1.02621],[119.87973,-1.0268],[119.87861,-1.02699],[119.87796,-1.02806],[119.8805,-1.03111],[119.88088,-1.03219],[119.88083,-1.03298],[119.87959,-1.03495],[119.88177,-1.03792],[119.88133,-1.04234],[119.88244,-1.04386],[119.88697,-1.04593],[119.88651,-1.04691],[119.8841,-1.04714],[119.88372,-1.04816],[119.88469,-1.05022],[119.88497,-1.0528],[119.8859,-1.05335],[119.88817,-1.05348],[119.88879,-1.05449],[119.88817,-1.0585],[119.88746,-1.05933],[119.88526,-1.06013],[119.88483,-1.06201],[119.88557,-1.06256],[119.8882,-1.0614],[119.88977,-1.0617],[119.89171,-1.066],[119.89116,-1.06666],[119.8893,-1.06684],[119.88887,-1.06768],[119.88898,-1.0688],[119.88947,-1.06922],[119.89118,-1.06926],[119.89403,-1.06864],[119.8948,-1.06895],[119.89498,-1.06944],[119.89385,-1.0723],[119.89534,-1.07495],[119.89481,-1.07607],[119.89311,-1.07716],[119.89228,-1.07838],[119.89047,-1.07888],[119.88993,-1.08058],[119.88838,-1.0807],[119.88776,-1.08168],[119.88516,-1.08332],[119.88466,-1.08552],[119.88652,-1.09075],[119.8866,-1.09224],[119.88407,-1.09263],[119.88308,-1.09348],[119.88221,-1.09639],[119.88233,-1.09709],[119.8844,-1.09983],[119.88734,-1.10201],[119.8886,-1.10218],[119.88994,-1.10501],[119.88748,-1.1056],[119.88602,-1.10504],[119.88161,-1.10496],[119.88157,-1.10727],[119.87971,-1.10735],[119.87813,-1.10877],[119.87443,-1.10898],[119.8743,-1.10805],[119.87336,-1.1078],[119.87251,-1.10103],[119.87193,-1.10057],[119.87109,-1.1006],[119.87033,-1.10086],[119.86954,-1.10214],[119.86733,-1.10312],[119.86689,-1.10448],[119.86584,-1.10533],[119.86289,-1.10556],[119.86161,-1.10519],[119.85827,-1.10578],[119.85733,-1.10641],[119.85632,-1.10649],[119.85516,-1.10757],[119.85347,-1.10761],[119.84959,-1.10933],[119.84645,-1.10928],[119.84432,-1.10988],[119.84249,-1.10946],[119.84114,-1.10809],[119.83908,-1.10796],[119.83813,-1.10698],[119.82953,-1.10282],[119.82713,-1.10305],[119.82584,-1.1018],[119.82532,-1.10062],[119.82349,-1.10019],[119.82239,-1.09941],[119.81855,-1.09798],[119.81657,-1.09829],[119.81221,-1.09671],[119.80536,-1.09574],[119.79979,-1.09404],[119.80078,-1.08859],[119.80067,-1.08751],[119.7974,-1.08586],[119.79722,-1.08518],[119.79416,-1.08224],[119.79264,-1.07762],[119.79178,-1.07714],[119.78941,-1.07689],[119.78818,-1.07625],[119.78486,-1.07023],[119.78202,-1.06619],[119.78078,-1.06092],[119.78137,-1.05608],[119.77962,-1.05222],[119.7776,-1.04605],[119.77725,-1.04269],[119.77665,-1.0416],[119.77448,-1.03998],[119.7738,-1.03811],[119.77235,-1.03632],[119.77555,-1.03499],[119.77699,-1.03305],[119.7773,-1.0313],[119.77863,-1.02817],[119.77968,-1.02742],[119.7802,-1.02613],[119.78203,-1.02601],[119.78329,-1.02508],[119.7846,-1.02558],[119.78585,-1.02553],[119.78593,-1.02439],[119.78785,-1.02287],[119.78833,-1.02119],[119.79081,-1.01887],[119.79244,-1.01434],[119.79488,-1.01299],[119.79654,-1.01087],[119.79836,-1.00976],[119.80081,-1.00985],[119.80348,-1.00829],[119.80613,-1.00887],[119.80993,-1.00846],[119.81177,-1.01145],[119.8148,-1.01435],[119.81577,-1.0145],[119.81822,-1.01585]],[[119.8414,-1.01881],[119.84041,-1.01849],[119.83779,-1.01884],[119.83215,-1.02034],[119.83252,-1.02251],[119.83105,-1.02447],[119.83144,-1.02581],[119.83434,-1.02629],[119.83515,-1.0259],[119.83614,-1.02447],[119.83901,-1.02412],[119.84114,-1.02317],[119.84181,-1.02208],[119.84181,-1.01918],[119.8414,-1.01881]]]]}},{"type":"Feature","properties":{"NAMOBJ":"Palolo","KODE_KAB":"7210"},"geometry":{"type":"MultiPolygon","coordinates":[[[[120.15192,-1.23947],[120.15241,-1.24074],[120.15034,-1.23922],[120.15106,-1.23757],[120.15192,-1.23947]]],[[[120.06465,-0.97409],[120.0667,-0.97517],[120.06781,-0.97629],[120.06925,-0.98099],[120.07005,-0.98229],[120.07259,-0.98328],[120.07331,-0.98397],[120.07331,-0.98976],[120.07124,-0.99427],[120.07267,-0.99589],[120.07373,-1.00034],[120.07511,-1.00167],[120.07628,-1.00366],[120.07409,-1.01023],[120.07905,-1.01236],[120.07876,-1.0136],[120.07815,-1.01362],[120.07778,-1.01513],[120.07881,-1.01604],[120.08009,-1.01654],[120.08161,-1.01641],[120.08244,-1.01692],[120.08417,-1.01612],[120.08963,-1.01746],[120.09109,-1.01858],[120.09159,-1.02034],[120.09211,-1.02045],[120.09376,-1.02415],[120.09479,-1.02479],[120.09602,-1.02434],[120.09676,-1.02315],[120.09784,-1.02294],[120.0996,-1.02465],[120.10122,-1.02476],[120.10295,-1.02345],[120.10469,-1.02077],[120.10618,-1.02059],[120.10759,-1.01967],[120.111,-1.0198],[120.11181,-1.02015],[120.1129,-1.021],[120.11455,-1.02703],[120.11495,-1.03246],[120.11992,-1.03655],[120.12301,-1.04008],[120.12732,-1.04158],[120.12882,-1.04435],[120.1302,-1.04468],[120.13191,-1.04576],[120.13383,-1.04569],[120.13508,-1.04494],[120.13758,-1.04425],[120.13931,-1.04266],[120.14046,-1.04326],[120.14188,-1.04477],[120.14721,-1.04643],[120.15193,-1.04916],[120.15349,-1.05076],[120.15817,-1.05274],[120.16094,-1.05269],[120.16426,-1.05038],[120.16931,-1.05405],[120.17053,-1.05737],[120.17255,-1.05868],[120.17528,-1.0597],[120.17733,-1.06147],[120.17963,-1.06488],[120.18296,-1.06715],[120.18462,-1.06756],[120.18882,-1.06725],[120.19287,-1.06816],[120.19687,-1.06782],[120.19762,-1.06735],[120.19887,-1.065],[120.19987,-1.06496],[120.20228,-1.05732],[120.20418,-1.05906],[120.20498,-1.06134],[120.20848,-1.06388],[120.21664,-1.06658],[120.21644,-1.07088],[120.21735,-1.07585],[120.22118,-1.07936],[120.22298,-1.08204],[120.22655,-1.08559],[120.22789,-1.08726],[120.22931,-1.0905],[120.22893,-1.09363],[120.22375,-1.1038],[120.22421,-1.1069],[120.22592,-1.11098],[120.22603,-1.11395],[120.22472,-1.11453],[120.22212,-1.11782],[120.2235,-1.12163],[120.22535,-1.12301],[120.22593,-1.12675],[120.22713,-1.12926],[120.22956,-1.13116],[120.23468,-1.13341],[120.23772,-1.13552],[120.23922,-1.13608],[120.24044,-1.13598],[120.24607,-1.13371],[120.25043,-1.13332],[120.25219,-1.13633],[120.25409,-1.13715],[120.25686,-1.14194],[120.25812,-1.14335],[120.25933,-1.14349],[120.26057,-1.14223],[120.26668,-1.1515],[120.2698,-1.15752],[120.27075,-1.16076],[120.27802,-1.16504],[120.27337,-1.16593],[120.26856,-1.16776],[120.26462,-1.16854],[120.26186,-1.17012],[120.25634,-1.17091],[120.24846,-1.17091],[120.2457,-1.17406],[120.24098,-1.17564],[120.2327,-1.17564],[120.22718,-1.178],[120.21379,-1.17918],[120.20472,-1.18155],[120.19606,-1.18194],[120.18936,-1.18312],[120.18108,-1.18706],[120.16572,-1.18746],[120.16217,-1.18825],[120.15401,-1.18843],[120.15326,-1.18785],[120.15327,-1.18606],[120.15274,-1.18515],[120.14763,-1.18163],[120.14657,-1.1804],[120.14531,-1.18021],[120.14449,-1.17965],[120.14375,-1.17796],[120.14215,-1.17766],[120.14169,-1.1767],[120.14075,-1.1762],[120.14049,-1.17482],[120.13946,-1.1743],[120.13737,-1.17144],[120.13854,-1.16967],[120.13814,-1.16901],[120.13658,-1.16827],[120.13724,-1.16685],[120.13335,-1.16367],[120.13256,-1.16378],[120.13158,-1.16463],[120.1311,-1.16454],[120.12981,-1.16303],[120.12825,-1.16234],[120.12612,-1.16303],[120.125,-1.16289],[120.12446,-1.16222],[120.1202,-1.16016],[120.11929,-1.15884],[120.11657,-1.15733],[120.1156,-1.15724],[120.11405,-1.15785],[120.11178,-1.15671],[120.11016,-1.15721],[120.10908,-1.15712],[120.10808,-1.15512],[120.10738,-1.15465],[120.10144,-1.15532],[120.09857,-1.15624],[120.09704,-1.15604],[120.09388,-1.15803],[120.09332,-1.16015],[120.09038,-1.15918],[120.08907,-1.1583],[120.08884,-1.1586],[120.08927,-1.15971],[120.08893,-1.16013],[120.08564,-1.16],[120.08428,-1.16043],[120.08488,-1.16155],[120.08464,-1.16192],[120.08497,-1.16318],[120.08465,-1.16385],[120.08547,-1.16414],[120.08593,-1.16566],[120.0858,-1.16673],[120.08646,-1.16808],[120.08608,-1.16917],[120.08379,-1.1715],[120.08361,-1.17348],[120.08295,-1.17396],[120.08268,-1.17521],[120.08139,-1.17688],[120.08126,-1.17853],[120.07967,-1.18097],[120.0797,-1.18186],[120.07795,-1.18621],[120.07792,-1.1879],[120.0785,-1.18967],[120.07819,-1.19113],[120.07888,-1.19402],[120.07845,-1.19668],[120.07798,-1.19734],[120.0763,-1.19791],[120.07546,-1.19945],[120.07243,-1.20231],[120.07087,-1.20501],[120.06905,-1.20656],[120.06894,-1.20896],[120.06812,-1.2094],[120.06746,-1.2118],[120.06653,-1.21244],[120.06552,-1.21419],[120.06602,-1.21647],[120.0649,-1.2182],[120.0634,-1.21926],[120.06201,-1.22282],[120.06098,-1.22409],[120.06063,-1.22648],[120.05983,-1.2282],[120.0605,-1.2308],[120.06213,-1.23402],[120.06126,-1.23907],[120.05948,-1.23715],[120.0563,-1.23599],[120.05482,-1.23619],[120.05116,-1.23842],[120.0445,-1.24148],[120.04242,-1.24152],[120.04107,-1.24101],[120.03833,-1.23885],[120.03538,-1.23818],[120.03453,-1.23819],[120.03305,-1.23945],[120.03072,-1.2403],[120.02327,-1.24096],[120.01926,-1.24008],[120.01546,-1.23813],[120.0148,-1.23729],[120.01553,-1.23474],[120.0207,-1.23182],[120.02309,-1.22924],[120.02362,-1.22776],[120.02367,-1.22574],[120.02285,-1.22276],[120.02366,-1.22069],[120.02386,-1.21805],[120.02296,-1.21453],[120.02215,-1.21346],[120.02093,-1.2128],[120.0139,-1.21157],[120.01234,-1.21065],[120.01102,-1.20892],[120.0096,-1.20559],[120.00693,-1.19698],[120.00531,-1.18968],[120.00516,-1.18537],[120.0058,-1.18392],[120.00748,-1.18196],[120.0074,-1.18106],[120.00111,-1.17421],[119.99427,-1.16878],[119.99217,-1.16668],[119.99081,-1.16432],[119.98847,-1.15801],[119.9881,-1.15422],[119.98843,-1.15267],[119.98946,-1.15127],[119.99107,-1.15078],[119.99167,-1.15017],[119.9914,-1.14335],[119.98882,-1.14098],[119.98696,-1.14053],[119.9862,-1.13924],[119.98677,-1.13726],[119.98503,-1.13601],[119.98531,-1.1346],[119.98311,-1.12978],[119.98236,-1.12695],[119.98025,-1.125],[119.97734,-1.12311],[119.97604,-1.1213],[119.97515,-1.11857],[119.97397,-1.11744],[119.97387,-1.11571],[119.97465,-1.11418],[119.97478,-1.10863],[119.97316,-1.10488],[119.97323,-1.1018],[119.97117,-1.09901],[119.971,-1.09631],[119.97044,-1.09555],[119.97038,-1.09291],[119.96873,-1.0922],[119.96719,-1.09073],[119.96534,-1.0914],[119.96165,-1.08817],[119.9612,-1.0872],[119.95972,-1.08753],[119.95889,-1.08716],[119.95793,-1.08608],[119.95753,-1.08377],[119.95837,-1.08315],[119.95959,-1.08075],[119.96094,-1.07961],[119.96155,-1.07477],[119.96221,-1.07355],[119.96558,-1.07117],[119.96908,-1.06978],[119.97263,-1.06755],[119.97673,-1.06224],[119.97879,-1.06128],[119.9803,-1.05957],[119.98359,-1.05795],[119.98822,-1.05448],[119.99027,-1.05405],[119.99139,-1.05467],[119.99277,-1.05479],[119.99602,-1.05287],[119.99762,-1.05274],[120,-1.05321],[120.00357,-1.05206],[120.0043,-1.05134],[120.0054,-1.05158],[120.00582,-1.05043],[120.00672,-1.04952],[120.00872,-1.04933],[120.01012,-1.04871],[120.00966,-1.04663],[120.01001,-1.04601],[120.01258,-1.04692],[120.01299,-1.04604],[120.01412,-1.04578],[120.0144,-1.04658],[120.01494,-1.04686],[120.01645,-1.04501],[120.01744,-1.04469],[120.01794,-1.04354],[120.01957,-1.04277],[120.0241,-1.03593],[120.02509,-1.0353],[120.02534,-1.03405],[120.02655,-1.0325],[120.02626,-1.0295],[120.02656,-1.02711],[120.02761,-1.02523],[120.02922,-1.02431],[120.02953,-1.02141],[120.03051,-1.0187],[120.03062,-1.01421],[120.0332,-1.01123],[120.03323,-1.00979],[120.0327,-1.00894],[120.03142,-1.00767],[120.02951,-1.0047],[120.02828,-1.0042],[120.02921,-1.0021],[120.02962,-0.99645],[120.03264,-0.99505],[120.03465,-0.9928],[120.03474,-0.9914],[120.03545,-0.9904],[120.0378,-0.9908],[120.03833,-0.9905],[120.0415,-0.98695],[120.04546,-0.9797],[120.04653,-0.97821],[120.04806,-0.97732],[120.04851,-0.97588],[120.04921,-0.97525],[120.05148,-0.97435],[120.05336,-0.97444],[120.06001,-0.97319],[120.06246,-0.97337],[120.06465,-0.97409]]]]}},{"type":"Feature","properties":{"NAMOBJ":"Marawola","KODE_KAB":"7210"},"geometry":{"type":"MultiPolygon","coordinates":[[[[119.86834,-1.01815],[119.86696,-1.01882],[119.86652,-1.01792],[119.86646,-1.01629],[119.86273,-1.01529],[119.86189,-1.01555],[119.85942,-1.01506],[119.85838,-1.01522],[119.85641,-1.01396],[119.85384,-1.01339],[119.85295,-1.0125],[119.84791,-1.0102],[119.84637,-1.01048],[119.84412,-1.01247],[119.84232,-1.01275],[119.84186,-1.01348],[119.83824,-1.01342],[119.83645,-1.01485],[119.83457,-1.01538],[119.83297,-1.01642],[119.83051,-1.01578],[119.8283,-1.01597],[119.82657,-1.01672],[119.82328,-1.0156],[119.82181,-1.01643],[119.81936,-1.01656],[119.81822,-1.01585],[119.81839,-1.01297],[119.81868,-1.01124],[119.82107,-1.00791],[119.82102,-1.00553],[119.82142,-1.00492],[119.82304,-1.00396],[119.82446,-1.00231],[119.82597,-1.00176],[119.82887,-0.99835],[119.8317,-0.99607],[119.83285,-0.99396],[119.84114,-0.9936],[119.85166,-0.99204],[119.8614,-0.99127],[119.8675,-0.98848],[119.8687,-0.98711],[119.86856,-0.98776],[119.86645,-0.99035],[119.86623,-0.99142],[119.86684,-0.99218],[119.86977,-0.99247],[119.87043,-0.99342],[119.87045,-0.99595],[119.86804,-1.00015],[119.86997,-1.00415],[119.87081,-1.00494],[119.87097,-1.00597],[119.87046,-1.00727],[119.86715,-1.00826],[119.86647,-1.00959],[119.86692,-1.01097],[119.86883,-1.01172],[119.86933,-1.0123],[119.86922,-1.01348],[119.86757,-1.0161],[119.8676,-1.01731],[119.86834,-1.01815]]]]}},{"type":"Feature","properties":{"NAMOBJ":"Marawola Barat","KODE_KAB":"7210"},"geometry":{"type":"MultiPolygon","coordinates":[[[[119.73087,-0.90843],[119.73152,-0.90995],[119.73261,-0.91088],[119.73621,-0.91595],[119.73723,-0.91878],[119.73867,-0.91942],[119.73988,-0.92113],[119.7423,-0.92147],[119.74306,-0.92196],[119.74398,-0.92171],[119.74789,-0.91659],[119.74764,-0.9301],[119.74647,-0.93594],[119.74257,-0.94412],[119.74257,-0.94997],[119.74452,-0.95386],[119.74959,-0.95815],[119.76244,-0.9636],[119.77179,-0.96867],[119.78036,-0.97451],[119.78543,-0.98075],[119.78657,-0.98149],[119.7839,-0.98643],[119.78111,-0.98857],[119.77696,-0.9938],[119.77623,-0.99621],[119.77643,-1.00042],[119.77405,-1.00329],[119.772,-1.00712],[119.77178,-1.00906],[119.77065,-1.01058],[119.77053,-1.01275],[119.77121,-1.01367],[119.77139,-1.01544],[119.77042,-1.01665],[119.77068,-1.01765],[119.77234,-1.01786],[119.77529,-1.01982],[119.7786,-1.02416],[119.7791,-1.02558],[119.77992,-1.02651],[119.77968,-1.02742],[119.77863,-1.02817],[119.7773,-1.0313],[119.77699,-1.03305],[119.77555,-1.03499],[119.77235,-1.03632],[119.77123,-1.03333],[119.76874,-1.03316],[119.76625,-1.03184],[119.76396,-1.0315],[119.76239,-1.0306],[119.75997,-1.0278],[119.75622,-1.0162],[119.75792,-1.00515],[119.75731,-0.99673],[119.75272,-0.99768],[119.7498,-0.99955],[119.74417,-0.99778],[119.73965,-0.99531],[119.73623,-0.99451],[119.73439,-0.99466],[119.73025,-0.99391],[119.72716,-0.99388],[119.72451,-0.99457],[119.71889,-0.9946],[119.71662,-0.99557],[119.71812,-0.99769],[119.71643,-0.99793],[119.71584,-1.00057],[119.71494,-1.00121],[119.71494,-1.00296],[119.71306,-1.00434],[119.713,-1.00498],[119.71067,-1.00651],[119.70961,-1.00945],[119.70709,-1.00996],[119.70687,-1.01034],[119.70378,-1.00848],[119.7009,-1.0048],[119.69667,-1.00352],[119.68969,-1.00405],[119.68204,-1.00521],[119.67942,-1.0051],[119.67416,-1.00649],[119.673,-1.00432],[119.6704,-1.00176],[119.66935,-0.99908],[119.66809,-0.99809],[119.66732,-0.99545],[119.66442,-0.99073],[119.6624,-0.9896],[119.65255,-0.99006],[119.64897,-0.98774],[119.64926,-0.9687],[119.65014,-0.96229],[119.65141,-0.96189],[119.65221,-0.96243],[119.65302,-0.96239],[119.6531,-0.96077],[119.65267,-0.96038],[119.65144,-0.96046],[119.65118,-0.95976],[119.65302,-0.95852],[119.65267,-0.95667],[119.65352,-0.95566],[119.65347,-0.95467],[119.65484,-0.95218],[119.65578,-0.95187],[119.66051,-0.95217],[119.6612,-0.95055],[119.66235,-0.94977],[119.66274,-0.94985],[119.66281,-0.95078],[119.66213,-0.95275],[119.66343,-0.95267],[119.66462,-0.95179],[119.66531,-0.94993],[119.66648,-0.94915],[119.66632,-0.94814],[119.67419,-0.94369],[119.69091,-0.94369],[119.70205,-0.93871],[119.70345,-0.93746],[119.71025,-0.93686],[119.7113,-0.93596],[119.71147,-0.93512],[119.71057,-0.92744],[119.71845,-0.9166],[119.72152,-0.91603],[119.72163,-0.91431],[119.72267,-0.91222],[119.72505,-0.91036],[119.72778,-0.90749],[119.72876,-0.90546],[119.73087,-0.90843]]]]}},{"type":"Feature","properties":{"NAMOBJ":"Kinovaro","KODE_KAB":"7210"},"geometry":{"type":"MultiPolygon","coordinates":[[[[119.83285,-0.99396],[119.8317,-0.99607],[119.82887,-0.99835],[119.82597,-1.00176],[119.82446,-1.00231],[119.82304,-1.00396],[119.82128,-1.00512],[119.82107,-1.00791],[119.81862,-1.01142],[119.81822,-1.01585],[119.81577,-1.0145],[119.8148,-1.01435],[119.81177,-1.01145],[119.80993,-1.00846],[119.80613,-1.00887],[119.80326,-1.00832],[119.80081,-1.00985],[119.79836,-1.00976],[119.79654,-1.01087],[119.79488,-1.01299],[119.79272,-1.01402],[119.79081,-1.01887],[119.78833,-1.02119],[119.78785,-1.02287],[119.78593,-1.02439],[119.78585,-1.02553],[119.7846,-1.02558],[119.78329,-1.02508],[119.78219,-1.02595],[119.78033,-1.02605],[119.77992,-1.02651],[119.7791,-1.02558],[119.7786,-1.02416],[119.77529,-1.01982],[119.77234,-1.01786],[119.77068,-1.01765],[119.77036,-1.01701],[119.77139,-1.01544],[119.77121,-1.01367],[119.77053,-1.01275],[119.77065,-1.01058],[119.77178,-1.00906],[119.772,-1.00712],[119.77405,-1.00329],[119.77643,-1.00042],[119.77623,-0.99621],[119.7769,-0.99391],[119.78111,-0.98857],[119.7839,-0.98643],[119.78657,-0.98149],[119.79439,-0.98659],[119.8014,-0.98854],[119.8088,-0.99127],[119.81387,-0.9936],[119.82283,-0.99438],[119.83285,-0.99396]]]]}},{"type":"Feature","properties":{"NAMOBJ":"Sigi Biromaru","KODE_KAB":"7210"},"geometry":{"type":"MultiPolygon","coordinates":[[[[120.06623,-0.91267],[120.06327,-0.91645],[120.0646,-0.91851],[120.06489,-0.92082],[120.06456,-0.92537],[120.06331,-0.92775],[120.06322,-0.92873],[120.06428,-0.93528],[120.06178,-0.93955],[120.06187,-0.94466],[120.06115,-0.9483],[120.06048,-0.95058],[120.05851,-0.9538],[120.05561,-0.95676],[120.05382,-0.95972],[120.05248,-0.96304],[120.05245,-0.96753],[120.05158,-0.96982],[120.05207,-0.97255],[120.05296,-0.97435],[120.05021,-0.97469],[120.04851,-0.97588],[120.04806,-0.97732],[120.04653,-0.97821],[120.04364,-0.98254],[120.0415,-0.98695],[120.03833,-0.9905],[120.0378,-0.9908],[120.03545,-0.9904],[120.03474,-0.9914],[120.03465,-0.9928],[120.03264,-0.99505],[120.02962,-0.99645],[120.02921,-1.0021],[120.02828,-1.0042],[120.02951,-1.0047],[120.03142,-1.00767],[120.0327,-1.00894],[120.03323,-1.00979],[120.0332,-1.01123],[120.03062,-1.01421],[120.03051,-1.0187],[120.02953,-1.02141],[120.02922,-1.02431],[120.02761,-1.02523],[120.02656,-1.02711],[120.02626,-1.0295],[120.02655,-1.0325],[120.02534,-1.03405],[120.02509,-1.0353],[120.0241,-1.03593],[120.01963,-1.0427],[120.01794,-1.04354],[120.01744,-1.04469],[120.01645,-1.04501],[120.01494,-1.04686],[120.0144,-1.04658],[120.01412,-1.04578],[120.01299,-1.04604],[120.01258,-1.04692],[120.01001,-1.04601],[120.00966,-1.04663],[120.01012,-1.04871],[120.00872,-1.04933],[120.00672,-1.04952],[120.00582,-1.05043],[120.0054,-1.05158],[120.0043,-1.05134],[120.00357,-1.05206],[120,-1.05321],[119.99762,-1.05274],[119.99602,-1.05287],[119.99277,-1.05479],[119.99139,-1.05467],[119.99027,-1.05405],[119.98822,-1.05448],[119.98359,-1.05795],[119.97997,-1.0598],[119.97879,-1.06128],[119.97673,-1.06224],[119.97391,-1.06621],[119.97158,-1.06834],[119.96558,-1.07117],[119.96193,-1.07385],[119.96094,-1.07961],[119.95959,-1.08075],[119.95837,-1.08315],[119.95753,-1.08377],[119.95793,-1.08608],[119.95948,-1.08747],[119.96138,-1.08731],[119.96165,-1.08817],[119.96534,-1.0914],[119.96719,-1.09073],[119.96873,-1.0922],[119.97038,-1.09291],[119.97044,-1.09555],[119.971,-1.09631],[119.97108,-1.09815],[119.96985,-1.09869],[119.96938,-1.10013],[119.96846,-1.10104],[119.96717,-1.10141],[119.96604,-1.10243],[119.964,-1.10148],[119.96329,-1.10219],[119.96122,-1.10189],[119.95942,-1.10214],[119.95892,-1.10579],[119.95751,-1.10759],[119.95041,-1.10693],[119.94274,-1.10726],[119.9406,-1.10677],[119.93724,-1.10799],[119.93556,-1.10927],[119.93384,-1.10992],[119.93156,-1.11013],[119.92907,-1.10958],[119.92416,-1.11039],[119.92066,-1.11185],[119.91651,-1.11438],[119.90774,-1.11824],[119.90455,-1.11827],[119.90413,-1.11549],[119.90192,-1.10952],[119.90259,-1.10513],[119.89879,-1.10476],[119.89445,-1.10239],[119.89103,-1.10266],[119.88753,-1.1021],[119.88411,-1.09955],[119.88233,-1.09709],[119.88221,-1.09639],[119.88308,-1.09348],[119.88407,-1.09263],[119.8866,-1.09224],[119.88652,-1.09075],[119.88466,-1.08552],[119.88516,-1.08332],[119.88776,-1.08168],[119.88838,-1.0807],[119.88993,-1.08058],[119.89019,-1.07915],[119.89228,-1.07838],[119.8953,-1.07522],[119.89385,-1.0723],[119.89491,-1.07006],[119.8948,-1.06895],[119.89361,-1.06866],[119.88997,-1.06927],[119.88898,-1.0688],[119.88887,-1.06768],[119.8893,-1.06684],[119.89116,-1.06666],[119.89171,-1.066],[119.89004,-1.06192],[119.89149,-1.06212],[119.89248,-1.06184],[119.89372,-1.06015],[119.89544,-1.06142],[119.90688,-1.05584],[119.90871,-1.0554],[119.90679,-1.04971],[119.90523,-1.04783],[119.90433,-1.04452],[119.90427,-1.03487],[119.90643,-1.03333],[119.91001,-1.03296],[119.91205,-1.03218],[119.91561,-1.03295],[119.91718,-1.03291],[119.91862,-1.02752],[119.91792,-1.02431],[119.91918,-1.01553],[119.92163,-1.00908],[119.91945,-1.00829],[119.91928,-1.00267],[119.91762,-1.00117],[119.91581,-1.00086],[119.91494,-0.99928],[119.91435,-0.98855],[119.91146,-0.98741],[119.91029,-0.98759],[119.9098,-0.98703],[119.90921,-0.98727],[119.90852,-0.98669],[119.90742,-0.98715],[119.907,-0.98624],[119.90515,-0.98593],[119.90288,-0.98491],[119.90187,-0.98347],[119.90179,-0.97691],[119.90932,-0.97724],[119.91408,-0.97542],[119.92062,-0.97841],[119.9327,-0.98114],[119.93309,-0.98308],[119.93815,-0.98464],[119.95062,-0.98464],[119.95841,-0.97997],[119.96698,-0.97373],[119.97984,-0.96711],[119.98412,-0.9636],[119.98841,-0.96321],[119.99269,-0.96205],[119.9962,-0.9601],[119.99737,-0.95659],[119.99776,-0.95192],[119.99971,-0.94997],[120.00321,-0.94997],[120.00633,-0.94919],[120.00906,-0.94763],[120.00945,-0.9414],[120.01023,-0.93906],[120.01412,-0.93789],[120.01724,-0.93516],[120.01958,-0.93127],[120.02347,-0.92815],[120.02581,-0.92503],[120.0262,-0.92231],[120.02854,-0.91997],[120.03516,-0.9188],[120.03594,-0.91607],[120.03867,-0.91101],[120.04139,-0.91062],[120.04529,-0.91179],[120.04802,-0.91179],[120.05152,-0.91023],[120.05347,-0.90867],[120.0562,-0.90789],[120.0649,-0.90745],[120.0665,-0.91146],[120.06623,-0.91267]]]]}}]}